{
  "type": "FeatureCollection",
  "name": "nanjing_xianlin_exposure_units",
  "crs": {
    "type": "name",
    "properties": {
      "name": "urn:ogc:def:crs:OGC:1.3:CRS84"
    }
  },
  "features": [
    {
      "type": "Feature",
      "properties": {
        "cell_id": 0,
        "population_proxy": 815.02,
        "estrato": 0,
        "hazard_max": "Baja",
        "slope_deg": 1.49,
        "floors": 1,
        "source": "exposure_unit_from_population_and_built_up_proxy"
      },
      "geometry": {
        "type": "Point",
        "coordinates": [
          118.88499999999999,
          32.08
        ]
      }
    },
    {
      "type": "Feature",
      "properties": {
        "cell_id": 1,
        "population_proxy": 1312.17,
        "estrato": 0,
        "hazard_max": "Media",
        "slope_deg": 2.23,
        "floors": 1,
        "source": "exposure_unit_from_population_and_built_up_proxy"
      },
      "geometry": {
        "type": "Point",
        "coordinates": [
          118.89500000000001,
          32.08
        ]
      }
    },
    {
      "type": "Feature",
      "properties": {
        "cell_id": 2,
        "population_proxy": 587.6,
        "estrato": 0,
        "hazard_max": "Media",
        "slope_deg": 3.7,
        "floors": 1,
        "source": "exposure_unit_from_population_and_built_up_proxy"
      },
      "geometry": {
        "type": "Point",
        "coordinates": [
          118.905,
          32.08
        ]
      }
    },
    {
      "type": "Feature",
      "properties": {
        "cell_id": 3,
        "population_proxy": 308.89,
        "estrato": 0,
        "hazard_max": "Baja",
        "slope_deg": 3.53,
        "floors": 1,
        "source": "exposure_unit_from_population_and_built_up_proxy"
      },
      "geometry": {
        "type": "Point",
        "coordinates": [
          118.91500000000002,
          32.08
        ]
      }
    },
    {
      "type": "Feature",
      "properties": {
        "cell_id": 4,
        "population_proxy": 152.77,
        "estrato": 0,
        "hazard_max": "Media",
        "slope_deg": 3.89,
        "floors": 1,
        "source": "exposure_unit_from_population_and_built_up_proxy"
      },
      "geometry": {
        "type": "Point",
        "coordinates": [
          118.92500000000001,
          32.08
        ]
      }
    },
    {
      "type": "Feature",
      "properties": {
        "cell_id": 5,
        "population_proxy": 175.58,
        "estrato": 0,
        "hazard_max": "Media",
        "slope_deg": 1.49,
        "floors": 1,
        "source": "exposure_unit_from_population_and_built_up_proxy"
      },
      "geometry": {
        "type": "Point",
        "coordinates": [
          118.93500000000003,
          32.08
        ]
      }
    },
    {
      "type": "Feature",
      "properties": {
        "cell_id": 6,
        "population_proxy": 587.96,
        "estrato": 0,
        "hazard_max": "Media",
        "slope_deg": 2.38,
        "floors": 1,
        "source": "exposure_unit_from_population_and_built_up_proxy"
      },
      "geometry": {
        "type": "Point",
        "coordinates": [
          118.94500000000002,
          32.08
        ]
      }
    },
    {
      "type": "Feature",
      "properties": {
        "cell_id": 7,
        "population_proxy": 139.4,
        "estrato": 0,
        "hazard_max": "Media",
        "slope_deg": 1.85,
        "floors": 1,
        "source": "exposure_unit_from_population_and_built_up_proxy"
      },
      "geometry": {
        "type": "Point",
        "coordinates": [
          118.95500000000004,
          32.08
        ]
      }
    },
    {
      "type": "Feature",
      "properties": {
        "cell_id": 8,
        "population_proxy": 28.96,
        "estrato": 0,
        "hazard_max": "Baja",
        "slope_deg": 9.49,
        "floors": 1,
        "source": "exposure_unit_from_population_and_built_up_proxy"
      },
      "geometry": {
        "type": "Point",
        "coordinates": [
          118.96500000000003,
          32.08
        ]
      }
    },
    {
      "type": "Feature",
      "properties": {
        "cell_id": 9,
        "population_proxy": 0.0,
        "estrato": 0,
        "hazard_max": "Baja",
        "slope_deg": 1.39,
        "floors": 1,
        "source": "exposure_unit_from_population_and_built_up_proxy"
      },
      "geometry": {
        "type": "Point",
        "coordinates": [
          118.97500000000005,
          32.08
        ]
      }
    },
    {
      "type": "Feature",
      "properties": {
        "cell_id": 10,
        "population_proxy": 3098.76,
        "estrato": 0,
        "hazard_max": "Media",
        "slope_deg": 1.19,
        "floors": 1,
        "source": "exposure_unit_from_population_and_built_up_proxy"
      },
      "geometry": {
        "type": "Point",
        "coordinates": [
          118.88499999999999,
          32.09
        ]
      }
    },
    {
      "type": "Feature",
      "properties": {
        "cell_id": 11,
        "population_proxy": 2976.02,
        "estrato": 0,
        "hazard_max": "Media",
        "slope_deg": 0.55,
        "floors": 1,
        "source": "exposure_unit_from_population_and_built_up_proxy"
      },
      "geometry": {
        "type": "Point",
        "coordinates": [
          118.89500000000001,
          32.09
        ]
      }
    },
    {
      "type": "Feature",
      "properties": {
        "cell_id": 12,
        "population_proxy": 1927.97,
        "estrato": 0,
        "hazard_max": "Media",
        "slope_deg": 2.38,
        "floors": 1,
        "source": "exposure_unit_from_population_and_built_up_proxy"
      },
      "geometry": {
        "type": "Point",
        "coordinates": [
          118.905,
          32.09
        ]
      }
    },
    {
      "type": "Feature",
      "properties": {
        "cell_id": 13,
        "population_proxy": 1104.56,
        "estrato": 0,
        "hazard_max": "Media",
        "slope_deg": 1.43,
        "floors": 1,
        "source": "exposure_unit_from_population_and_built_up_proxy"
      },
      "geometry": {
        "type": "Point",
        "coordinates": [
          118.91500000000002,
          32.09
        ]
      }
    },
    {
      "type": "Feature",
      "properties": {
        "cell_id": 14,
        "population_proxy": 1989.29,
        "estrato": 0,
        "hazard_max": "Media",
        "slope_deg": 3.4,
        "floors": 1,
        "source": "exposure_unit_from_population_and_built_up_proxy"
      },
      "geometry": {
        "type": "Point",
        "coordinates": [
          118.92500000000001,
          32.09
        ]
      }
    },
    {
      "type": "Feature",
      "properties": {
        "cell_id": 15,
        "population_proxy": 25.24,
        "estrato": 0,
        "hazard_max": "Baja",
        "slope_deg": 4.23,
        "floors": 1,
        "source": "exposure_unit_from_population_and_built_up_proxy"
      },
      "geometry": {
        "type": "Point",
        "coordinates": [
          118.93500000000003,
          32.09
        ]
      }
    },
    {
      "type": "Feature",
      "properties": {
        "cell_id": 16,
        "population_proxy": 68.88,
        "estrato": 0,
        "hazard_max": "Baja",
        "slope_deg": 13.64,
        "floors": 1,
        "source": "exposure_unit_from_population_and_built_up_proxy"
      },
      "geometry": {
        "type": "Point",
        "coordinates": [
          118.94500000000002,
          32.09
        ]
      }
    },
    {
      "type": "Feature",
      "properties": {
        "cell_id": 17,
        "population_proxy": 399.39,
        "estrato": 0,
        "hazard_max": "Media",
        "slope_deg": 5.71,
        "floors": 1,
        "source": "exposure_unit_from_population_and_built_up_proxy"
      },
      "geometry": {
        "type": "Point",
        "coordinates": [
          118.95500000000004,
          32.09
        ]
      }
    },
    {
      "type": "Feature",
      "properties": {
        "cell_id": 18,
        "population_proxy": 119.94,
        "estrato": 0,
        "hazard_max": "Baja",
        "slope_deg": 2.19,
        "floors": 1,
        "source": "exposure_unit_from_population_and_built_up_proxy"
      },
      "geometry": {
        "type": "Point",
        "coordinates": [
          118.96500000000003,
          32.09
        ]
      }
    },
    {
      "type": "Feature",
      "properties": {
        "cell_id": 19,
        "population_proxy": 43.24,
        "estrato": 0,
        "hazard_max": "Baja",
        "slope_deg": 6.72,
        "floors": 1,
        "source": "exposure_unit_from_population_and_built_up_proxy"
      },
      "geometry": {
        "type": "Point",
        "coordinates": [
          118.97500000000005,
          32.09
        ]
      }
    },
    {
      "type": "Feature",
      "properties": {
        "cell_id": 20,
        "population_proxy": 1156.81,
        "estrato": 0,
        "hazard_max": "Baja",
        "slope_deg": 1.08,
        "floors": 1,
        "source": "exposure_unit_from_population_and_built_up_proxy"
      },
      "geometry": {
        "type": "Point",
        "coordinates": [
          118.88499999999999,
          32.099999999999994
        ]
      }
    },
    {
      "type": "Feature",
      "properties": {
        "cell_id": 21,
        "population_proxy": 1729.92,
        "estrato": 0,
        "hazard_max": "Media",
        "slope_deg": 3.28,
        "floors": 1,
        "source": "exposure_unit_from_population_and_built_up_proxy"
      },
      "geometry": {
        "type": "Point",
        "coordinates": [
          118.89500000000001,
          32.099999999999994
        ]
      }
    },
    {
      "type": "Feature",
      "properties": {
        "cell_id": 22,
        "population_proxy": 2314.72,
        "estrato": 0,
        "hazard_max": "Media",
        "slope_deg": 1.19,
        "floors": 1,
        "source": "exposure_unit_from_population_and_built_up_proxy"
      },
      "geometry": {
        "type": "Point",
        "coordinates": [
          118.905,
          32.099999999999994
        ]
      }
    },
    {
      "type": "Feature",
      "properties": {
        "cell_id": 23,
        "population_proxy": 3045.78,
        "estrato": 0,
        "hazard_max": "Media",
        "slope_deg": 4.01,
        "floors": 1,
        "source": "exposure_unit_from_population_and_built_up_proxy"
      },
      "geometry": {
        "type": "Point",
        "coordinates": [
          118.91500000000002,
          32.099999999999994
        ]
      }
    },
    {
      "type": "Feature",
      "properties": {
        "cell_id": 24,
        "population_proxy": 792.59,
        "estrato": 0,
        "hazard_max": "Media",
        "slope_deg": 2.98,
        "floors": 1,
        "source": "exposure_unit_from_population_and_built_up_proxy"
      },
      "geometry": {
        "type": "Point",
        "coordinates": [
          118.92500000000001,
          32.099999999999994
        ]
      }
    },
    {
      "type": "Feature",
      "properties": {
        "cell_id": 25,
        "population_proxy": 1426.05,
        "estrato": 0,
        "hazard_max": "Media",
        "slope_deg": 3.89,
        "floors": 1,
        "source": "exposure_unit_from_population_and_built_up_proxy"
      },
      "geometry": {
        "type": "Point",
        "coordinates": [
          118.93500000000003,
          32.099999999999994
        ]
      }
    },
    {
      "type": "Feature",
      "properties": {
        "cell_id": 26,
        "population_proxy": 21.23,
        "estrato": 0,
        "hazard_max": "Baja",
        "slope_deg": 14.01,
        "floors": 1,
        "source": "exposure_unit_from_population_and_built_up_proxy"
      },
      "geometry": {
        "type": "Point",
        "coordinates": [
          118.94500000000002,
          32.099999999999994
        ]
      }
    },
    {
      "type": "Feature",
      "properties": {
        "cell_id": 27,
        "population_proxy": 138.4,
        "estrato": 0,
        "hazard_max": "Baja",
        "slope_deg": 0.46,
        "floors": 1,
        "source": "exposure_unit_from_population_and_built_up_proxy"
      },
      "geometry": {
        "type": "Point",
        "coordinates": [
          118.95500000000004,
          32.099999999999994
        ]
      }
    },
    {
      "type": "Feature",
      "properties": {
        "cell_id": 28,
        "population_proxy": 42.86,
        "estrato": 0,
        "hazard_max": "Baja",
        "slope_deg": 4.93,
        "floors": 1,
        "source": "exposure_unit_from_population_and_built_up_proxy"
      },
      "geometry": {
        "type": "Point",
        "coordinates": [
          118.96500000000003,
          32.099999999999994
        ]
      }
    },
    {
      "type": "Feature",
      "properties": {
        "cell_id": 29,
        "population_proxy": 133.26,
        "estrato": 0,
        "hazard_max": "Baja",
        "slope_deg": 4.47,
        "floors": 1,
        "source": "exposure_unit_from_population_and_built_up_proxy"
      },
      "geometry": {
        "type": "Point",
        "coordinates": [
          118.97500000000005,
          32.099999999999994
        ]
      }
    },
    {
      "type": "Feature",
      "properties": {
        "cell_id": 30,
        "population_proxy": 399.43,
        "estrato": 0,
        "hazard_max": "Media",
        "slope_deg": 3.86,
        "floors": 1,
        "source": "exposure_unit_from_population_and_built_up_proxy"
      },
      "geometry": {
        "type": "Point",
        "coordinates": [
          118.88499999999999,
          32.11
        ]
      }
    },
    {
      "type": "Feature",
      "properties": {
        "cell_id": 31,
        "population_proxy": 717.15,
        "estrato": 0,
        "hazard_max": "Baja",
        "slope_deg": 0.93,
        "floors": 1,
        "source": "exposure_unit_from_population_and_built_up_proxy"
      },
      "geometry": {
        "type": "Point",
        "coordinates": [
          118.89500000000001,
          32.11
        ]
      }
    },
    {
      "type": "Feature",
      "properties": {
        "cell_id": 32,
        "population_proxy": 60.03,
        "estrato": 0,
        "hazard_max": "Baja",
        "slope_deg": 10.77,
        "floors": 1,
        "source": "exposure_unit_from_population_and_built_up_proxy"
      },
      "geometry": {
        "type": "Point",
        "coordinates": [
          118.905,
          32.11
        ]
      }
    },
    {
      "type": "Feature",
      "properties": {
        "cell_id": 33,
        "population_proxy": 1352.43,
        "estrato": 0,
        "hazard_max": "Media",
        "slope_deg": 3.56,
        "floors": 1,
        "source": "exposure_unit_from_population_and_built_up_proxy"
      },
      "geometry": {
        "type": "Point",
        "coordinates": [
          118.91500000000002,
          32.11
        ]
      }
    },
    {
      "type": "Feature",
      "properties": {
        "cell_id": 34,
        "population_proxy": 1381.83,
        "estrato": 0,
        "hazard_max": "Media",
        "slope_deg": 5.42,
        "floors": 1,
        "source": "exposure_unit_from_population_and_built_up_proxy"
      },
      "geometry": {
        "type": "Point",
        "coordinates": [
          118.92500000000001,
          32.11
        ]
      }
    },
    {
      "type": "Feature",
      "properties": {
        "cell_id": 35,
        "population_proxy": 52.53,
        "estrato": 0,
        "hazard_max": "Baja",
        "slope_deg": 7.84,
        "floors": 1,
        "source": "exposure_unit_from_population_and_built_up_proxy"
      },
      "geometry": {
        "type": "Point",
        "coordinates": [
          118.93500000000003,
          32.11
        ]
      }
    },
    {
      "type": "Feature",
      "properties": {
        "cell_id": 36,
        "population_proxy": 80.28,
        "estrato": 0,
        "hazard_max": "Media",
        "slope_deg": 0.55,
        "floors": 1,
        "source": "exposure_unit_from_population_and_built_up_proxy"
      },
      "geometry": {
        "type": "Point",
        "coordinates": [
          118.94500000000002,
          32.11
        ]
      }
    },
    {
      "type": "Feature",
      "properties": {
        "cell_id": 37,
        "population_proxy": 1880.16,
        "estrato": 0,
        "hazard_max": "Media",
        "slope_deg": 0.55,
        "floors": 1,
        "source": "exposure_unit_from_population_and_built_up_proxy"
      },
      "geometry": {
        "type": "Point",
        "coordinates": [
          118.95500000000004,
          32.11
        ]
      }
    },
    {
      "type": "Feature",
      "properties": {
        "cell_id": 38,
        "population_proxy": 75.23,
        "estrato": 0,
        "hazard_max": "Baja",
        "slope_deg": 16.32,
        "floors": 1,
        "source": "exposure_unit_from_population_and_built_up_proxy"
      },
      "geometry": {
        "type": "Point",
        "coordinates": [
          118.96500000000003,
          32.11
        ]
      }
    },
    {
      "type": "Feature",
      "properties": {
        "cell_id": 39,
        "population_proxy": 0.0,
        "estrato": 0,
        "hazard_max": "Baja",
        "slope_deg": 4.75,
        "floors": 1,
        "source": "exposure_unit_from_population_and_built_up_proxy"
      },
      "geometry": {
        "type": "Point",
        "coordinates": [
          118.97500000000005,
          32.11
        ]
      }
    },
    {
      "type": "Feature",
      "properties": {
        "cell_id": 40,
        "population_proxy": 1509.38,
        "estrato": 0,
        "hazard_max": "Media",
        "slope_deg": 0.0,
        "floors": 1,
        "source": "exposure_unit_from_population_and_built_up_proxy"
      },
      "geometry": {
        "type": "Point",
        "coordinates": [
          118.88499999999999,
          32.11999999999999
        ]
      }
    },
    {
      "type": "Feature",
      "properties": {
        "cell_id": 41,
        "population_proxy": 807.48,
        "estrato": 0,
        "hazard_max": "Baja",
        "slope_deg": 3.3,
        "floors": 1,
        "source": "exposure_unit_from_population_and_built_up_proxy"
      },
      "geometry": {
        "type": "Point",
        "coordinates": [
          118.89500000000001,
          32.11999999999999
        ]
      }
    },
    {
      "type": "Feature",
      "properties": {
        "cell_id": 42,
        "population_proxy": 683.1,
        "estrato": 0,
        "hazard_max": "Baja",
        "slope_deg": 8.42,
        "floors": 1,
        "source": "exposure_unit_from_population_and_built_up_proxy"
      },
      "geometry": {
        "type": "Point",
        "coordinates": [
          118.905,
          32.11999999999999
        ]
      }
    },
    {
      "type": "Feature",
      "properties": {
        "cell_id": 43,
        "population_proxy": 486.32,
        "estrato": 0,
        "hazard_max": "Baja",
        "slope_deg": 4.3,
        "floors": 1,
        "source": "exposure_unit_from_population_and_built_up_proxy"
      },
      "geometry": {
        "type": "Point",
        "coordinates": [
          118.91500000000002,
          32.11999999999999
        ]
      }
    },
    {
      "type": "Feature",
      "properties": {
        "cell_id": 44,
        "population_proxy": 995.46,
        "estrato": 0,
        "hazard_max": "Media",
        "slope_deg": 2.15,
        "floors": 1,
        "source": "exposure_unit_from_population_and_built_up_proxy"
      },
      "geometry": {
        "type": "Point",
        "coordinates": [
          118.92500000000001,
          32.11999999999999
        ]
      }
    },
    {
      "type": "Feature",
      "properties": {
        "cell_id": 45,
        "population_proxy": 679.39,
        "estrato": 0,
        "hazard_max": "Media",
        "slope_deg": 1.43,
        "floors": 1,
        "source": "exposure_unit_from_population_and_built_up_proxy"
      },
      "geometry": {
        "type": "Point",
        "coordinates": [
          118.93500000000003,
          32.11999999999999
        ]
      }
    },
    {
      "type": "Feature",
      "properties": {
        "cell_id": 46,
        "population_proxy": 196.6,
        "estrato": 0,
        "hazard_max": "Media",
        "slope_deg": 1.09,
        "floors": 1,
        "source": "exposure_unit_from_population_and_built_up_proxy"
      },
      "geometry": {
        "type": "Point",
        "coordinates": [
          118.94500000000002,
          32.11999999999999
        ]
      }
    },
    {
      "type": "Feature",
      "properties": {
        "cell_id": 47,
        "population_proxy": 553.11,
        "estrato": 0,
        "hazard_max": "Media",
        "slope_deg": 8.75,
        "floors": 1,
        "source": "exposure_unit_from_population_and_built_up_proxy"
      },
      "geometry": {
        "type": "Point",
        "coordinates": [
          118.95500000000004,
          32.11999999999999
        ]
      }
    },
    {
      "type": "Feature",
      "properties": {
        "cell_id": 48,
        "population_proxy": 394.68,
        "estrato": 0,
        "hazard_max": "Media",
        "slope_deg": 3.76,
        "floors": 1,
        "source": "exposure_unit_from_population_and_built_up_proxy"
      },
      "geometry": {
        "type": "Point",
        "coordinates": [
          118.96500000000003,
          32.11999999999999
        ]
      }
    },
    {
      "type": "Feature",
      "properties": {
        "cell_id": 49,
        "population_proxy": 510.45,
        "estrato": 0,
        "hazard_max": "Baja",
        "slope_deg": 0.72,
        "floors": 1,
        "source": "exposure_unit_from_population_and_built_up_proxy"
      },
      "geometry": {
        "type": "Point",
        "coordinates": [
          118.97500000000005,
          32.11999999999999
        ]
      }
    },
    {
      "type": "Feature",
      "properties": {
        "cell_id": 50,
        "population_proxy": 2534.34,
        "estrato": 0,
        "hazard_max": "Media",
        "slope_deg": 3.06,
        "floors": 1,
        "source": "exposure_unit_from_population_and_built_up_proxy"
      },
      "geometry": {
        "type": "Point",
        "coordinates": [
          118.88499999999999,
          32.129999999999995
        ]
      }
    },
    {
      "type": "Feature",
      "properties": {
        "cell_id": 51,
        "population_proxy": 482.25,
        "estrato": 0,
        "hazard_max": "Baja",
        "slope_deg": 2.59,
        "floors": 1,
        "source": "exposure_unit_from_population_and_built_up_proxy"
      },
      "geometry": {
        "type": "Point",
        "coordinates": [
          118.89500000000001,
          32.129999999999995
        ]
      }
    },
    {
      "type": "Feature",
      "properties": {
        "cell_id": 52,
        "population_proxy": 803.67,
        "estrato": 0,
        "hazard_max": "Media",
        "slope_deg": 3.63,
        "floors": 1,
        "source": "exposure_unit_from_population_and_built_up_proxy"
      },
      "geometry": {
        "type": "Point",
        "coordinates": [
          118.905,
          32.129999999999995
        ]
      }
    },
    {
      "type": "Feature",
      "properties": {
        "cell_id": 53,
        "population_proxy": 125.48,
        "estrato": 0,
        "hazard_max": "Baja",
        "slope_deg": 3.74,
        "floors": 1,
        "source": "exposure_unit_from_population_and_built_up_proxy"
      },
      "geometry": {
        "type": "Point",
        "coordinates": [
          118.91500000000002,
          32.129999999999995
        ]
      }
    },
    {
      "type": "Feature",
      "properties": {
        "cell_id": 54,
        "population_proxy": 427.41,
        "estrato": 0,
        "hazard_max": "Baja",
        "slope_deg": 1.08,
        "floors": 1,
        "source": "exposure_unit_from_population_and_built_up_proxy"
      },
      "geometry": {
        "type": "Point",
        "coordinates": [
          118.92500000000001,
          32.129999999999995
        ]
      }
    },
    {
      "type": "Feature",
      "properties": {
        "cell_id": 55,
        "population_proxy": 1101.84,
        "estrato": 0,
        "hazard_max": "Media",
        "slope_deg": 0.72,
        "floors": 1,
        "source": "exposure_unit_from_population_and_built_up_proxy"
      },
      "geometry": {
        "type": "Point",
        "coordinates": [
          118.93500000000003,
          32.129999999999995
        ]
      }
    },
    {
      "type": "Feature",
      "properties": {
        "cell_id": 56,
        "population_proxy": 46.69,
        "estrato": 0,
        "hazard_max": "Baja",
        "slope_deg": 10.02,
        "floors": 1,
        "source": "exposure_unit_from_population_and_built_up_proxy"
      },
      "geometry": {
        "type": "Point",
        "coordinates": [
          118.94500000000002,
          32.129999999999995
        ]
      }
    },
    {
      "type": "Feature",
      "properties": {
        "cell_id": 57,
        "population_proxy": 375.26,
        "estrato": 0,
        "hazard_max": "Media",
        "slope_deg": 11.81,
        "floors": 1,
        "source": "exposure_unit_from_population_and_built_up_proxy"
      },
      "geometry": {
        "type": "Point",
        "coordinates": [
          118.95500000000004,
          32.129999999999995
        ]
      }
    },
    {
      "type": "Feature",
      "properties": {
        "cell_id": 58,
        "population_proxy": 96.39,
        "estrato": 0,
        "hazard_max": "Baja",
        "slope_deg": 2.19,
        "floors": 1,
        "source": "exposure_unit_from_population_and_built_up_proxy"
      },
      "geometry": {
        "type": "Point",
        "coordinates": [
          118.96500000000003,
          32.129999999999995
        ]
      }
    },
    {
      "type": "Feature",
      "properties": {
        "cell_id": 59,
        "population_proxy": 1084.86,
        "estrato": 0,
        "hazard_max": "Media",
        "slope_deg": 1.19,
        "floors": 1,
        "source": "exposure_unit_from_population_and_built_up_proxy"
      },
      "geometry": {
        "type": "Point",
        "coordinates": [
          118.97500000000005,
          32.129999999999995
        ]
      }
    },
    {
      "type": "Feature",
      "properties": {
        "cell_id": 60,
        "population_proxy": 263.81,
        "estrato": 0,
        "hazard_max": "Media",
        "slope_deg": 6.79,
        "floors": 1,
        "source": "exposure_unit_from_population_and_built_up_proxy"
      },
      "geometry": {
        "type": "Point",
        "coordinates": [
          118.88499999999999,
          32.139999999999986
        ]
      }
    },
    {
      "type": "Feature",
      "properties": {
        "cell_id": 61,
        "population_proxy": 424.71,
        "estrato": 0,
        "hazard_max": "Media",
        "slope_deg": 5.99,
        "floors": 1,
        "source": "exposure_unit_from_population_and_built_up_proxy"
      },
      "geometry": {
        "type": "Point",
        "coordinates": [
          118.89500000000001,
          32.139999999999986
        ]
      }
    },
    {
      "type": "Feature",
      "properties": {
        "cell_id": 62,
        "population_proxy": 358.5,
        "estrato": 0,
        "hazard_max": "Media",
        "slope_deg": 2.15,
        "floors": 1,
        "source": "exposure_unit_from_population_and_built_up_proxy"
      },
      "geometry": {
        "type": "Point",
        "coordinates": [
          118.905,
          32.139999999999986
        ]
      }
    },
    {
      "type": "Feature",
      "properties": {
        "cell_id": 63,
        "population_proxy": 618.78,
        "estrato": 0,
        "hazard_max": "Media",
        "slope_deg": 3.18,
        "floors": 1,
        "source": "exposure_unit_from_population_and_built_up_proxy"
      },
      "geometry": {
        "type": "Point",
        "coordinates": [
          118.91500000000002,
          32.139999999999986
        ]
      }
    },
    {
      "type": "Feature",
      "properties": {
        "cell_id": 64,
        "population_proxy": 312.4,
        "estrato": 0,
        "hazard_max": "Media",
        "slope_deg": 1.7,
        "floors": 1,
        "source": "exposure_unit_from_population_and_built_up_proxy"
      },
      "geometry": {
        "type": "Point",
        "coordinates": [
          118.92500000000001,
          32.139999999999986
        ]
      }
    },
    {
      "type": "Feature",
      "properties": {
        "cell_id": 65,
        "population_proxy": 72.18,
        "estrato": 0,
        "hazard_max": "Baja",
        "slope_deg": 16.56,
        "floors": 1,
        "source": "exposure_unit_from_population_and_built_up_proxy"
      },
      "geometry": {
        "type": "Point",
        "coordinates": [
          118.93500000000003,
          32.139999999999986
        ]
      }
    },
    {
      "type": "Feature",
      "properties": {
        "cell_id": 66,
        "population_proxy": 287.6,
        "estrato": 0,
        "hazard_max": "Media",
        "slope_deg": 6.58,
        "floors": 1,
        "source": "exposure_unit_from_population_and_built_up_proxy"
      },
      "geometry": {
        "type": "Point",
        "coordinates": [
          118.94500000000002,
          32.139999999999986
        ]
      }
    },
    {
      "type": "Feature",
      "properties": {
        "cell_id": 67,
        "population_proxy": 26.25,
        "estrato": 0,
        "hazard_max": "Baja",
        "slope_deg": 8.93,
        "floors": 1,
        "source": "exposure_unit_from_population_and_built_up_proxy"
      },
      "geometry": {
        "type": "Point",
        "coordinates": [
          118.95500000000004,
          32.139999999999986
        ]
      }
    },
    {
      "type": "Feature",
      "properties": {
        "cell_id": 68,
        "population_proxy": 162.54,
        "estrato": 0,
        "hazard_max": "Media",
        "slope_deg": 4.2,
        "floors": 1,
        "source": "exposure_unit_from_population_and_built_up_proxy"
      },
      "geometry": {
        "type": "Point",
        "coordinates": [
          118.96500000000003,
          32.139999999999986
        ]
      }
    },
    {
      "type": "Feature",
      "properties": {
        "cell_id": 69,
        "population_proxy": 16.02,
        "estrato": 0,
        "hazard_max": "Baja",
        "slope_deg": 14.23,
        "floors": 1,
        "source": "exposure_unit_from_population_and_built_up_proxy"
      },
      "geometry": {
        "type": "Point",
        "coordinates": [
          118.97500000000005,
          32.139999999999986
        ]
      }
    },
    {
      "type": "Feature",
      "properties": {
        "cell_id": 70,
        "population_proxy": 185.78,
        "estrato": 0,
        "hazard_max": "Media",
        "slope_deg": 1.85,
        "floors": 1,
        "source": "exposure_unit_from_population_and_built_up_proxy"
      },
      "geometry": {
        "type": "Point",
        "coordinates": [
          118.88499999999999,
          32.14999999999999
        ]
      }
    },
    {
      "type": "Feature",
      "properties": {
        "cell_id": 71,
        "population_proxy": 215.11,
        "estrato": 0,
        "hazard_max": "Media",
        "slope_deg": 1.19,
        "floors": 1,
        "source": "exposure_unit_from_population_and_built_up_proxy"
      },
      "geometry": {
        "type": "Point",
        "coordinates": [
          118.89500000000001,
          32.14999999999999
        ]
      }
    },
    {
      "type": "Feature",
      "properties": {
        "cell_id": 72,
        "population_proxy": 391.03,
        "estrato": 0,
        "hazard_max": "Media",
        "slope_deg": 3.42,
        "floors": 1,
        "source": "exposure_unit_from_population_and_built_up_proxy"
      },
      "geometry": {
        "type": "Point",
        "coordinates": [
          118.905,
          32.14999999999999
        ]
      }
    },
    {
      "type": "Feature",
      "properties": {
        "cell_id": 73,
        "population_proxy": 621.04,
        "estrato": 0,
        "hazard_max": "Media",
        "slope_deg": 1.88,
        "floors": 1,
        "source": "exposure_unit_from_population_and_built_up_proxy"
      },
      "geometry": {
        "type": "Point",
        "coordinates": [
          118.91500000000002,
          32.14999999999999
        ]
      }
    },
    {
      "type": "Feature",
      "properties": {
        "cell_id": 74,
        "population_proxy": 291.18,
        "estrato": 0,
        "hazard_max": "Media",
        "slope_deg": 2.38,
        "floors": 1,
        "source": "exposure_unit_from_population_and_built_up_proxy"
      },
      "geometry": {
        "type": "Point",
        "coordinates": [
          118.92500000000001,
          32.14999999999999
        ]
      }
    },
    {
      "type": "Feature",
      "properties": {
        "cell_id": 75,
        "population_proxy": 182.34,
        "estrato": 0,
        "hazard_max": "Baja",
        "slope_deg": 3.91,
        "floors": 1,
        "source": "exposure_unit_from_population_and_built_up_proxy"
      },
      "geometry": {
        "type": "Point",
        "coordinates": [
          118.93500000000003,
          32.14999999999999
        ]
      }
    },
    {
      "type": "Feature",
      "properties": {
        "cell_id": 76,
        "population_proxy": 165.71,
        "estrato": 0,
        "hazard_max": "Media",
        "slope_deg": 2.15,
        "floors": 1,
        "source": "exposure_unit_from_population_and_built_up_proxy"
      },
      "geometry": {
        "type": "Point",
        "coordinates": [
          118.94500000000002,
          32.14999999999999
        ]
      }
    },
    {
      "type": "Feature",
      "properties": {
        "cell_id": 77,
        "population_proxy": 12.92,
        "estrato": 0,
        "hazard_max": "Baja",
        "slope_deg": 8.45,
        "floors": 1,
        "source": "exposure_unit_from_population_and_built_up_proxy"
      },
      "geometry": {
        "type": "Point",
        "coordinates": [
          118.95500000000004,
          32.14999999999999
        ]
      }
    },
    {
      "type": "Feature",
      "properties": {
        "cell_id": 78,
        "population_proxy": 162.45,
        "estrato": 0,
        "hazard_max": "Baja",
        "slope_deg": 14.68,
        "floors": 1,
        "source": "exposure_unit_from_population_and_built_up_proxy"
      },
      "geometry": {
        "type": "Point",
        "coordinates": [
          118.96500000000003,
          32.14999999999999
        ]
      }
    },
    {
      "type": "Feature",
      "properties": {
        "cell_id": 79,
        "population_proxy": 33.79,
        "estrato": 0,
        "hazard_max": "Baja",
        "slope_deg": 4.97,
        "floors": 1,
        "source": "exposure_unit_from_population_and_built_up_proxy"
      },
      "geometry": {
        "type": "Point",
        "coordinates": [
          118.97500000000005,
          32.14999999999999
        ]
      }
    }
  ]
}
