{"type":"FeatureCollection","features":[{"type":"Feature","id":1,"properties":{"layer_id":"hydrography","name":"EMBALSE LA FE","category":"Primario","source_id":"gis-hydrography","provenance":"institutional","exact_site":false},"geometry":{"type":"MultiLineString","coordinates":[[[-75.49460019308741,6.106000599158877],[-75.49353630207163,6.105515777008978],[-75.49261614966328,6.10483680490151],[-75.49243627124007,6.104479067875971],[-75.49260250628659,6.104156581514388],[-75.49344808658059,6.103977204779438]],[[-75.49009626764477,6.100070532836757],[-75.48950339452956,6.100174673366973],[-75.48855040726252,6.100751202092989],[-75.48814503851949,6.100716100655194],[-75.48798895357604,6.100382033222289],[-75.48809528601845,6.100034843039888],[-75.48853513071144,6.0994370554136506],[-75.48859395649444,6.099054964324113],[-75.48822815157247,6.09849504302966]]]}},{"type":"Feature","id":2,"properties":{"layer_id":"hydrography","name":"REPRESA PIEDRAS BLANCAS","category":"Secundario","source_id":"gis-hydrography","provenance":"institutional","exact_site":false},"geometry":{"type":"LineString","coordinates":[[-75.50857133640793,6.295594984444647],[-75.50838720707617,6.2957796711912275],[-75.50767188300321,6.2960279613543],[-75.50621745466646,6.295662428572089],[-75.50527773700382,6.296239024957709],[-75.5049091857597,6.296301045465303],[-75.50349559271278,6.295793018235329],[-75.5031272712753,6.295733003343378],[-75.5020430673272,6.295920142722872],[-75.50167389908198,6.29575729799896],[-75.501077832512,6.294796174010405],[-75.50068844576278,6.294674061937115],[-75.50030013177002,6.294737265626882],[-75.49995135394754,6.294594708026208],[-75.49972579165015,6.294287965184577],[-75.49984426211857,6.2927926692419325],[-75.50051474882942,6.291008864296522],[-75.50071887978129,6.290700951098025],[-75.50104587647095,6.290515873979149],[-75.5012922303947,6.290781892198398],[-75.50127495874992,6.291908523832161],[-75.50092951882971,6.292994248689443],[-75.50109414843925,6.293321494964734],[-75.50170950121318,6.293688196948767],[-75.50193501594961,6.293974596475338],[-75.50226301498049,6.294157897811326],[-75.50373692222747,6.29421603325624],[-75.50449630261932,6.295012863333906],[-75.50484503443346,6.29513395166178],[-75.5066858134361,6.294719874307399],[-75.5077912998845,6.294880702450596],[-75.50840664139645,6.295247395085614],[-75.50857133640793,6.295594984444647]]}},{"type":"Feature","id":3,"properties":{"layer_id":"hydrography","name":"RIO RIONEGRO","category":"Primario","source_id":"gis-hydrography","provenance":"institutional","exact_site":false},"geometry":{"type":"LineString","coordinates":[[-75.48618129744455,6.094648637133469],[-75.48564181444287,6.094727565242397],[-75.48514653584076,6.094111160279136],[-75.48430344426505,6.0942162986001165],[-75.48370665219532,6.094114907412493],[-75.48197505267485,6.092678109642171],[-75.48141950772184,6.092617780672565],[-75.4811729939652,6.0927419586079425],[-75.48041495009835,6.093917559084897],[-75.4795927480308,6.094146179257922],[-75.47912044036232,6.094456254888428],[-75.47796836654926,6.094397468945395],[-75.47741324984483,6.0945018549610275],[-75.47700280573274,6.094873540651491],[-75.47599621074372,6.095390899293603],[-75.47513413885386,6.096113777264307],[-75.47365342238476,6.096241142964322],[-75.47203120224975,6.097336606696568],[-75.4713753519779,6.098264852468877],[-75.46991789266526,6.099442247776511],[-75.46930317304088,6.100370383290084],[-75.46854308420963,6.100763557918314],[-75.46881171493253,6.101236433949251],[-75.46877131171102,6.101524798286321],[-75.46862795729412,6.101772249425069],[-75.46809355559459,6.101938349566336],[-75.46788838267257,6.102144778328457],[-75.46762382633521,6.103257322525142],[-75.46717307784898,6.103958548878086],[-75.46464599360918,6.105159274315382],[-75.46312695010752,6.106398587066869],[-75.46158627622069,6.107226147632117],[-75.46136042565561,6.107391446032223],[-75.46111558095568,6.10817450409342],[-75.45955369526223,6.108755027245667],[-75.4586897843489,6.108777834534151],[-75.45821623965679,6.108614323005985],[-75.4582199224898,6.110055625498917],[-75.45780951240164,6.110447891581741],[-75.45690886936659,6.1122003648164895],[-75.4563551424174,6.11286066341578],[-75.45580225305092,6.113850405795751],[-75.45473362577192,6.114264945518468],[-75.45422045732214,6.114698647492004],[-75.45336020830733,6.11616274990976],[-75.45313435131831,6.1163280507324735],[-75.45247581967621,6.116226779109753],[-75.45218698695203,6.115898075307578],[-75.45204319814846,6.115980799503797],[-75.45196170171018,6.11628986319094],[-75.45208534002086,6.116371910289996],[-75.45272303926752,6.116370282513378],[-75.45294979019052,6.116555015845442],[-75.45270419537584,6.117049808267381],[-75.45054806972402,6.118558392872608],[-75.44999228799928,6.118415679157959],[-75.44974470197283,6.118128048084376],[-75.44941530585155,6.118025935502867],[-75.44896284786033,6.118068267156881],[-75.4494784813437,6.118602300957885],[-75.4495200995607,6.118787508784375],[-75.44929616950752,6.119714640099587],[-75.44937861206476,6.11977619961716],[-75.44960431962139,6.119549132733089],[-75.45021945960389,6.118765136933033],[-75.45058952790906,6.118681831692073],[-75.45077487828608,6.1187637211928445],[-75.45081817105026,6.119607806432284],[-75.45036738860325,6.1203090262979565],[-75.44936186498487,6.121279331959829],[-75.44856042943057,6.121610820623149],[-75.44747000461592,6.121551824101765],[-75.44744984731383,6.121716592854261],[-75.44810948592745,6.122250262531192],[-75.44796695001219,6.122827152787644],[-75.44739101004365,6.1228492087146975],[-75.44685579535161,6.1227064409632534],[-75.44660930937894,6.122851197489849],[-75.44642552810764,6.1233870143002616],[-75.44617898385903,6.12351118198784],[-75.44599870418966,6.1254265362112035],[-75.44530236531259,6.126643135377348],[-75.44522148996757,6.12719927413339],[-75.44466642810687,6.127344820029042],[-75.44446024477315,6.12716003211189],[-75.44445951306878,6.126871768686129],[-75.4442943652061,6.126645698252737],[-75.44400652454216,6.126708202121672],[-75.44345260893971,6.127306726749044],[-75.44347527250363,6.1281302765650905],[-75.44283891233935,6.1286672425272135],[-75.44197506660518,6.1287312032577095],[-75.44172857281545,6.128875963850317],[-75.44125626215632,6.129206604588382],[-75.44097003478726,6.129907403921076],[-75.44047699579617,6.130176327510633],[-75.43992135575283,6.130095378222568],[-75.43946794969898,6.1297670787466485],[-75.43905532079077,6.1292945462994854],[-75.43899288048344,6.129006438985186],[-75.43886944895192,6.129006751563684],[-75.43870701260114,6.129851366630964],[-75.43938670639602,6.130179090066371],[-75.43963476417522,6.130652037636328],[-75.43934873586086,6.131435198252585],[-75.43873310139674,6.1320338769789275],[-75.43848655015879,6.132158044176972],[-75.43819844432242,6.132117593537617],[-75.43795116946866,6.131953496355428],[-75.43749677221258,6.131233982500468],[-75.43696159944882,6.131111798626505],[-75.4367769726022,6.131318163752135],[-75.43677915523948,6.132182953042701],[-75.43659458290281,6.132409917858497],[-75.4360395664564,6.132576038995955],[-75.43490796976617,6.132517131339349],[-75.43470588487476,6.132720421396213],[-75.43464250932635,6.133300234476743],[-75.43536553386245,6.134492646227825],[-75.43511903531413,6.134637404729395],[-75.43425522853204,6.134721949592536],[-75.43374041520624,6.134517342064986],[-75.433452463975,6.134538663756771],[-75.43335027859709,6.134806597282702],[-75.43345381334781,6.135074007258805],[-75.4340300251023,6.135154912935591],[-75.4341744461535,6.135319273336294],[-75.43417517244113,6.135607535199905],[-75.43372337534396,6.135917532383639],[-75.43351900639111,6.1364534004681985],[-75.43327250635863,6.136598152993911],[-75.43298439603159,6.136557699999745],[-75.4327782114854,6.136372907540142],[-75.43251093178188,6.13643535007666],[-75.43244988849278,6.13670318489114],[-75.43273914084821,6.137196620042771],[-75.43274059328431,6.137773150396376],[-75.43218535700447,6.137856909963804],[-75.43162934867232,6.137631823398605],[-75.43150653591351,6.137879210112977],[-75.43165188961255,6.138414195096446],[-75.43159157206469,6.138970290264587],[-75.43136575030346,6.139156177876735],[-75.4307898375746,6.139198803426087],[-75.43029538655347,6.13891178576269],[-75.43000758103959,6.138994870979974],[-75.42988477724128,6.139242269270217],[-75.43009096235586,6.139427062802171],[-75.431161586221,6.139774398531642],[-75.43130621069673,6.140021119581434],[-75.431287090728,6.140597697747239],[-75.43100027346702,6.141072001004075],[-75.43044534689116,6.141279303622625],[-75.42958137230018,6.141302069577215],[-75.42941622391031,6.141075994268677],[-75.42953675928925,6.139922626569775],[-75.42935109368109,6.139717191076974],[-75.42854816204147,6.139472126217428],[-75.42825896593054,6.138999273528705],[-75.42791064000521,6.13955609321624],[-75.42846748096244,6.140110632837518],[-75.42873616020965,6.140604126957177],[-75.42915096109543,6.1419414589833465],[-75.42913111567137,6.142229773353261],[-75.4289256546934,6.142333243859703],[-75.42834953022289,6.142293512026731],[-75.42797814595102,6.141862049618477],[-75.42797664578657,6.141264932035905],[-75.4276679628662,6.141224526763618],[-75.42699130741445,6.142111613736299],[-75.42660229835471,6.142853849810724],[-75.42633506603228,6.1429368844414824],[-75.4260674253258,6.142855194142923],[-75.42598445871457,6.142587725962733],[-75.42551058102532,6.142300652163173],[-75.42550985770018,6.142012392049919],[-75.42614624903227,6.141475439633721],[-75.4261455254498,6.141187174163297],[-75.42499266140148,6.140860625389924],[-75.42497235044196,6.140963629908537],[-75.42538451178424,6.14125085458437],[-75.42546757593311,6.141559508049046],[-75.42493424713787,6.142178556412326],[-75.4243789589336,6.142241723811381],[-75.42419329210671,6.142036286292513],[-75.42402886964311,6.142098469164673],[-75.42442144249142,6.142776966475591],[-75.42448383132582,6.143044486883325],[-75.4243610187541,6.14329188193319],[-75.42405243343329,6.1432926562432995],[-75.42353751035515,6.143046862059453],[-75.42312699745852,6.14341852160155],[-75.42269538982588,6.143584328011665],[-75.42339515650237,6.143706113521995],[-75.42360134288613,6.143890910541978],[-75.42374596495726,6.144137636833752],[-75.42347971156896,6.14461188336699],[-75.42234849918098,6.144717669543877],[-75.42210281602772,6.145191871202037],[-75.42154777762127,6.145357982030659],[-75.42134159110057,6.145173185100981],[-75.42134014917082,6.144596655802578],[-75.42111184289774,6.143794201338514],[-75.42061749807422,6.143548352458071],[-75.42082604885321,6.1446803066034015],[-75.42068420428006,6.145545462086819],[-75.42012895649529,6.1456292130962735],[-75.41990225272616,6.145465057042062],[-75.41971576213098,6.144930173752753],[-75.4193241695752,6.144642885849177],[-75.41936438743038,6.144272156897505],[-75.41907643147604,6.144293467590796],[-75.41835937993217,6.145489509678934],[-75.41842176648976,6.145757025935608],[-75.41887522810022,6.146105932789681],[-75.41899927812415,6.146352705076186],[-75.41889709027637,6.146620637787261],[-75.41862980350126,6.146683079354503],[-75.41809455953582,6.146540284732185],[-75.4174955998849,6.1455946217334905],[-75.4167336026311,6.1452670745376325],[-75.41605348448999,6.144774600006788],[-75.41601162053178,6.144486439080399],[-75.41623658336783,6.143950527259282],[-75.41623535210427,6.143456352677187],[-75.41613233803724,6.143394841368835],[-75.41518708922074,6.143829598864528],[-75.41481786466788,6.144262922007798],[-75.41426215440562,6.144161355856963],[-75.41417919836648,6.143893884602705],[-75.41374621112959,6.143503744149546],[-75.41345819342077,6.143504460981598],[-75.41331480334432,6.143751906011979],[-75.41395485247364,6.144676882148183],[-75.41374959011414,6.144862708212776],[-75.41346157258066,6.144863426106926],[-75.4124521484754,6.144309995078533],[-75.41216413740857,6.144310712193742],[-75.41204203475515,6.144846370098999],[-75.41175524803975,6.1453412571026105],[-75.41150874089251,6.145486002621502],[-75.41093265964813,6.145466844227507],[-75.41068543458672,6.1453233230768785],[-75.41043728731809,6.144809177448285],[-75.41049752421794,6.144211902681827],[-75.4102502468555,6.14404779304356],[-75.40994166111692,6.144048559303148],[-75.40969520051097,6.144213895735319],[-75.40973844204566,6.145058001802159],[-75.40951347369722,6.145593913277056],[-75.40924628680698,6.145697535603646],[-75.40881334720343,6.145327973449581],[-75.40794930645482,6.145330117913662],[-75.4069644846485,6.14640327881561],[-75.40667656949245,6.1464451668416205],[-75.40638850279711,6.146425292936784],[-75.40562640639762,6.146056547833892],[-75.40535911690674,6.146118983038782],[-75.40536196722431,6.1472720509143235],[-75.40622723479814,6.147764079258057],[-75.40633075836645,6.14803150129208],[-75.40620798695059,6.148299479647806],[-75.40478858380777,6.148344181682282],[-75.40464396781113,6.1480974504568655],[-75.40437631990328,6.148015754590067],[-75.40326596143028,6.148244995267712],[-75.40303829137784,6.147689612167234],[-75.40303610577458,6.146804221366192],[-75.40283002625279,6.146660593330107],[-75.40250208260126,6.147155583927682],[-75.40234030063895,6.148288464791374],[-75.40205344811174,6.148762758861299],[-75.40174491588111,6.14878410916159],[-75.40094207430383,6.14858018587234],[-75.40079745526724,6.148333458675447],[-75.4007125278522,6.147262950699369],[-75.39997191884984,6.147264778246027],[-75.39976416633048,6.146441668931573],[-75.39957850709985,6.146236221159658],[-75.39756199510387,6.146076461351131],[-75.39679995337114,6.1457282995282725],[-75.39624474701864,6.145832617532071],[-75.39587681680216,6.146801282680266],[-75.3956509232616,6.146966565792969],[-75.39536315946157,6.1470702199731075],[-75.39456022691871,6.1468251085615835],[-75.39427337162603,6.147299399777805],[-75.39429671560006,6.148431831129821],[-75.39402962860795,6.148576619678541],[-75.39285688666033,6.148538318165317],[-75.39250604180651,6.148086182522494],[-75.39252515178312,6.147489006710187],[-75.39287382725357,6.147055745282071],[-75.39291426598736,6.146767371087173],[-75.39365386967765,6.146353747359273],[-75.39377599345228,6.145818087840057],[-75.39356981489834,6.14563327726184],[-75.39305615693445,6.145902217780867],[-75.3924799750409,6.14584186197392],[-75.39200610022439,6.145554753452609],[-75.39118284560394,6.145412634518151],[-75.39073100782444,6.145722600655493],[-75.39056632490752,6.145681824692174],[-75.39046326175541,6.145599713273374],[-75.390523169795,6.144858298897545],[-75.3902545681858,6.144385369514171],[-75.39025376356335,6.144055921441128],[-75.39111790943655,6.1440949871149435],[-75.39093154715671,6.143601265854739],[-75.3901709692013,6.143850217825045],[-75.39002972556943,6.14498304907559],[-75.38984508076364,6.14518940826906],[-75.38871353464519,6.14517158515419],[-75.38826179595965,6.14552273423629],[-75.38768571465816,6.145503551507259],[-75.38749930596417,6.144989235658801],[-75.38757833189698,6.1436506484012385],[-75.3880308757041,6.143628950291956],[-75.38825772736648,6.143854896127539],[-75.38856626260899,6.143833553190064],[-75.38831763341577,6.1431134831644245],[-75.38811150789748,6.142949258158302],[-75.3879058833743,6.142990944286875],[-75.38757762971375,6.143362381131579],[-75.38712518396962,6.143425254570246],[-75.38659185246416,6.144064871070338],[-75.38632456326441,6.144127291589963],[-75.3857279559189,6.144128746924646],[-75.38523311465146,6.143676960398717],[-75.38531400268234,6.143100223201876],[-75.38492417786914,6.1435335756738185],[-75.38492698299487,6.14468665227777],[-75.38441316992335,6.144893816567267],[-75.38328157648361,6.144855387084494],[-75.38169588793498,6.144200339438878],[-75.38153075541588,6.143974245198177],[-75.38146699258888,6.1431301774232425],[-75.38117887652713,6.143089691929694],[-75.38082974288506,6.143337635564987],[-75.37967773308998,6.143361018412575],[-75.37895888853753,6.143856947667707],[-75.37842444784492,6.144043560969004],[-75.37758062631028,6.143901468045692],[-75.3767585166012,6.144232911457722],[-75.37624584103676,6.144913655390265],[-75.37620609194967,6.145490289732562],[-75.37595951720772,6.145614434323629],[-75.37538348063264,6.145615828498382],[-75.37521945103555,6.145842724164622],[-75.3752818616759,6.146130843016315],[-75.37655876223056,6.146704296547174],[-75.376682799572,6.1469510873107955],[-75.37660115468111,6.14721896740439],[-75.37684832316513,6.1473419113464],[-75.37740358905903,6.147258200769807],[-75.37758924727423,6.1474636588651235],[-75.37750759832359,6.147731538120009],[-75.37631597430676,6.1483933334693806],[-75.37602800678631,6.1484146218105895],[-75.37540943118286,6.147839574857271],[-75.37487413928115,6.147676143584558],[-75.37460684126064,6.1477385643408615],[-75.37421695368116,6.148151323950078],[-75.37121729394751,6.149805844364409],[-75.36961642604913,6.151395206690549],[-75.36972161939002,6.152362717811029],[-75.36963997324287,6.152630597687251],[-75.36888070829556,6.15343547150621],[-75.36900617214619,6.154279396004032],[-75.36840970297963,6.154342603413475],[-75.36818379851593,6.154507877324374],[-75.36779538628623,6.155538358141414],[-75.36726107755331,6.155786737945311],[-75.36637677938141,6.155933001454224],[-75.3661508708303,6.156098274773348],[-75.36678992891538,6.156632097549818],[-75.36749144535653,6.157474634340623],[-75.36749213834707,6.157762906478929],[-75.36673454464365,6.159267868176032],[-75.36696352311483,6.1603792266287485],[-75.36673771437867,6.16058567929034],[-75.36589465321468,6.160773022985072],[-75.36628787389455,6.16173985215736],[-75.36610469142713,6.162563927644282],[-75.36622872695385,6.16281072094212],[-75.36600509494774,6.163923165444226],[-75.36544990645282,6.164048051421144],[-75.36530530238824,6.163801307626824],[-75.36503794493002,6.1638431351753],[-75.36530802574221,6.164933802060306],[-75.36526826049999,6.165510442490018],[-75.36487830452367,6.1659026080275305],[-75.36411629286341,6.165574986133021],[-75.36384898394451,6.165637403595464],[-75.36343840396572,6.166009029470401],[-75.36366664369146,6.166811529814583],[-75.36358766424026,6.168191309050071],[-75.36410373623082,6.168910751247355],[-75.36531931829641,6.169628501661988],[-75.36558801458975,6.170142623922987],[-75.3656510732136,6.1706984287613595],[-75.3658983553277,6.170862559204769],[-75.36663806880044,6.170469543095374],[-75.36731699389125,6.170467904522961],[-75.36774984448614,6.170796315800214],[-75.36777110875066,6.171084537921523],[-75.36729960033905,6.17178576461578],[-75.3668477235603,6.172095721464142],[-75.36540790659099,6.172243330384292],[-75.3653483152621,6.173128883033772],[-75.36458916629981,6.173995535700325],[-75.36444718274751,6.17484010062553],[-75.36414040546617,6.175602706041801],[-75.36245646238072,6.176903991545264],[-75.36239607533075,6.177460089003624],[-75.36161713386689,6.178656237967721],[-75.36149507586495,6.179233079384075],[-75.36166025855859,6.179479774789213],[-75.36252476620074,6.17964241520144],[-75.36271043092796,6.179847877086192],[-75.36273174539431,6.180156694628054],[-75.36252645000266,6.180342507400973],[-75.36168325687775,6.1804886731780995],[-75.36090228657322,6.180840598248096],[-75.36045049485925,6.1811917289663345],[-75.3603894142438,6.1814595593816835],[-75.36078205410496,6.182179294285825],[-75.36094862773517,6.183002533167476],[-75.36066232175584,6.183723907116075],[-75.36074941866433,6.185721016407019],[-75.36033966296279,6.186442685983157],[-75.3599291165769,6.186834901216388],[-75.359641271388,6.1869179561226835],[-75.35877709761878,6.186899446567057],[-75.35797543748858,6.187210236755131],[-75.35737853119394,6.187108717804784],[-75.35626968406308,6.188017384021138],[-75.35456224891601,6.1881244290669],[-75.35390519443888,6.1886819620001425],[-75.35306149584333,6.188622213466329],[-75.35281499437743,6.188787526849713],[-75.35263179218171,6.189611608539866],[-75.35135759582074,6.190211795807784],[-75.35061902204981,6.191098972409464],[-75.35018867417499,6.191820688855538],[-75.35019073772084,6.192685505505318],[-75.3500266782455,6.192912398272734],[-75.34973868577008,6.192933682085112],[-75.3489561064534,6.192626681883698],[-75.34817495549603,6.192916822250179],[-75.34774372421202,6.193267901076762],[-75.34764148733169,6.19353582912019],[-75.3477038463474,6.193803362217693],[-75.34834598738504,6.195613836255194],[-75.34836930973138,6.196766878886468],[-75.34808396341337,6.1979000670946105],[-75.3475702804344,6.1981895671174],[-75.34711689245871,6.1978817859496775],[-75.3456560756269,6.19788527114098],[-75.34487344314536,6.197557681863572],[-75.34460611467664,6.1976200888267945],[-75.34444205317956,6.197846982428328],[-75.34446404877083,6.198444069594308],[-75.34562006902311,6.200047412691042],[-75.345662547209,6.200603271179051],[-75.3453549947483,6.201057008131358],[-75.34422307566109,6.200936161715011],[-75.34348144416582,6.2005466987420625],[-75.3403748545724,6.2006570408023265],[-75.33977788028143,6.200534914028383],[-75.3392433214742,6.2007009071905514],[-75.33698039804295,6.2008504133680065],[-75.33671277406185,6.200789272058889],[-75.33629820614146,6.1994930171633005],[-75.33586530656397,6.1991439908683],[-75.33485814570084,6.199578784905153],[-75.33366474386703,6.199561014745627],[-75.33317167208867,6.199871044486154],[-75.33280233696767,6.200304333750322],[-75.33237079136377,6.200531851929601],[-75.3320827389677,6.200532532082406],[-75.33154735099784,6.2003484751499975],[-75.3309081203969,6.19975284001138],[-75.32934271395256,6.1990358341985825],[-75.32905460807504,6.1990159219933],[-75.32891121305721,6.19928394565537],[-75.32905857617465,6.200704391435084],[-75.32873044004447,6.201158170197662],[-75.32755789686962,6.201263882716384],[-75.32586990797695,6.200917799226458],[-75.32550051687832,6.201330486910403],[-75.32552239992641,6.201886399690096],[-75.32651145936653,6.2025018153201215],[-75.32684187415089,6.203015816210355],[-75.32760818414368,6.205155493868151],[-75.32793855439449,6.205648909238867],[-75.3279399092694,6.206225453214573],[-75.32757056847196,6.206658741378608],[-75.32728260836777,6.2067005980211185],[-75.32670644901766,6.206681362502999],[-75.32590342385407,6.206436154624725],[-75.32571776658075,6.206230679935622],[-75.3245447719688,6.206151072816179],[-75.3242567147543,6.2061517493298],[-75.32353763825051,6.206606441252422],[-75.323846943797,6.206893991344794],[-75.32524621730789,6.206952481201134],[-75.32650291908146,6.207629037013311],[-75.32691529833366,6.207998708018782],[-75.32712211689682,6.208451227550391],[-75.3269205230074,6.210222543056035],[-75.32712782658359,6.2108809725775815],[-75.32764362360787,6.21147690099825],[-75.32774611230046,6.211311927970513],[-75.32708517575321,6.210242748568476],[-75.32724905701136,6.209933492277264],[-75.32712511664612,6.209727872704033],[-75.32720567812932,6.2089863988919625],[-75.32751338901431,6.208594442973176],[-75.32794562064039,6.208655200395943],[-75.32881269902627,6.20988862947128],[-75.3293685800912,6.210031455760049],[-75.32976048444398,6.210442350799085],[-75.32986787231991,6.212357075135796],[-75.33063198813589,6.213549559654194],[-75.33061344735567,6.214414431818021],[-75.32993658468116,6.215322037824872],[-75.32959155873802,6.2173407911435286],[-75.32932513991383,6.217794421228812],[-75.3286877222376,6.2179812465459285],[-75.32759618681614,6.217551409942587],[-75.32737052777924,6.21784021668043],[-75.32759788348412,6.21827209397517],[-75.3280922358802,6.2184974280997105],[-75.32934639796093,6.218082648258595],[-75.33053984344328,6.218100417961494],[-75.33072560846871,6.218347076139889],[-75.3308095127281,6.219026383028409],[-75.33076904466547,6.21931475531608],[-75.3305430990422,6.219480019074024],[-75.32939094739885,6.219523923236036],[-75.32889784886225,6.21983395302695],[-75.32885737886195,6.220122329903613],[-75.32902256955691,6.2203690301768315],[-75.32997056566764,6.221005117401006],[-75.33017676637247,6.22118994976511],[-75.33023912758625,6.221457486668994],[-75.33017807926603,6.2217459050823765],[-75.32925371223973,6.222407006576657],[-75.32802186884899,6.22356302102504],[-75.32808626863937,6.224695384035502],[-75.32786114062289,6.225210696572357],[-75.32623703197332,6.225811671341935],[-75.32479670477743,6.225815065819587],[-75.32337815040442,6.226333182428063],[-75.32296754594873,6.226725381149702],[-75.3226202205677,6.227776348305454],[-75.3223946027431,6.228085744817228],[-75.32260046593875,6.228126447745704],[-75.32352567029987,6.227815402446359],[-75.3243676031515,6.2270927269035825],[-75.32547838190848,6.226945972984698],[-75.32591130545947,6.227295000609119],[-75.32649122328053,6.228899745378266],[-75.32675886197171,6.228960883752533],[-75.32782809969726,6.228649493678009],[-75.32869220656303,6.228606270297682],[-75.32889840590171,6.228791102615078],[-75.32892102107049,6.22965587728533],[-75.32875695012935,6.229882767295208],[-75.32863543422161,6.230706701660688],[-75.32898707954878,6.231488333955863],[-75.32909205464985,6.232373502759389],[-75.3290110659438,6.232929657046733],[-75.32835388333943,6.233466583515761],[-75.32662598965787,6.233697166656121],[-75.32479652686833,6.234483947653037],[-75.3237287280625,6.235413069598045],[-75.3229682237395,6.235764909072494],[-75.32153022887417,6.236777266219635],[-75.31970451253495,6.239170140069641],[-75.31912846068568,6.239212673332747],[-75.31888125298713,6.239089713438269],[-75.31842697045629,6.238411260842056],[-75.31817975602864,6.238288295100395],[-75.31704837451552,6.238435091661036],[-75.31607991815032,6.237860807748457],[-75.31552420219245,6.237800334377033],[-75.31484806329652,6.2390373970289525],[-75.3141488812544,6.239224350337253],[-75.31239956698045,6.239104899699318],[-75.31155639815275,6.239312776265691],[-75.3101798635012,6.240222003257914],[-75.3085347646348,6.240678847844956],[-75.30750802784819,6.2415872579281935],[-75.3067691707276,6.2424126286067425],[-75.30621593652263,6.243422892750154],[-75.3059317806434,6.24511203751619],[-75.30544166266286,6.246719301645077],[-75.3050722287791,6.247131991077047],[-75.30468365406117,6.2481624606513435],[-75.30374116730083,6.249914911060346],[-75.30277632322321,6.250905537503357],[-75.302510011176,6.251420937193893],[-75.30189775432498,6.253605041730562],[-75.3014880197498,6.2543884627465856],[-75.30108024221153,6.256016123754878],[-75.30056813910939,6.257026285995583],[-75.30096274194798,6.258590314827641],[-75.30094421776624,6.2594757851740725],[-75.3007403992965,6.260320503764736],[-75.29996121122115,6.261516607992835],[-75.29955347447597,6.263164861031399],[-75.29897877448282,6.263804527390304],[-75.29873212948154,6.263928650264381],[-75.2981353716548,6.263930034329125],[-75.29764083030318,6.2636429033649055],[-75.2970198299749,6.2620588054577375],[-75.29675217507899,6.261997650139022],[-75.29652620025506,6.26216290385089],[-75.2959294394236,6.262164285028567],[-75.29568222316641,6.262041310859315],[-75.29493785470012,6.260498680542361],[-75.29269103614043,6.258835961912992],[-75.2921369548847,6.259496165667523],[-75.29028798831288,6.260818276884773],[-75.28973276399262,6.260984286717116],[-75.28942400349389,6.260943812336654],[-75.28880524166077,6.26032749428789],[-75.28763061149164,6.259588902844074],[-75.28732019889478,6.258827731372766],[-75.28668223789336,6.258808604372162],[-75.28659950355339,6.258623471763346],[-75.28647603630581,6.258623755115834],[-75.28542732491796,6.2589556219745885],[-75.28468581778165,6.258648450851758],[-75.28392453716043,6.258691375020705],[-75.2833679922071,6.258280822874988],[-75.28326383648904,6.257725089296364],[-75.28248121914352,6.257438598024351],[-75.2821708162031,6.256677428095809],[-75.28163546376223,6.25653450863306],[-75.28136551485252,6.255464368465956],[-75.28093248813373,6.255074119745204],[-75.2804781832558,6.254375047881281],[-75.28008416509269,6.253037494527846],[-75.27948609882759,6.2524623006658375],[-75.27942375993376,6.252194747390949],[-75.27890777767003,6.251516403454729],[-75.27876181199944,6.250672488071895],[-75.27828557500006,6.249376306197064],[-75.27816019840643,6.248532336043949],[-75.27743792873852,6.247627954532181],[-75.27686157587527,6.2475468975052655],[-75.27667586262756,6.247320815859392],[-75.27665393372409,6.2467237122160135],[-75.27611742577962,6.246066001533653],[-75.27605443600878,6.2455101706044065],[-75.27570354563781,6.2450373611752035],[-75.27543585336873,6.2449556036800224],[-75.27309022814632,6.245043284727442],[-75.27284301765265,6.244920297173011],[-75.27263565982648,6.244220655507117],[-75.27232592946521,6.243747745085975],[-75.27158421995446,6.24333759216201],[-75.27139781634506,6.242802630639574],[-75.27149944829245,6.2422464338059305],[-75.27143515995637,6.241114041302206],[-75.2706926191242,6.2403332404596945],[-75.27007172754134,6.238749087560544],[-75.2699675448135,6.238172759250342],[-75.26955521556451,6.237823634692312],[-75.2682545972725,6.23593213611404],[-75.26730569884832,6.234884100697388],[-75.26654097213762,6.233382631962776],[-75.26565371682683,6.232293272524209],[-75.26544674757757,6.231758352243843],[-75.26423040661031,6.230731497554058],[-75.2634622287878,6.229306927684414]]}},{"type":"Feature","id":4,"properties":{"layer_id":"hydrography","name":"RIO RIONEGRO","category":"Primario","source_id":"gis-hydrography","provenance":"institutional","exact_site":false},"geometry":{"type":"LineString","coordinates":[[-75.48608598702428,6.094420773434167],[-75.4856863382389,6.094426231241992],[-75.48547741456004,6.093907323199359],[-75.48402423178666,6.093848776866554],[-75.48354616330968,6.093600686516213],[-75.48250581016573,6.092647607244985],[-75.48200698617548,6.092399569198276],[-75.48140501777878,6.092401132294486],[-75.48094921886114,6.0927347603863415],[-75.48045281611272,6.09342171937864],[-75.47962331837331,6.0937355396882715],[-75.47891880373345,6.094215254501041],[-75.47750712846711,6.094156582700363],[-75.4770929966038,6.094552434699968],[-75.47564201144611,6.095345748498675],[-75.47495840350216,6.095887742435689],[-75.47352633698956,6.095974554485622],[-75.47211733249577,6.096954756897659],[-75.47081339399793,6.0984333534705435],[-75.46998452535095,6.098996498175225],[-75.46934338771769,6.099912379429175],[-75.46843175101252,6.100579621996712],[-75.46826632898095,6.1008293828066975],[-75.46855811493685,6.101285749932784],[-75.46851729269287,6.101555967470451],[-75.46795709442682,6.101661299979312],[-75.46777081085995,6.10186956204116],[-75.46758612365623,6.102701158511164],[-75.46694508267548,6.103658591044033],[-75.46460236148656,6.104807409326825],[-75.46284132894131,6.106141723198116],[-75.46112106778516,6.10718503866744],[-75.4609570743762,6.107995804475327],[-75.46012706357806,6.108122598662562],[-75.45940163910831,6.108560797743646],[-75.45805214058186,6.108481143582903],[-75.45791018166445,6.109790523896624],[-75.45724835277336,6.110748008254422],[-75.4571251811802,6.111288552679147],[-75.45606984559318,6.112600269581658],[-75.45555347982993,6.113619713312487],[-75.45428891058572,6.114287850134519],[-75.45331612294888,6.115412349271403],[-75.45300627679762,6.116015706058471],[-75.45257050448866,6.116079155048387],[-75.452299796892,6.115747394550648],[-75.45192619503622,6.115769125611725],[-75.4516989098727,6.116185268960916],[-75.4517623484259,6.116642223178358],[-75.45253015503478,6.116536376515173],[-75.45265480730296,6.116577613837071],[-75.4526551771816,6.116723059985281],[-75.45120456084153,6.117703328619909],[-75.45060414901434,6.118328201308981],[-75.45029276624756,6.118328994749245],[-75.44962711506066,6.117790464418065],[-75.44904576424925,6.1177503875732375],[-75.44883870665237,6.117958699785692],[-75.44879787478412,6.118228913660033],[-75.44925636324682,6.118934204880365],[-75.44921553164242,6.119204423266619],[-75.44888460913867,6.119683165250284],[-75.44896912101504,6.120264734940194],[-75.44923909235698,6.1203056043383945],[-75.45035684246709,6.1190352901614355],[-75.45062680589506,6.119076158996302],[-75.45064830689073,6.11936699841239],[-75.45050363450547,6.119616704547476],[-75.44959304725701,6.120720266425881],[-75.4486396722534,6.121325262435138],[-75.4474356069845,6.121307545727745],[-75.44720768408808,6.121474355359658],[-75.4472711178611,6.121931310741868],[-75.44768714664539,6.12226270448246],[-75.44781253806416,6.122594834629548],[-75.44642153844994,6.122536041582253],[-75.44623533894176,6.12278585310068],[-75.44623628851507,6.12315985504136],[-75.44607011485817,6.123118716045212],[-75.44561225520715,6.122662767020981],[-75.44561167536972,6.122434210617408],[-75.44615077420647,6.122183498452019],[-75.44623286081377,6.121809284715644],[-75.44614903419541,6.121497823050022],[-75.44592053082579,6.121436071338853],[-75.44480260590811,6.122644047432619],[-75.44469949181735,6.122914423796032],[-75.44482468392582,6.1231634432873445],[-75.44542674619943,6.123182689232946],[-75.44565556676218,6.1233691116546884],[-75.44582448393484,6.124490704983714],[-75.44582522277989,6.12478159802502],[-75.44500050309104,6.127006954913483],[-75.44473064020414,6.127007641251401],[-75.4445839560025,6.12646778079299],[-75.44435523265084,6.126322915368653],[-75.44406471068031,6.12636521052479],[-75.44331854557446,6.12682422843601],[-75.4431553153564,6.127946665725899],[-75.44269951130879,6.128301051729555],[-75.44213921976501,6.128385584180294],[-75.44193147220007,6.128323778493384],[-75.44193115639912,6.128199111280789],[-75.44226235718624,6.127824260655986],[-75.44236525730528,6.127470771672005],[-75.44224001919653,6.127200972072602],[-75.44165887239879,6.12724400387016],[-75.441244682566,6.127639839472923],[-75.44157883231651,6.128428563329647],[-75.44155859759918,6.128636399693459],[-75.44133051231127,6.1287408683836135],[-75.44106053630385,6.128699995826512],[-75.44066511246102,6.128306212137367],[-75.44062231655481,6.127801945190238],[-75.44076638437656,6.12730859915631],[-75.44026806046308,6.127268304735139],[-75.43999866581248,6.127455992871592],[-75.43979248966575,6.128017528289719],[-75.44025098102985,6.128722825919028],[-75.44087517460119,6.129282256410053],[-75.4408966720423,6.129573097195504],[-75.44071036321743,6.129781347869261],[-75.44012915864835,6.1298036009236245],[-75.43985902659765,6.129700391034421],[-75.43933831332257,6.129016029114743],[-75.4388186448659,6.128747233949963],[-75.43854893838102,6.128810251515177],[-75.43834417761988,6.129932790521421],[-75.43925921182498,6.1305745977073505],[-75.43921837544573,6.130844819247159],[-75.43855650049369,6.131802293025373],[-75.43826592182937,6.13182380894607],[-75.4380164425015,6.131678991871341],[-75.43766169337287,6.130952651121191],[-75.43654037427652,6.13083082141937],[-75.43643726042946,6.131101195563815],[-75.43652219007897,6.131848998886861],[-75.43623281719321,6.132348411353109],[-75.43475869163105,6.132269021682109],[-75.43450994539862,6.132415098053053],[-75.43432363376472,6.132623347248589],[-75.4343257287052,6.133454472927747],[-75.43505472130303,6.134408432221662],[-75.43436981508209,6.134472493408282],[-75.43337293839905,6.13430878922123],[-75.4330418846592,6.134745964466761],[-75.43304261692113,6.135036858952425],[-75.43320927142257,6.135264996934552],[-75.43379069574031,6.135325866573511],[-75.433957347916,6.135554004237252],[-75.43350147548301,6.135887609121268],[-75.43314971176812,6.136345616776428],[-75.43265080360132,6.136076759484483],[-75.43217391174205,6.136306526157237],[-75.43213359484045,6.136784525950913],[-75.43257148404622,6.137552214603024],[-75.43149161751249,6.1374094906279755],[-75.43124281643304,6.137534788369963],[-75.43143242414305,6.138635558321946],[-75.43137082735,6.13890583269919],[-75.43078971163041,6.138969633497905],[-75.43037357570884,6.138596669951693],[-75.4300829921234,6.138618185021919],[-75.42956499893432,6.13901427663567],[-75.42950308314788,6.1391598814070925],[-75.42971146190625,6.13947103320081],[-75.43070892135292,6.139863306323917],[-75.43108332906722,6.140153254106072],[-75.43079447048683,6.140860443635998],[-75.43015144220435,6.141069846405642],[-75.42983993873383,6.141029073458145],[-75.42971438800201,6.140634602579453],[-75.4297744755672,6.1397617661329535],[-75.4296078213774,6.139533627101963],[-75.42879782747025,6.1393902182899875],[-75.42833938914535,6.138705687641999],[-75.4279867364517,6.138810466488934],[-75.42773892514947,6.139330545349846],[-75.4277396550879,6.13962144042583],[-75.42842697189299,6.140513181471708],[-75.42890846728282,6.142111895962256],[-75.42863869343758,6.142154128820696],[-75.42830606946204,6.1419679645467005],[-75.42822104335008,6.141178599653769],[-75.42807509892636,6.140929627152689],[-75.42778441355591,6.140909585598619],[-75.4275355051044,6.140993322867233],[-75.42722546219153,6.14153433857785],[-75.42660413096866,6.142117695338669],[-75.42648097636575,6.142679014790504],[-75.42633576164135,6.142720939663818],[-75.42625220054609,6.142513367926457],[-75.42575328529453,6.142244502961989],[-75.42575292025064,6.142099055320196],[-75.42637425801887,6.141515699335988],[-75.42699726319523,6.1415972481693375],[-75.4270791003698,6.141119139420686],[-75.42672539785228,6.1408083592402525],[-75.42608205598931,6.140893086761039],[-75.42496035358519,6.140625787321758],[-75.42471159669365,6.140771860542676],[-75.42464999541039,6.141042127692907],[-75.4251075477689,6.1413734331091465],[-75.42510827652492,6.141664328479628],[-75.42490114365702,6.141851855706181],[-75.42409140685807,6.141812330481287],[-75.42382178795275,6.141916898169202],[-75.4238225169771,6.142207792782019],[-75.42430196961881,6.142996165760756],[-75.42397012648907,6.143121667412013],[-75.4233670482096,6.142707619938845],[-75.42318052175914,6.142832751819577],[-75.4230775561949,6.143165467003907],[-75.42253821387128,6.143333046770512],[-75.42241427960508,6.143582696314844],[-75.42258092924763,6.1438108388623585],[-75.42339088190433,6.143933478093637],[-75.42351574998847,6.144057832697612],[-75.4233503500303,6.14432836747267],[-75.42314300768739,6.14443278108004],[-75.42218804985524,6.144435176131609],[-75.42181504636719,6.144706226312264],[-75.42179501499074,6.144997174233763],[-75.42160807387316,6.144956089088074],[-75.42141951761272,6.144270875964056],[-75.42158429310108,6.14375100609811],[-75.42143830188024,6.143481247067232],[-75.42089797210124,6.1432540454895195],[-75.42033755916357,6.1432970016606605],[-75.42057085017967,6.145270361256481],[-75.42032209337756,6.145416433134106],[-75.42003140128563,6.145396385134003],[-75.42000991426806,6.14510554132278],[-75.4196343138941,6.144337679169545],[-75.41919747127565,6.143985540734482],[-75.41830655806078,6.144694231273493],[-75.41807975373722,6.14531815201605],[-75.41828890849223,6.145940982262752],[-75.41868391996147,6.146168554328452],[-75.41870504215454,6.146313951193984],[-75.41849754894308,6.146356023293627],[-75.41822750645765,6.146294367433394],[-75.41789348219247,6.14554718201637],[-75.41749805646246,6.1451533768251085],[-75.4166462738434,6.144906164319324],[-75.41647962227161,6.144678019463124],[-75.41645581023721,6.1434521530564625],[-75.41626829585545,6.143182503219092],[-75.41496160864884,6.14366366798079],[-75.4145682033024,6.144080211300041],[-75.4140477053857,6.143478939226919],[-75.41323765340803,6.143314726593509],[-75.41296849032672,6.143606295560192],[-75.41301047673369,6.143793193468599],[-75.41367686480207,6.144622671908988],[-75.41349012840632,6.14466469466124],[-75.41253351470738,6.144002167949301],[-75.412263636029,6.144002839815493],[-75.41191133512362,6.144253057044844],[-75.41156068174554,6.145168178987938],[-75.41139480718202,6.145251707030429],[-75.41079235433959,6.145086978572062],[-75.41078946627789,6.14392339489844],[-75.41066459600762,6.143799029450777],[-75.40981332688641,6.143759591053709],[-75.40931617242049,6.144197168870706],[-75.40950486457855,6.144944728117381],[-75.40936062502243,6.145381435031945],[-75.40911083711246,6.145111933581776],[-75.40807252379568,6.144989841617396],[-75.40755434343129,6.145323579106429],[-75.40680929664072,6.146260457988486],[-75.40554148619198,6.145681804783282],[-75.40508527358887,6.145890718421463],[-75.4049436489994,6.147387119398476],[-75.40506867378944,6.147573813097623],[-75.40594132529235,6.14786255501532],[-75.40594178750804,6.1480495571210865],[-75.40506990675884,6.148072497308569],[-75.40446714195579,6.1477830902423625],[-75.4034294336321,6.147910327467063],[-75.40326022762775,6.146643255847122],[-75.40298972850918,6.146394583258867],[-75.40242986967351,6.146666092796961],[-75.40222313573643,6.147019834982095],[-75.40214276215669,6.148100516244605],[-75.40187400484452,6.14855831026947],[-75.40145880027622,6.148559335506585],[-75.40112607486171,6.148331591645166],[-75.4010405198419,6.147313655549145],[-75.40087372605828,6.147023167676975],[-75.40025091619579,6.147024703873898],[-75.40012604696982,6.146900337414272],[-75.39989569135496,6.146090548891906],[-75.39792280195043,6.145825288006458],[-75.39657231643241,6.145392261136026],[-75.39584698666357,6.145913509368562],[-75.39564126735117,6.146682824537715],[-75.39512261958019,6.146829545413334],[-75.39487288500253,6.146580821271141],[-75.39456163380834,6.146643919328155],[-75.39406466061247,6.147164603148904],[-75.39400497472882,6.148224455663042],[-75.39323730215129,6.1484133441145605],[-75.3928213295691,6.1481026907974705],[-75.39279960776366,6.147707951225812],[-75.39315064673482,6.146938283992766],[-75.39375203160964,6.146666680875921],[-75.39389674282043,6.146416982934503],[-75.39389455383952,6.1455235131535275],[-75.39362431492957,6.1453787262477935],[-75.3929189731326,6.145588238231999],[-75.39107004155643,6.145073306756477],[-75.3908625934842,6.145136152965781],[-75.39063209502089,6.144264014685295],[-75.39106826357141,6.144346062839281],[-75.39133692892537,6.143846714568328],[-75.39127393869134,6.143555968206978],[-75.39069209356113,6.143328834446374],[-75.39011121328116,6.143496480245359],[-75.3899248817489,6.143704720273246],[-75.3897824023011,6.144868674097226],[-75.38872352665759,6.144829705278538],[-75.38808102133005,6.145267628145841],[-75.38785250582042,6.145205849752306],[-75.3878285536692,6.143896854440528],[-75.38853495922265,6.144123697832812],[-75.38884550291154,6.143769699270998],[-75.38826137776644,6.142607525426693],[-75.38795012447582,6.142670620227204],[-75.38728706565702,6.143191708016429],[-75.38666466660989,6.143359451035821],[-75.38641660685383,6.143796408874231],[-75.3861053026169,6.143838729128023],[-75.38581456153341,6.143797877537738],[-75.38554401781663,6.143528415873793],[-75.385584022056,6.142904961497965],[-75.3851271427384,6.142843736482213],[-75.38463001007635,6.143302080933955],[-75.3845070166903,6.143946515715552],[-75.38469476592229,6.144320074655374],[-75.38461218248719,6.144507280474476],[-75.3839482560969,6.144675131370934],[-75.38201613468001,6.144098029763173],[-75.38187040939393,6.143932154894505],[-75.38182622384821,6.142830992540218],[-75.3814939028557,6.142769461463934],[-75.38101662094759,6.142853738214989],[-75.38037391089156,6.143208540663387],[-75.3796265371081,6.1432103544117345],[-75.37927441964747,6.14354366533869],[-75.37856937416689,6.143877832157329],[-75.37721950226516,6.143694099189221],[-75.3767220097016,6.144006987344399],[-75.37616298305485,6.144631700379474],[-75.37606058983106,6.145213753802826],[-75.37556299712134,6.145485081145214],[-75.37527235089799,6.14548578400885],[-75.37504513545066,6.14596424396775],[-75.37535769844737,6.146441396379243],[-75.37618866907526,6.146667953123355],[-75.37639672455111,6.146854453951152],[-75.37633514806863,6.1471455063532385],[-75.37648112509889,6.147415276893097],[-75.37706262015125,6.147496980460084],[-75.37702175194326,6.147767205952248],[-75.37600564180494,6.148247578495257],[-75.37540212813093,6.147646454101298],[-75.37455070237893,6.147544621830208],[-75.37368051521898,6.148273983317756],[-75.3724776055778,6.148775584160676],[-75.371006063668,6.149797289197985],[-75.36955612354397,6.1511721914229005],[-75.36945296869418,6.151442558770658],[-75.36945567008509,6.152564607566982],[-75.36897896854308,6.15289821829892],[-75.36862708955512,6.153335421841292],[-75.36877391557883,6.153958436228307],[-75.36860837747209,6.1541873948626336],[-75.36804808600837,6.154292643512582],[-75.3676561802958,6.155353304121314],[-75.36740749994429,6.155540913843942],[-75.36686826686413,6.155770779607443],[-75.36628706588422,6.155813732009931],[-75.36605909339343,6.155980510976359],[-75.36597669859052,6.156250835275053],[-75.36726677095704,6.157452897366734],[-75.36730894394151,6.15772292157606],[-75.36670917216664,6.158680189706074],[-75.36658580671802,6.159179176971322],[-75.3667753053282,6.160279995870135],[-75.36596622555079,6.160531285166578],[-75.36573830313854,6.160718844548456],[-75.36567666868143,6.160989123313054],[-75.3660521690087,6.161736252325573],[-75.36588877231571,6.162858701785664],[-75.36597317003462,6.16341952783992],[-75.36578701802699,6.163710880602027],[-75.36532972456898,6.163483409810746],[-75.36497678124954,6.1634842595797625],[-75.36474880998087,6.1636510414087695],[-75.36460482910711,6.164212414820517],[-75.36506297491823,6.164793119733766],[-75.36500203889044,6.1653542907828625],[-75.36479487798219,6.165541800969753],[-75.36427534857664,6.165335264637996],[-75.36369398186332,6.16531588589475],[-75.36305168060554,6.165857679562226],[-75.36305307730512,6.166439484342693],[-75.36338630320135,6.166875034556052],[-75.36322440252673,6.16862084315925],[-75.36364058522953,6.169014642912896],[-75.3649295879893,6.169759574141736],[-75.36511694019366,6.169966906674813],[-75.36545162536133,6.171005038990295],[-75.3659711609711,6.17121157650319],[-75.3666759516649,6.170752740283876],[-75.36723625489027,6.17064749491313],[-75.36734136868819,6.171187489624656],[-75.36674073560883,6.171791527219233],[-75.36562001757648,6.171960456652333],[-75.36514320139399,6.1722525102560715],[-75.36499987098532,6.173084007753705],[-75.36450334471473,6.173812464477486],[-75.36369319391424,6.173627405868297],[-75.3636315564222,6.173897680279259],[-75.36417285727602,6.174519742023972],[-75.36423579498117,6.174789714342768],[-75.3636772286445,6.175622208613076],[-75.36272369548784,6.1762478722299345],[-75.36216462354578,6.17687258666665],[-75.36197981672412,6.1777249585505745],[-75.36158629223523,6.178120703416452],[-75.36119431585779,6.179160586305287],[-75.36119501515121,6.1794514887639584],[-75.36142384237483,6.179637944423361],[-75.3622548161117,6.179843734705574],[-75.3624419740033,6.17996795056704],[-75.3624423741831,6.180134187301642],[-75.36138391597885,6.1803029656889095],[-75.36032640864846,6.180866540989891],[-75.36018167386361,6.181116234767469],[-75.36020383249827,6.181697984350123],[-75.3606001564569,6.18246584527587],[-75.36060160437229,6.1830684313293816],[-75.36018896093911,6.184149920402708],[-75.36041929302628,6.184959742330883],[-75.36044204694434,6.185790841118646],[-75.36009004440062,6.186186485929912],[-75.35969646317609,6.18656144978204],[-75.35853393505663,6.186626584885396],[-75.35776642960474,6.186919334435317],[-75.3572056070436,6.186816788031975],[-75.35614892483314,6.187733588472585],[-75.35438458808945,6.187924831320486],[-75.35372143624558,6.188445893297636],[-75.35289065186268,6.188323208206543],[-75.35243467508722,6.188656763495164],[-75.35233285070517,6.189488158756624],[-75.351606764182,6.189739247054059],[-75.35052925529997,6.190635315303163],[-75.34997105185751,6.191634037298187],[-75.34997313477857,6.192506743576692],[-75.34980757886431,6.192735711944096],[-75.34968241480543,6.192486664772426],[-75.34885142112618,6.192280857978951],[-75.34858160783817,6.1923230605467605],[-75.34735850318857,6.1931155784227725],[-75.34725607993167,6.19369762921363],[-75.34798687502145,6.195420539330643],[-75.34805258208131,6.196854124212388],[-75.3477838579742,6.1973534591869885],[-75.34776378697758,6.197644411818105],[-75.34759823061242,6.197873373642655],[-75.34741087008979,6.197666035765607],[-75.34560447202173,6.197649564255515],[-75.34506404897267,6.197401506110613],[-75.34446192880318,6.1974029406354],[-75.34413086505307,6.197881642133061],[-75.34413215012223,6.198421890842107],[-75.34523628232397,6.199977682317392],[-75.3453414308263,6.200538465410265],[-75.34513424755343,6.200725971042129],[-75.34349274878902,6.2002104053098375],[-75.34233008466188,6.200233950784774],[-75.34091870455215,6.200445098821177],[-75.33890446845642,6.200345982656584],[-75.33722336583574,6.20064087498005],[-75.33684889924099,6.20033007694647],[-75.33663935653105,6.199520190824828],[-75.33632673331276,6.199022236416929],[-75.33578660571266,6.198898842240401],[-75.33499855368085,6.199295506950337],[-75.3335244418815,6.199319768801508],[-75.33300595651907,6.199570341346036],[-75.33238449031455,6.200174403205818],[-75.33207309593449,6.200195913658433],[-75.33138675140223,6.199698837282022],[-75.3303473773399,6.199181810100443],[-75.32951608543307,6.198851301143365],[-75.32893472432241,6.198852669329576],[-75.32872763695069,6.1990817286085536],[-75.32868674218136,6.199351953941316],[-75.32875171899951,6.200494647391843],[-75.32833753475671,6.200952761520914],[-75.32748649557816,6.201058657775495],[-75.32667596128213,6.200728101077696],[-75.32611516546885,6.200646299524975],[-75.32578305880017,6.200688638445713],[-75.32516138983173,6.201209573763308],[-75.32518409928022,6.202040684653388],[-75.32651546198424,6.203118070253155],[-75.32753983262552,6.206087068111361],[-75.32714626057832,6.20648279653901],[-75.32685562364505,6.2065042584178025],[-75.32612788720122,6.206069608046603],[-75.32413413777954,6.205866500951657],[-75.32386436392846,6.20592946953715],[-75.32355403355939,6.206408113990672],[-75.3232842150308,6.206450308214266],[-75.32268076675112,6.20589068569498],[-75.32241060326871,6.2057874243666005],[-75.32214087513877,6.205871174382583],[-75.32212137661348,6.206411472693216],[-75.32232949571059,6.206618774720594],[-75.32289034704708,6.206721359570123],[-75.32365945926499,6.207093577463448],[-75.32513398880548,6.207235569476969],[-75.32654784065716,6.2080634103001735],[-75.32681887908117,6.2085406932264275],[-75.32665468190571,6.209351464799927],[-75.32665746442636,6.210535862096817],[-75.32705377227988,6.211303755506704],[-75.3274699202888,6.211676796735052],[-75.32805114955964,6.211613092427208],[-75.32796677347903,6.211052256522266],[-75.3276335324647,6.210616680900826],[-75.32761208776503,6.210325823131192],[-75.32904451053747,6.210218553562189],[-75.32929405864446,6.2103841974851965],[-75.32950291373332,6.210903181890288],[-75.3295272565665,6.212419996048381],[-75.32975687070049,6.212938929164252],[-75.33031880910532,6.213498636010145],[-75.3303416274886,6.214371301739838],[-75.32947216052945,6.215474643062875],[-75.32941187455138,6.216326726226361],[-75.32904126746827,6.2176574598905585],[-75.32848079711614,6.217721121953488],[-75.32737944407909,6.217349693444562],[-75.32713057487982,6.217474953289189],[-75.32711123060847,6.218077594568197],[-75.32715339404082,6.218347621846922],[-75.32761097706984,6.218679004535134],[-75.32848304903209,6.218676948100366],[-75.329250375946,6.218280334847943],[-75.33012234655028,6.218236721396681],[-75.3303924629762,6.218319198598588],[-75.3305591183581,6.218547376337252],[-75.33056005040882,6.2189421756172525],[-75.33047763050394,6.219212496771767],[-75.32933577921635,6.2192775346779845],[-75.32906614652126,6.219402839280311],[-75.32869342864014,6.2198400802301705],[-75.32865322317161,6.220401211362826],[-75.32902794754806,6.220815906917781],[-75.32977627308846,6.221167381360695],[-75.32994292847317,6.221395554624886],[-75.32990203580798,6.221665780049243],[-75.32894842795407,6.222312187239784],[-75.32801601237809,6.223145546836248],[-75.32778883692983,6.223665562456188],[-75.32766689441569,6.224787916041766],[-75.32748055933175,6.225016923076648],[-75.32617370344455,6.225560261563926],[-75.32430504962991,6.225606223229109],[-75.32322625644578,6.226003564464093],[-75.32252145067345,6.226503923655788],[-75.32235787562396,6.2275848216709555],[-75.32206830045257,6.228063423210615],[-75.32219351717572,6.228333251621406],[-75.32275429532062,6.228394267446854],[-75.32453785315889,6.227475791901959],[-75.32536797447881,6.227286827429124],[-75.32561743546437,6.2274109125701],[-75.32578549898192,6.228241674835306],[-75.3262025477512,6.228988740037129],[-75.32663937266523,6.229320176292894],[-75.32771817357398,6.228922822753653],[-75.3285484899106,6.228816966496083],[-75.32863287229577,6.229377803059221],[-75.3283662717149,6.2307914095305765],[-75.32878406040449,6.231850151103868],[-75.32872377670866,6.232702229750943],[-75.32806064892493,6.233264834160402],[-75.3266698364685,6.233434352731544],[-75.32561203712585,6.233935546300353],[-75.32451226580989,6.234249828869479],[-75.32347630149471,6.235208107526233],[-75.32216966500837,6.23585533578522],[-75.32148560708822,6.236355647195856],[-75.3202635326595,6.23764682175483],[-75.3200571603826,6.238187564383642],[-75.31949803370632,6.238833029906412],[-75.3192254633837,6.238915369079887],[-75.31897882113742,6.238792695363193],[-75.31852034225031,6.238087280259244],[-75.31702515967147,6.238028450241691],[-75.31598571574895,6.237511408671026],[-75.31536273486678,6.237492089332953],[-75.31509303846308,6.237596615062017],[-75.31492828358782,6.238178818357967],[-75.31441077449726,6.238865741355768],[-75.31353890707314,6.238971674646325],[-75.31202280511431,6.238850544329444],[-75.3111718914602,6.239039545415837],[-75.3099901507497,6.239831911092537],[-75.30785318392999,6.240605719411158],[-75.30739727884631,6.241001585281551],[-75.30621687745695,6.242375760276779],[-75.30613512465108,6.242936988513179],[-75.3055983774582,6.2442888862503105],[-75.30555819789267,6.244870799107886],[-75.30520630658648,6.245349536805284],[-75.30497991717284,6.246222791011389],[-75.30419514288293,6.248073963654951],[-75.30351283946897,6.249343078642757],[-75.30241523364758,6.250613162778424],[-75.30218797143621,6.251112390878298],[-75.30183819285692,6.252505411893478],[-75.30101191913941,6.254377459789347],[-75.30091007005565,6.255229645135192],[-75.30033133636826,6.256394623282547],[-75.30029182529209,6.257267444309009],[-75.3006051334948,6.258056328191312],[-75.30067075663922,6.259489941575942],[-75.2996364328735,6.261196242409791],[-75.29945253152015,6.262484978600651],[-75.29885258942582,6.263462996228057],[-75.29860373947685,6.263609028609551],[-75.2980428752054,6.263527209717039],[-75.29781253116104,6.262696572714185],[-75.29756219015057,6.262198451786752],[-75.29716668323583,6.261783783644377],[-75.29658510115483,6.26172279435313],[-75.29594160964345,6.26182817951842],[-75.2952533217377,6.2605206751696105],[-75.29421269153525,6.259504897246233],[-75.29348479532864,6.2590286568072795],[-75.29310992216102,6.258551596239298],[-75.29252843935735,6.258532161156614],[-75.29107796386215,6.259886154139057],[-75.29033150441344,6.260365798900592],[-75.28977125989647,6.260554101806446],[-75.28948049765019,6.260533989640788],[-75.28885609386631,6.259912048658987],[-75.28833657489531,6.259747006997529],[-75.28785820663818,6.259415639794477],[-75.28729529517186,6.258440302632035],[-75.28644352695677,6.258276023077377],[-75.2856553894805,6.258693422320532],[-75.28536467121269,6.258694088362339],[-75.2848657283088,6.258445875826587],[-75.28395194691639,6.258406413286575],[-75.28343039212542,6.257347856554609],[-75.282723840871,6.257120899885535],[-75.28261877543508,6.256580876199974],[-75.28193233081647,6.256062962850102],[-75.28178574179104,6.255523033969525],[-75.28118207450547,6.254880252505006],[-75.28072357501148,6.254154018791393],[-75.28055551594878,6.253302451710917],[-75.27915936369173,6.251165353592738],[-75.27905421382461,6.250583772939058],[-75.27861587507036,6.249587356657684],[-75.2785516446659,6.24873554713922],[-75.27782207605283,6.247511225594775],[-75.27759327978785,6.247345508654366],[-75.27730257144128,6.2473461699279635],[-75.27707368526663,6.24713889476182],[-75.27698939687032,6.246598821812037],[-75.27663540045123,6.246163257125101],[-75.27640514404337,6.2453533812047635],[-75.27609258672942,6.244876166015527],[-75.27553145754507,6.244669641884825],[-75.2731433816122,6.2446334997905755],[-75.27293455500012,6.244114487299917],[-75.2722888675469,6.243243209632965],[-75.27174864776288,6.24309897437222],[-75.27185120558745,6.2425376954716745],[-75.2718070051266,6.24135336856834],[-75.27084867012151,6.239963306936106],[-75.27047261302384,6.238945964077981],[-75.27026247948247,6.237845126676351],[-75.26940943698126,6.237098990799005],[-75.26926277345359,6.236517494701643],[-75.26847123436393,6.235417965604486],[-75.26747233150826,6.2344435786454655],[-75.2658668739195,6.231517276247992],[-75.26434812765173,6.23021157853105],[-75.26409829966617,6.229921221977487],[-75.26403475233951,6.229360320466809],[-75.26361470017625,6.228980722981125]]}},{"type":"Feature","id":5,"properties":{"layer_id":"hydrography","name":"EMBALSE EL PEÑOL","category":"Primario","source_id":"gis-hydrography","provenance":"institutional","exact_site":false},"geometry":{"type":"MultiLineString","coordinates":[[[-75.24127439832245,6.232080207311043],[-75.24155126642565,6.232158047358399],[-75.24253601728886,6.23163650391797],[-75.24321796711828,6.2315471431823894],[-75.24330711283086,6.230573443448212],[-75.24295280468313,6.229703440458178],[-75.24429646968699,6.228910937021598],[-75.2446933584514,6.229087656282882],[-75.24520239030325,6.229621229657192],[-75.245809505603,6.229777523222539],[-75.24640438349763,6.230151547724108],[-75.24770606423922,6.229908992716297],[-75.24834180009944,6.230014021798363],[-75.24845212460588,6.229419021786597],[-75.24868018736292,6.229203843406731],[-75.24888467400953,6.229200545210458],[-75.2495766172746,6.229449577816341],[-75.25023311065449,6.230036488185772],[-75.25092075156631,6.22994717868063],[-75.251151997817,6.230351287103289],[-75.25219193350351,6.230220283428501],[-75.25248133906246,6.230292528168373],[-75.25290575929694,6.230681731875028],[-75.25364060713393,6.230151474713544],[-75.25394751367183,6.230103519873375],[-75.25433310991832,6.23026289262493],[-75.25473427844119,6.2307837092717016],[-75.25521374558153,6.230198802837467],[-75.25590784674917,6.229914628186385],[-75.2562881473674,6.229976467953609],[-75.25659913816007,6.230324180572963],[-75.2575053024356,6.229566618708691],[-75.25939312386826,6.229044286400191],[-75.26259695700286,6.228950391047614],[-75.26331304503051,6.229210190977428],[-75.263854428439,6.229584684514623],[-75.26351189812497,6.2287861048364945],[-75.26317275771983,6.2283619576172775],[-75.26282897454142,6.22814574991566],[-75.26248966620899,6.228137803970986],[-75.26239126345615,6.227279912741682],[-75.26207161218551,6.228233177518657],[-75.26174159796682,6.228378340266399],[-75.25904905408959,6.228443902361983],[-75.25786126607764,6.2286190192119575],[-75.2576343780343,6.228541785398904],[-75.25714910898141,6.227744775523583],[-75.25648790632579,6.2283275151475905],[-75.25600993899357,6.228539724065078],[-75.25474022560327,6.227899678896234],[-75.25474892493125,6.22855916590016],[-75.2545999611257,6.228878493866319],[-75.25109400487354,6.229238230878103],[-75.25053220831239,6.229111162007221],[-75.24971638328314,6.228596893080263],[-75.24841161668532,6.2281972381233635],[-75.24804814357688,6.2281871847690455],[-75.24743354133327,6.228478048699932],[-75.24633175918795,6.2284477529091005],[-75.24599717291002,6.228317625089793],[-75.24535762284147,6.2277538430688715],[-75.24356522169565,6.227147702861025],[-75.24316188126602,6.227165839164554],[-75.24246740832585,6.227541747124066],[-75.2419336858468,6.227495268326641],[-75.24209942540782,6.228643988789597],[-75.24187909323165,6.229753745647456],[-75.24147357545438,6.23030509723488],[-75.24099617931401,6.230373962702682],[-75.23971042375466,6.229803863668944]],[[-75.23726767107873,6.226248470481855],[-75.23726482280422,6.226092279833454],[-75.23717381271615,6.2261118609158865]],[[-75.23026376015439,6.2150933933052785],[-75.23051080473516,6.2151003618440965],[-75.23147950136173,6.215725428943927],[-75.23275009655492,6.216136199562408],[-75.23303261141493,6.216500800628221],[-75.23313892603655,6.216891964390364],[-75.23327499947159,6.216950919536182],[-75.23344606715737,6.216786682418864],[-75.23375617473098,6.215953236227911],[-75.2343157561537,6.215225966624264],[-75.23433393561112,6.214945227520661],[-75.23429509910515,6.2147211435763285],[-75.23400562848653,6.214671813548098],[-75.23345704710128,6.2154852313461895],[-75.23321786003471,6.215642927996261],[-75.23280883486106,6.215660994948356],[-75.23107142568064,6.21412082106232],[-75.23028851978574,6.213899344432585],[-75.23000195471992,6.213139056356587],[-75.2296044743257,6.213097287865958]]]}}]}
