{"type":"FeatureCollection","features":[{"type":"Feature","id":1,"properties":{"layer_id":"la_marinilla_ecosystem","source_id":"gis-la_marinilla_ecosystem","provenance":"institutional","exact_site":false},"geometry":{"type":"Polygon","coordinates":[[[-75.34959973985947,6.190460058096112],[-75.3494760502677,6.189920945529413],[-75.34950585314765,6.1895577622009785],[-75.34919553804255,6.189495211623945],[-75.3491473078007,6.1891856496638775],[-75.34927888494377,6.189053335754053],[-75.3494503647417,6.189114310028134],[-75.34926758273838,6.188365547610353],[-75.34932282807517,6.188212501006288],[-75.34945549418678,6.188176584252982],[-75.34958815303375,6.188239615752904],[-75.34975297160912,6.188750882031977],[-75.34997212382507,6.188583962101477],[-75.34991902209494,6.188295962703854],[-75.35014564237085,6.187956274675346],[-75.3498638111613,6.1878518467191155],[-75.34977560547486,6.187534234367944],[-75.34988054846723,6.187239285799188],[-75.35006863426447,6.187017524909094],[-75.3499024359076,6.186963171222929],[-75.34968837699115,6.186578997866066],[-75.34925128933843,6.186195950023292],[-75.34921381229199,6.18590692086734],[-75.34940725342393,6.185729768964205],[-75.349934998122,6.185794723638068],[-75.35016306670802,6.1855389746436495],[-75.35025008135898,6.185283523480257],[-75.3503533185781,6.18520698839358],[-75.3505217850551,6.184884688943336],[-75.34993621967898,6.184913050518088],[-75.34974023159964,6.184765161807876],[-75.34963973226114,6.184532890369645],[-75.34965868069489,6.184216416633198],[-75.34975997229097,6.184108560629897],[-75.34991287072683,6.184082415865568],[-75.34982998152806,6.183823865278774],[-75.34993928552038,6.183490763478572],[-75.35010521401824,6.183423510834092],[-75.3504110807315,6.183499946562327],[-75.35051171037468,6.183461098248585],[-75.35056196717451,6.18332117179632],[-75.35055288254377,6.183121395903162],[-75.34997972802245,6.182405253520779],[-75.34999557371812,6.181992640521821],[-75.35010660474236,6.181779048402001],[-75.35033179737631,6.181690981087044],[-75.35049219208523,6.181762673567948],[-75.3507362298464,6.182091289106336],[-75.3511888569303,6.181937578545065],[-75.35094157986151,6.181536688327067],[-75.35100691824131,6.181279791279453],[-75.35112959539637,6.181138821745184],[-75.3509474958496,6.180840933705639],[-75.35099778131645,6.180606263748699],[-75.35112074799869,6.180517749955744],[-75.35099017615173,6.180334102429379],[-75.35094415829109,6.180026299530116],[-75.35112067258133,6.179842694457303],[-75.35165854605832,6.179848980016002],[-75.3517348976942,6.179798258013494],[-75.35167675815012,6.179661244587332],[-75.35141510614567,6.179702144183999],[-75.3511572996817,6.179602561657981],[-75.35085940437467,6.179590369949621],[-75.35063586958019,6.179463697328249],[-75.35058244061916,6.179337946644909],[-75.35061933282844,6.1791397030817645],[-75.3509166145254,6.178902272104928],[-75.35087984953682,6.1787098000898695],[-75.3504096392023,6.178701892845917],[-75.35025382439937,6.178617134706806],[-75.35016084235097,6.178473288796265],[-75.3499927607934,6.1785979714409995],[-75.34965163279574,6.17862594951608],[-75.34941857477776,6.178310706671754],[-75.34923262929156,6.178219208382726],[-75.34906330257627,6.178036699365274],[-75.34894507963283,6.1778103331526735],[-75.34893710392666,6.177621302693938],[-75.34904947881503,6.177420115490812],[-75.34927092586942,6.177320842578527],[-75.3488447424554,6.176825199561635],[-75.34881356331267,6.1765467127185145],[-75.34895280852483,6.17635643322713],[-75.34938711195997,6.1762993705615825],[-75.3494491126996,6.176218206037972],[-75.34926155709033,6.176282601778801],[-75.34904882839892,6.176251803526556],[-75.34882101221984,6.17641296432571],[-75.34864132732159,6.176443720847245],[-75.34845969724121,6.176373828520301],[-75.34835493749021,6.176102358763591],[-75.34820572672493,6.175984653361425],[-75.34782327919797,6.17621875987549],[-75.34765492579092,6.176206799397866],[-75.34739723131271,6.175937914108191],[-75.34741023944584,6.1755609362717205],[-75.34692985747236,6.17547449567709],[-75.34641147356048,6.175209835147285],[-75.34564231856675,6.174512893472289],[-75.34512667858603,6.174459182503734],[-75.34493769495172,6.174373926217777],[-75.34483768335966,6.174161453512647],[-75.34498584678602,6.173837196680793],[-75.34487144890457,6.173823761993583],[-75.3448159697651,6.174212503766407],[-75.34470753498371,6.174352847713134],[-75.34453789531302,6.174405286830068],[-75.34434723611344,6.174348572140575],[-75.34406083290419,6.174084329197961],[-75.34403138242078,6.173651924893151],[-75.3437477478654,6.173775240147736],[-75.34349710319128,6.173658917321804],[-75.3433500695814,6.172867447957135],[-75.34312236300208,6.172924888225441],[-75.34263132042427,6.173304385299899],[-75.34234401875472,6.173288883680178],[-75.34212437352514,6.173139260350511],[-75.34196095778739,6.172911929954413],[-75.34178723063465,6.172361548983905],[-75.34143704896184,6.172557380592978],[-75.34108640904711,6.172495296099709],[-75.34058205200179,6.172547566572518],[-75.34027808504831,6.172488375064543],[-75.33955131084866,6.172499011905862],[-75.33815481747867,6.172813388817192],[-75.33737984926879,6.17286119667613],[-75.33661004818143,6.172767339284931],[-75.33640630486525,6.172680206228937],[-75.33589149486194,6.172108854270755],[-75.33527063446866,6.17166406611303],[-75.33491105439916,6.171288050876877],[-75.33449164553315,6.171228676551617],[-75.33394634488327,6.170981374721256],[-75.33304798772924,6.171306183886995],[-75.33243866351556,6.171126301568081],[-75.33166646967099,6.17051838187602],[-75.33094368980852,6.170278843781055],[-75.33058169606825,6.1699316492271],[-75.33020276912202,6.1699275171584596],[-75.33004600755982,6.169863160236723],[-75.32995407165447,6.169672891149491],[-75.33004523458767,6.169449887753587],[-75.32985545026396,6.169318931606517],[-75.32937911934194,6.169334765935949],[-75.3292008544241,6.169251098545681],[-75.32912867435955,6.169101270288839],[-75.32899668656255,6.16905725259889],[-75.3288500189429,6.169027156762166],[-75.32855361323504,6.169189536002054],[-75.32826736880959,6.169148233645375],[-75.32812369046101,6.169572875961745],[-75.32792590049269,6.169739649457052],[-75.32774761526186,6.169794791881272],[-75.32746042150816,6.169698792281221],[-75.3273299140131,6.169414337309313],[-75.32689680061878,6.169257968696361],[-75.32639220702892,6.1691938412463285],[-75.32584137334925,6.168925939670959],[-75.32551676903823,6.168917039071739],[-75.32523254245801,6.1691448434895495],[-75.32492691073493,6.169060333546743],[-75.32469872411447,6.169188467259652],[-75.32451316756627,6.169205297378661],[-75.32449205626176,6.169336081436743],[-75.32437684289367,6.169466932749185],[-75.32409832884535,6.169512027905187],[-75.32367889634953,6.169273269761086],[-75.32336958949234,6.169354159873021],[-75.32316797391542,6.169270964561613],[-75.32300059285268,6.169001467824563],[-75.32310203274838,6.16866079555279],[-75.32306222523454,6.168508327006439],[-75.3229258711417,6.168391545663034],[-75.32248108146224,6.168354351844633],[-75.32229028183764,6.168028135242994],[-75.32202985904314,6.167897906630876],[-75.32167065105484,6.16787587980053],[-75.3215100691109,6.1680765457011075],[-75.32161658542192,6.1682922014324655],[-75.32158897466404,6.168504319977504],[-75.32145664098199,6.168652172184277],[-75.32130902608573,6.168678633459703],[-75.32042092748505,6.168364616922179],[-75.32005232184521,6.167913520239626],[-75.31960519525873,6.167888613347467],[-75.31956121568274,6.167663255499025],[-75.31964624935539,6.167393834515135],[-75.31946427509304,6.167180141265373],[-75.31940635182585,6.166974701617078],[-75.3194864991638,6.166466836970988],[-75.31920198426637,6.166287988476729],[-75.31910531277869,6.1660021971562236],[-75.31891533792366,6.166111159198751],[-75.31860318038653,6.166070823495724],[-75.31842028488249,6.165720576721739],[-75.3181958880558,6.165798512150049],[-75.31779176629195,6.165361203300482],[-75.31790080171835,6.165209736442733],[-75.31821399653339,6.165068617533945],[-75.31817931515013,6.164646057486177],[-75.31789866287681,6.164393631811421],[-75.31782774019636,6.164104675328965],[-75.3179502358022,6.163909718648087],[-75.31823149625593,6.163818639347212],[-75.31815835068144,6.1635712607482835],[-75.31825658084635,6.163069834269644],[-75.31868837302389,6.162451326482893],[-75.31856528655499,6.161956480191936],[-75.31833325995913,6.1620389325073806],[-75.31816290226749,6.1620170745583644],[-75.31807169403783,6.1619396384015666],[-75.31791476604826,6.162022952159083],[-75.31772974424068,6.162019554290443],[-75.31747781188723,6.161790710943137],[-75.317264551173,6.1617746072196775],[-75.31668845040551,6.161567480935855],[-75.31642184854317,6.161375892549027],[-75.31636817593953,6.161191051462337],[-75.3164181266678,6.1606670002331],[-75.31629535551279,6.16051812158556],[-75.3158844473007,6.160260196435175],[-75.3156482235017,6.159838575609958],[-75.31573392642046,6.1595755124072324],[-75.31602394104634,6.1593888006956],[-75.31564275887375,6.158907730268045],[-75.31554658386189,6.158515222452062],[-75.31559455727236,6.158186861055751],[-75.31585907164646,6.1580101320407525],[-75.31587325633375,6.15783292824592],[-75.31536306756252,6.157922975320928],[-75.31507957699353,6.1577667083928045],[-75.31491780620534,6.157892950787282],[-75.3145004328583,6.158034524309717],[-75.3142976447155,6.158279069061019],[-75.31398853599008,6.1582341668279685],[-75.3138571982522,6.158025402406888],[-75.31386245474698,6.1577961190350115],[-75.31359698308663,6.157694822976183],[-75.31338790867345,6.157401406476022],[-75.31310414018975,6.157422938691458],[-75.31289896185109,6.157332862480735],[-75.3126638658123,6.156855720209589],[-75.31236693812006,6.156730057696925],[-75.31220995621074,6.156344496986447],[-75.31191817275877,6.156097144803162],[-75.31165260660813,6.1560564958556725],[-75.31149186435489,6.15629033180921],[-75.31123226365966,6.156364571536266],[-75.31091391987334,6.156280376789764],[-75.31077803978899,6.156121346672998],[-75.31039476307201,6.1560225959986115],[-75.31030179603846,6.155868225384404],[-75.31034587370021,6.155702049361044],[-75.31046611094229,6.155632200501494],[-75.31071167083938,6.155663404933429],[-75.31073097819582,6.1556351389890045],[-75.31047920308967,6.155569212363258],[-75.31038570861108,6.15538622492718],[-75.31011036590627,6.15525691523526],[-75.31001588260804,6.15510855331779],[-75.30992241813834,6.153823528967286],[-75.30947030421842,6.154146133707066],[-75.30918135323792,6.154157849068812],[-75.30904040912428,6.154059557457338],[-75.3090159519112,6.153922585528937],[-75.30909784273676,6.153768723894972],[-75.30933564246074,6.153562202289764],[-75.30954018239859,6.1535501813283116],[-75.3096741383795,6.15339369229392],[-75.30986216642624,6.153339611425925],[-75.30993123452416,6.153084077175538],[-75.31066360437477,6.152462133094705],[-75.31095470771663,6.152293748536505],[-75.31090832571762,6.152163739638301],[-75.31094108438576,6.151876903262524],[-75.31084912254283,6.151736838162716],[-75.31082154098904,6.151485273376414],[-75.3108922528384,6.15132944817585],[-75.31109839436468,6.151186889261051],[-75.31085515256184,6.150742919676868],[-75.31067150532206,6.150172503396172],[-75.3102297013705,6.150215625800312],[-75.30966176471263,6.149781786647836],[-75.30951924688938,6.149484577469136],[-75.30925590919827,6.1492023506838205],[-75.30907982543098,6.148579917709967],[-75.30863915798469,6.148313383781349],[-75.30850979606475,6.148061115556717],[-75.30850316467611,6.147903095918184],[-75.30830361262895,6.1477330426665],[-75.30825859069651,6.1475204658694835],[-75.30830178032996,6.147322032294165],[-75.30805761217272,6.147427483869165],[-75.30779191934765,6.147323833002244],[-75.30768231675559,6.147101298121612],[-75.30773480652762,6.1468168285291735],[-75.30753606908287,6.146701241587486],[-75.30726306956697,6.146281101351025],[-75.3072279915463,6.146020411358243],[-75.30740046510465,6.145656089615879],[-75.30761807094768,6.145538128801608],[-75.30803241742487,6.145605249245978],[-75.30820544784383,6.14535683766316],[-75.30815606408191,6.145052782221959],[-75.30789358647085,6.14494430760745],[-75.30761517832562,6.144683559673474],[-75.30715292925231,6.144782668048544],[-75.30661263626139,6.1445282483519215],[-75.30604705873337,6.144623065114761],[-75.30575554345823,6.145069349856997],[-75.30559876452108,6.145159906289042],[-75.30528226025591,6.145170534681374],[-75.30494048819082,6.144901968537493],[-75.30477698876898,6.1446049506304545],[-75.30467603261116,6.144002892958104],[-75.30433761845201,6.143261108251181],[-75.3043559448536,6.143037935808656],[-75.30447737037832,6.142804435800114],[-75.30487188739984,6.14245871228681],[-75.30485864912553,6.142373743621601],[-75.3046415107938,6.142298191012973],[-75.30426550998118,6.142384215982932],[-75.3040656270971,6.142275020643224],[-75.30396688657495,6.142138298910848],[-75.30356243535651,6.142420778038982],[-75.30334615246063,6.142396067367675],[-75.30318135665435,6.142263312692763],[-75.30284667491557,6.142388694377004],[-75.30252156643841,6.142299336390772],[-75.30223895128712,6.142516731898483],[-75.30215893435457,6.142982141173655],[-75.30196500173801,6.1431523922746765],[-75.30168070062975,6.143193962156339],[-75.30149555387332,6.14309989299247],[-75.30133957305164,6.143286722523529],[-75.30113323775716,6.143323534203082],[-75.30099442463715,6.1432243125222765],[-75.30089207072173,6.142881830965069],[-75.30065026707383,6.143273221401633],[-75.30048233815751,6.143320517490263],[-75.30032204235735,6.143269769498864],[-75.30020777643323,6.143140035986539],[-75.3001526800066,6.142846189230449],[-75.29998730290134,6.142725935242279],[-75.29991521901776,6.142440793651184],[-75.29950018129375,6.1423812084737],[-75.2993328739245,6.142249354259231],[-75.29921366119754,6.142412657677327],[-75.29902508011394,6.142459644938592],[-75.29874613129128,6.142276078476315],[-75.29868303483002,6.14212252064583],[-75.29872699271881,6.141904450685027],[-75.29858198914542,6.141681781799004],[-75.29867066784978,6.141324875551859],[-75.29857324055037,6.141200554328053],[-75.2981576221345,6.140897915869478],[-75.29799016704267,6.140863167059199],[-75.2976505413053,6.140925266783752],[-75.29743181139139,6.1408612406443455],[-75.29731042698128,6.14072237090856],[-75.29731357286599,6.1404853073777526],[-75.297137826058,6.140195194263823],[-75.29687594317491,6.140158399925879],[-75.29672089894935,6.14003734346946],[-75.29662142334142,6.139804284706686],[-75.29673093910249,6.139601813165699],[-75.29653264869317,6.139381277245354],[-75.29619717562959,6.139222934129481],[-75.29609662788747,6.13903254555413],[-75.29615394742291,6.138829548111249],[-75.29648169517161,6.138535439460002],[-75.29636320281361,6.138378861952905],[-75.29586861274983,6.138270421522916],[-75.29551389777123,6.137919410106689],[-75.2954406703387,6.137690862717655],[-75.29561370082536,6.137504322645564],[-75.29554167816747,6.137201351249261],[-75.29473643531072,6.137227481236737],[-75.29455034565099,6.136969655349505],[-75.29439087977354,6.13698637621402],[-75.29427592764056,6.136917347374934],[-75.29415506646855,6.136637143054263],[-75.29385809632349,6.136904891694735],[-75.29362547519578,6.136902672145522],[-75.2934670846369,6.136762282916998],[-75.29343457272068,6.1365393155033425],[-75.2931618671029,6.13645842992611],[-75.29298833497232,6.136155218814259],[-75.29286479064862,6.13605707607319],[-75.29257603225591,6.135941994459869],[-75.29240793371464,6.135795207309911],[-75.29220082821305,6.135745561401458],[-75.29197982047982,6.135494753283171],[-75.29144152279929,6.135470172452831],[-75.29093772168338,6.135192196795516],[-75.29074752873973,6.134994100667768],[-75.29077072007101,6.134758305817128],[-75.29032464775592,6.134584669432133],[-75.29002303745686,6.1345953740581916],[-75.28970941291243,6.134390670066178],[-75.28960423384567,6.134523980159974],[-75.28958630472899,6.13481841503115],[-75.28973029834927,6.135065319328125],[-75.28963065200524,6.135312041275197],[-75.28944789452287,6.135423106990065],[-75.28916223096235,6.1353976813542666],[-75.28905884904407,6.135516064069146],[-75.28900379106143,6.135821782255126],[-75.28881667888362,6.135990297275382],[-75.28858238644996,6.136036889234868],[-75.2884040153959,6.135904219959509],[-75.28835851956704,6.135930317556522],[-75.28824662281183,6.136276446936634],[-75.28804336073327,6.136463404938992],[-75.28785660182824,6.136518569511114],[-75.28769030631003,6.136469294443252],[-75.28773884250167,6.136628918495256],[-75.28769408618379,6.136805911040775],[-75.2875953282902,6.1370352420611125],[-75.28746978750631,6.137145817523551],[-75.28753477316293,6.1375533448115815],[-75.28736421053371,6.137718260584802],[-75.28707826279032,6.137736255268104],[-75.28708379519121,6.138217889390833],[-75.28688558781417,6.138372849488118],[-75.28668237843249,6.138355249182396],[-75.2864464974271,6.138131559464987],[-75.2862541164602,6.138335778848925],[-75.2860218584392,6.138327741818108],[-75.28585755371358,6.138446703152265],[-75.28556113729631,6.138473168844859],[-75.28519068740982,6.1386732178802825],[-75.28493812553803,6.13870271100844],[-75.28474478191401,6.138640250880194],[-75.28434191332649,6.138244513748086],[-75.28394097254923,6.138425769681602],[-75.28378103206916,6.138395959975109],[-75.28367330295144,6.138296024521891],[-75.28336426960716,6.138280258034724],[-75.28325605353662,6.1381619521898605],[-75.28325395340377,6.137896757469506],[-75.28319701357208,6.137837579093143],[-75.2830071297716,6.137861340866557],[-75.282865578795,6.138171178847212],[-75.28257402660665,6.138270937986919],[-75.281961113807,6.137840693406313],[-75.28183811809673,6.137971264761704],[-75.28155554058517,6.138046571246839],[-75.2807258313524,6.13847059278577],[-75.28034771659385,6.1384141743842795],[-75.28002525595171,6.1384516170461625],[-75.27982305145251,6.138390560946145],[-75.27969104551717,6.138231257806054],[-75.27953158391179,6.13834489776186],[-75.27933832702666,6.138333488793987],[-75.27912248515509,6.1381251574841205],[-75.27847615026081,6.138114224626625],[-75.27805989912707,6.137998475013335],[-75.2776771523709,6.1380550840545425],[-75.27754838550217,6.137976932685248],[-75.27743460334736,6.137735125495457],[-75.27731360813395,6.137922020219207],[-75.27699024987011,6.138146913365296],[-75.27666190252995,6.138134979935395],[-75.27647403001701,6.1379758131819],[-75.27632899691696,6.1380483852138825],[-75.27614875199963,6.138288320570141],[-75.27520110760717,6.1386521826104765],[-75.27501645689705,6.138662463376358],[-75.27477146263564,6.138448949325294],[-75.2747017618565,6.138169684070065],[-75.27472324295239,6.137842628386102],[-75.27444284798855,6.137971067584197],[-75.27422708538076,6.137981528673775],[-75.27384354350487,6.137550961323453],[-75.2743112327054,6.137309635011965],[-75.2744005673887,6.137442397381999],[-75.27469170219442,6.137346013808098],[-75.27493856486734,6.1374032897728785],[-75.27510515902392,6.137539185987813],[-75.27519078074194,6.1377218802181845],[-75.2751942361058,6.138154409360909],[-75.2758587093591,6.13791157030911],[-75.2760360353295,6.137652293904524],[-75.27636802694992,6.137518304207032],[-75.27673050909361,6.137541984373642],[-75.27692349217891,6.137678879077004],[-75.27713417671258,6.137254150190143],[-75.27746142283766,6.137035350449349],[-75.27772457093013,6.1371497791464735],[-75.27789259369447,6.1375554250927955],[-75.27941602873828,6.13775868888627],[-75.27956162301567,6.137626413804223],[-75.27972623230905,6.137599416859051],[-75.28005129574306,6.1377309559940905],[-75.28017832732873,6.137992712849667],[-75.28041559798594,6.1379559354557465],[-75.280599771943,6.138008968118527],[-75.28082173819826,6.137907997332791],[-75.2812283130394,6.137856930964219],[-75.28167346616637,6.137441553793178],[-75.28184827122992,6.137382009497097],[-75.28224349593123,6.137430503387885],[-75.28254687265155,6.137733724166083],[-75.28275938794177,6.137430449201877],[-75.28303099303245,6.1373410909448225],[-75.28343395556018,6.13743535226001],[-75.2836855833233,6.13772074619525],[-75.28393500125922,6.137698614639776],[-75.28408326947027,6.137880664011847],[-75.28431454736999,6.1377828362645985],[-75.28460289525559,6.137856777327655],[-75.2850349964617,6.138255482109055],[-75.28526778219957,6.138098449057279],[-75.28557894960238,6.138042676505842],[-75.28562982189487,6.137762217348529],[-75.28577945261041,6.137593711758919],[-75.2859801079653,6.13757840945463],[-75.2861624644176,6.137687083700969],[-75.28629225731738,6.1375715608488095],[-75.28647630516929,6.137541287545724],[-75.2866436966107,6.137339682705863],[-75.28701832971727,6.137285124413564],[-75.2869576707683,6.136978721294607],[-75.2871330598297,6.136777636577843],[-75.28695008982915,6.136550041488687],[-75.28702874182002,6.136265191611256],[-75.28738731277218,6.135940317632371],[-75.28755655909615,6.135912346359222],[-75.28783804841338,6.13599160184087],[-75.28796307061143,6.13568135788039],[-75.28827986575949,6.1354240913695515],[-75.28844903530725,6.135391239401332],[-75.28861061808746,6.1354837364387915],[-75.28879424075775,6.134963952796822],[-75.28913717342893,6.134657101472161],[-75.28919111295343,6.134342701608603],[-75.28934028774486,6.134115704602751],[-75.2895340183293,6.133961923713473],[-75.28975532411424,6.133932188769193],[-75.2899892398367,6.1339969764903515],[-75.29018617415332,6.1341661223015835],[-75.29054750160223,6.134133438723006],[-75.29083299235079,6.1343121704938035],[-75.29104703583995,6.134360947422889],[-75.29120497555506,6.134597031439507],[-75.2914504745432,6.134664064737357],[-75.29153575145091,6.134921730892003],[-75.29163867688297,6.134982779396705],[-75.29184772320066,6.134975873768299],[-75.29210326118827,6.134835545205111],[-75.29232853494591,6.134886732369519],[-75.29252721819151,6.13512015048483],[-75.29253300242496,6.135353479358172],[-75.29283352894502,6.135591822030973],[-75.29325320953262,6.1357408015395345],[-75.29343587512447,6.136024252060629],[-75.29360534616609,6.135985264149508],[-75.29375447493942,6.136028704966837],[-75.29389139076478,6.1362599195063],[-75.29416780703345,6.136167500557997],[-75.29435407704965,6.136204865311068],[-75.29446506984168,6.136303970183884],[-75.29468971786146,6.136193539092636],[-75.29490699333911,6.13623780957594],[-75.2950882511502,6.13646928832379],[-75.2950587042735,6.136776628181462],[-75.29539386217924,6.13676465059194],[-75.29585157174382,6.136638104444455],[-75.29619841726438,6.136761907755486],[-75.29633370814402,6.136928842003278],[-75.29636756565058,6.137100976439655],[-75.29632440043675,6.1372536691156965],[-75.29620660207614,6.137355803599802],[-75.29624250607782,6.137617144026751],[-75.29611304656835,6.137833463223625],[-75.29614631629394,6.137898093671234],[-75.29643123695,6.137892516456709],[-75.29658753356193,6.1379565071643265],[-75.296886774879,6.138338286948217],[-75.2969959908038,6.1386007656960775],[-75.29699655381955,6.1387797842725025],[-75.29693350291161,6.138915449248963],[-75.29679775744647,6.138996423827264],[-75.29706878165373,6.139271019274778],[-75.29728297084986,6.139744651149218],[-75.2974530545574,6.139830568483063],[-75.29754200860866,6.140011384592677],[-75.29781470647751,6.140103726002297],[-75.29786255177441,6.140234593138145],[-75.29782309426776,6.140414478007176],[-75.29832101272542,6.140438798684359],[-75.29894739794808,6.140911095202509],[-75.29926058164726,6.140957079465501],[-75.29932927112549,6.141206398719759],[-75.29913410001963,6.141500676152801],[-75.29924634306833,6.141681510238834],[-75.29949615070167,6.141706741426031],[-75.29973716782462,6.141944604758404],[-75.30020239684677,6.142081509050338],[-75.30032411079634,6.1421828134249905],[-75.30039261239504,6.142369522533708],[-75.30058032509832,6.142497139644496],[-75.30102283985732,6.142383442217114],[-75.30119687224031,6.1424700522397115],[-75.30132874574777,6.142673553438638],[-75.30161512850754,6.1426484406086725],[-75.30180073539722,6.142726207551815],[-75.30181888263397,6.142270835210718],[-75.30207709299665,6.141916915043426],[-75.30243046456795,6.141774834723989],[-75.30287794940175,6.141883024524794],[-75.30320919971533,6.141647164923482],[-75.30343359761424,6.141688555260288],[-75.30353456770328,6.14191191461975],[-75.30389360693303,6.141630906568477],[-75.30417483561097,6.14157708989881],[-75.30434352461774,6.141695710698986],[-75.30440642858557,6.141870837196449],[-75.30480425614387,6.141849548469765],[-75.3052108489292,6.14202787426264],[-75.30535740198755,6.142252127836525],[-75.30535462434665,6.142499048332265],[-75.30517911911383,6.14280025504806],[-75.3048942349372,6.142998753171098],[-75.30479211163635,6.143165618755691],[-75.30491182735898,6.143290988693868],[-75.30502650187799,6.143683186744161],[-75.30515702074221,6.1438861805758025],[-75.30520593290412,6.144435466612649],[-75.30536122264822,6.144655301968019],[-75.3054282319148,6.144710778310678],[-75.30561505818517,6.144349220860837],[-75.30577695209942,6.144209842683652],[-75.30632892371149,6.1440363316436875],[-75.30671050024345,6.144071164320515],[-75.30725907056491,6.144318091755779],[-75.30734564234186,6.144174883565174],[-75.30754195050716,6.144058485265404],[-75.30773216070875,6.144046192620468],[-75.30789469759054,6.144128670858428],[-75.30802971857968,6.144423750746726],[-75.30821065038654,6.144580439467528],[-75.30845006354946,6.14464618401203],[-75.3085877587968,6.144802289588517],[-75.30874160535998,6.145500517514037],[-75.30866346747791,6.145723646510131],[-75.30848234018228,6.145799799584253],[-75.30830405508031,6.14599409186315],[-75.30813605799278,6.146071372046515],[-75.30778596540794,6.14604404675925],[-75.30771553368595,6.146145400084048],[-75.30785075326366,6.146336930434955],[-75.30808181581124,6.146271001562591],[-75.30823088501278,6.146302685228939],[-75.30832516233087,6.1464125913311465],[-75.30831941753006,6.146596846988632],[-75.30862091708904,6.146617281227823],[-75.30885827921485,6.1468181440486855],[-75.30891314367199,6.147062344714234],[-75.30887092133123,6.147405577000679],[-75.30912895684673,6.147400478551112],[-75.30927157688184,6.147582082103802],[-75.30924165498631,6.147758490146199],[-75.30904723810029,6.147995790276291],[-75.30960224831482,6.148298497756758],[-75.30957186889735,6.1487757814261],[-75.31002615706439,6.149405031669766],[-75.3102331120023,6.149495042904427],[-75.31034314545667,6.149674664493289],[-75.31046142324834,6.149724567448953],[-75.31119797229181,6.149681589304251],[-75.31165700412828,6.1497593823580265],[-75.31202524486659,6.150098398618042],[-75.312014647197,6.150349922291898],[-75.31186070269067,6.150533365971093],[-75.3119254007734,6.150705311210206],[-75.3119025162641,6.150904585177672],[-75.31162415927237,6.151434339212542],[-75.3113901093718,6.15158359628278],[-75.31143654114815,6.151755853966729],[-75.31139296883836,6.15203911189154],[-75.31147493846505,6.152280168601428],[-75.31143102875134,6.152508549061364],[-75.31131900796198,6.15263010068908],[-75.31093994465036,6.152823710045612],[-75.31035576090079,6.15333225487319],[-75.31036122190432,6.154048026134092],[-75.31044950005585,6.1542542008226935],[-75.31047654547129,6.1547662479293885],[-75.31077341199631,6.154835134112344],[-75.31086544414423,6.15495770963941],[-75.31088872483973,6.15515740982954],[-75.31106739487734,6.155167858654132],[-75.31117675009172,6.155244785817326],[-75.31132302380274,6.15566196784393],[-75.31146422526805,6.155545627220996],[-75.3116417886436,6.155518058536618],[-75.31220044109394,6.155710907255598],[-75.31263161599158,6.15607493397577],[-75.31271533787589,6.156395421119612],[-75.3130232747864,6.156541326362508],[-75.31322497416127,6.15696276302041],[-75.31365142291115,6.1569588980691226],[-75.31388555023393,6.157302171764287],[-75.31414626272228,6.157086261308503],[-75.3144234864416,6.1570210890858625],[-75.31463538465697,6.157192893924731],[-75.31463125487801,6.157503952837039],[-75.31489379799251,6.157246106859448],[-75.3151171094752,6.157182966153258],[-75.31531609142114,6.157256786472607],[-75.31547289274789,6.157439577965141],[-75.31595899300072,6.157367660464565],[-75.31630092969195,6.157580285961827],[-75.3163940791324,6.157856179547781],[-75.31632529245505,6.158206154410681],[-75.31619612373272,6.1584078349353355],[-75.3159867350282,6.158509742148353],[-75.31620088754707,6.158905396927017],[-75.31647554625977,6.159103075492068],[-75.31654249322116,6.159381826217416],[-75.31640573906888,6.159697748051502],[-75.31618792128113,6.1598115207773],[-75.31621415515718,6.159886323999182],[-75.31682654527634,6.160297325055703],[-75.31687132856318,6.160549072112354],[-75.31700500627578,6.160777789214428],[-75.31695916964073,6.1611504201470835],[-75.31722948866108,6.1612581535181965],[-75.31739932659286,6.161078212436554],[-75.3176698891128,6.161052674856671],[-75.3178274071796,6.161159625687231],[-75.31790997115235,6.161360668148195],[-75.31803649118868,6.16127062585092],[-75.31820515819719,6.161258431122525],[-75.31842431378378,6.161414142959482],[-75.31872876564381,6.161402544575788],[-75.31892766277701,6.161581665109202],[-75.31913342702725,6.162141546677398],[-75.31916790707555,6.162478071557042],[-75.31905014009064,6.162812767435245],[-75.31867177385516,6.163295247857378],[-75.31861250803895,6.163528647473747],[-75.31875477742872,6.163986607903499],[-75.31870144865758,6.164158901376059],[-75.3185357051851,6.16430239802651],[-75.31871922258057,6.164633885458919],[-75.31866829070118,6.165268903660968],[-75.3188254267153,6.165431072429906],[-75.31899494506693,6.165195452162994],[-75.31919632610754,6.1651350861169],[-75.31941940793523,6.165208717245922],[-75.31955302975798,6.165344951499095],[-75.31967593564383,6.165580305763745],[-75.31962866516213,6.166008538749901],[-75.31997724001822,6.166078600090829],[-75.32013913181001,6.166313636959957],[-75.32008459676486,6.166517624127859],[-75.31989365965285,6.166714015386563],[-75.3198927566077,6.166985273564618],[-75.3200957484152,6.167178656744156],[-75.32013590362116,6.16744267013139],[-75.32044598173172,6.167502902824277],[-75.32062138398214,6.167626154265417],[-75.32066778354704,6.167775933969612],[-75.32062343254533,6.167945869255177],[-75.32097149399061,6.16807310882608],[-75.32100677268812,6.167843976065921],[-75.32148032020382,6.167358401431508],[-75.32194794610143,6.167425602783189],[-75.32216249588595,6.16736341199896],[-75.32230067167538,6.167407419046752],[-75.32239691678913,6.167543937606278],[-75.32263981565077,6.167695426837515],[-75.32277471917881,6.167911804756676],[-75.3230833378528,6.16795269611517],[-75.32338157783613,6.168077435336846],[-75.32357818585977,6.168510850222009],[-75.32353777993113,6.168822900203795],[-75.32378228992029,6.168780391958467],[-75.32396525471025,6.168882146055269],[-75.32401113609102,6.168695863362419],[-75.32416260968095,6.168565505610471],[-75.32432449106052,6.168556010437822],[-75.3246067854719,6.168709762273729],[-75.32486288501326,6.168568113706689],[-75.32515045758105,6.168611052633697],[-75.32531834395495,6.168417317860064],[-75.32550586969883,6.168380260870879],[-75.32576658810626,6.168476846875773],[-75.32602717807582,6.168479123974366],[-75.32655912922218,6.1687713248565155],[-75.32747874992812,6.168905898118385],[-75.3277034964916,6.169024403778645],[-75.32766372747392,6.168743624932305],[-75.32789047849461,6.168510726825624],[-75.32809555908321,6.168501121371414],[-75.328544136452,6.168627920171455],[-75.32879285542575,6.168544649346866],[-75.32908217458525,6.16858048633379],[-75.32935343860457,6.168668968179454],[-75.32954534660102,6.168884708061705],[-75.32991755466882,6.1689107920796875],[-75.33038844748201,6.169107454332014],[-75.33052623337925,6.169253063422731],[-75.33057615128261,6.169463614389007],[-75.33083050893593,6.169555434256028],[-75.33128061763321,6.169905962776508],[-75.3317136505536,6.169970450095455],[-75.33219133206656,6.170229596731423],[-75.33239398838464,6.170388858048758],[-75.3325773181687,6.1707406330845185],[-75.33296700500253,6.170896347184758],[-75.33359952428387,6.170581180337334],[-75.33400578500834,6.170495660136034],[-75.33424059424743,6.170543127955544],[-75.33464348975208,6.170824883315085],[-75.33514514363966,6.170910021003491],[-75.33630330972183,6.172106055435712],[-75.33679853964246,6.172424620668765],[-75.3373509777525,6.172466834458141],[-75.33814685882078,6.172403385526136],[-75.33950890169773,6.172080986997916],[-75.34009198691082,6.172072112594277],[-75.34060033886097,6.172147996605492],[-75.34089851906592,6.1720743761237395],[-75.34127682415269,6.172110406282696],[-75.34167761985846,6.171902689202093],[-75.34186420594726,6.171897582947005],[-75.34210456539141,6.172056342361236],[-75.34228162810493,6.17260564326488],[-75.3425254275367,6.172888751569286],[-75.34310433302471,6.172465192825614],[-75.34332180333854,6.17242267253083],[-75.3435186015349,6.172463214437098],[-75.3436774496265,6.172594168642936],[-75.34376696725641,6.172768182221956],[-75.34380312396583,6.173318695740922],[-75.34399873498612,6.1730727577281295],[-75.344202608317,6.172991972347216],[-75.34437070937553,6.173047167326693],[-75.3445122412171,6.173199950046795],[-75.34451814280591,6.173659928428184],[-75.34476390510049,6.173372611364299],[-75.34499020964579,6.173358960333961],[-75.34519470375949,6.173426476747139],[-75.34532011430227,6.173546240952868],[-75.34540814645207,6.173775717498366],[-75.34534263220768,6.174062769765655],[-75.34591659314006,6.174197869353561],[-75.34657898235484,6.174828215850916],[-75.34696726445034,6.175033997400536],[-75.34768006957273,6.175161858309718],[-75.34784978803354,6.175375195545223],[-75.34786156031332,6.175596123864892],[-75.34807973923445,6.175497941039135],[-75.34830054460868,6.175528189817641],[-75.34848290020831,6.175650955331647],[-75.34871687275538,6.175939645565868],[-75.34894162752605,6.175795793795346],[-75.34927499077385,6.175869684384423],[-75.34950818775413,6.175847146897284],[-75.34975806342605,6.1759418571174525],[-75.34986740064214,6.1761426836313555],[-75.34985494465792,6.1764599474263635],[-75.34963343809133,6.176678666897847],[-75.34935593251691,6.176715704780297],[-75.34946076822223,6.1769479134613885],[-75.34981568494844,6.17722791719589],[-75.3498420892998,6.177515146451246],[-75.34970768737978,6.1777073271739225],[-75.34941307743676,6.177716917337065],[-75.3498452148098,6.178206073211345],[-75.35002727870065,6.177944363638477],[-75.35019730096258,6.177888365127986],[-75.35034986966998,6.177980732158537],[-75.35046812122815,6.178254042047654],[-75.35110101458389,6.178327918476087],[-75.35129382181216,6.178652385672238],[-75.35131683688041,6.178947242102448],[-75.35123462859777,6.1792047758154185],[-75.35194005315165,6.179314908574441],[-75.35209202999933,6.179528764528476],[-75.35213370498955,6.179836931738001],[-75.35197988635849,6.180185907009697],[-75.35179144619632,6.180262699647484],[-75.35153466010617,6.180267470918231],[-75.35186165911674,6.1804277145617075],[-75.35192661698903,6.1806422307064075],[-75.35181929425265,6.1809885009608525],[-75.35161174762763,6.181135299368668],[-75.3515732941937,6.181282505082689],[-75.3513732454787,6.181450954834145],[-75.35156455532078,6.1818713957642615],[-75.35155282888407,6.182186740329992],[-75.35142680311853,6.1823098089012065],[-75.35111835629647,6.182357681654208],[-75.3507667826679,6.182534655228326],[-75.35062795939002,6.182533070355277],[-75.35045916140426,6.182437021958486],[-75.35087079841563,6.182906045233882],[-75.35097242265707,6.183266155415473],[-75.35084244983675,6.183785562223068],[-75.35070296641156,6.183870426687706],[-75.3504587052523,6.183880428744678],[-75.35072019205121,6.184078003457291],[-75.35077870497454,6.184307941172503],[-75.35065436262529,6.184458048142727],[-75.35043240013434,6.184529864967729],[-75.35081666703778,6.184528151595635],[-75.35090316815051,6.18462108256884],[-75.35095503717177,6.1848406671462275],[-75.35073940021321,6.185561209158199],[-75.3505710958745,6.185844508735868],[-75.35024243884648,6.186194490832192],[-75.35052441360861,6.186262866944651],[-75.3507252826343,6.186519238547881],[-75.35075335931772,6.186736071037298],[-75.35067998127195,6.187053338975223],[-75.350555719847,6.187291131520298],[-75.35039682173925,6.18742381436323],[-75.350637006609,6.187491799502238],[-75.35076872088871,6.187654693725375],[-75.35075657610477,6.187865679264111],[-75.35052731898675,6.188290590955623],[-75.35072944035434,6.18834989918961],[-75.35102910396465,6.1885579340108],[-75.35109207235529,6.188957580930823],[-75.351018556857,6.1891078284875976],[-75.35088135112674,6.189189833144888],[-75.35013117818521,6.189253745070297],[-75.35009341153349,6.189476424837345],[-75.34993905743107,6.189754186328625],[-75.34993387138937,6.190091004154676],[-75.35007330043221,6.190323112587399],[-75.35034871046193,6.1904662355577225],[-75.35049835984258,6.1903360664804055],[-75.35064021337695,6.190308483773867],[-75.35077496037516,6.1904684163774455],[-75.3504608260828,6.191304588031745],[-75.35030419328716,6.191540277280864],[-75.35006009096519,6.1917104253606405],[-75.34987320636651,6.191728141675665],[-75.34976585366773,6.191575485116577],[-75.3500550388975,6.190870808096084],[-75.34974535159704,6.190677823330599],[-75.34959973985947,6.190460058096112]],[[-75.35004962539735,6.186290756895296],[-75.35003473555203,6.186293033663571],[-75.350040576047,6.186301452506754],[-75.35004962539735,6.186290756895296]],[[-75.35012022213907,6.184509969663499],[-75.35009160735343,6.184523153499728],[-75.35018280009353,6.184524410161056],[-75.35012022213907,6.184509969663499]],[[-75.3112625050476,6.1505084440183015],[-75.31126959990675,6.15057510828463],[-75.3113123019165,6.150623172330895],[-75.31137297520299,6.150546015543057],[-75.3112625050476,6.1505084440183015]],[[-75.30843457957016,6.147127586422206],[-75.30839972005869,6.147154459022979],[-75.30833128187888,6.147283974453208],[-75.30841126098267,6.1472329926714115],[-75.30843457957016,6.147127586422206]]]}}]}
