{"type":"FeatureCollection","features":[{"type":"Feature","id":1,"properties":{"layer_id":"pomca_rio_negro","name":"Cobertura municipal del POMCA Río Negro","category":"cuenca","source_id":"gis-pomca_rio_negro","provenance":"institutional","exact_site":false,"limitation":"Estar dentro del POMCA no es un puntaje de riesgo climático."},"geometry":{"type":"MultiLineString","coordinates":[[[-75.40277281548907,6.042850099720281],[-75.41192274106126,6.043595958773133],[-75.41940134695642,6.048043820264236],[-75.42541119565118,6.0443866672481],[-75.4383753539876,6.039723523344171],[-75.44692586384176,6.039161905044206],[-75.45514101492158,6.042321683503276],[-75.4644749436448,6.050905492050536],[-75.47095398474119,6.06870064429692],[-75.47107640348658,6.074695470953648],[-75.46923551777084,6.080803558834324],[-75.48251010678679,6.088888830141599],[-75.48719717078568,6.097663319218313],[-75.49321484681084,6.103598811336923],[-75.496267112813,6.110682339543043],[-75.4948609417979,6.133621177481296],[-75.49675485384113,6.140637065712512],[-75.49473277170058,6.159477115573783],[-75.50063813510714,6.164972407291403],[-75.50338876969836,6.170483264808317],[-75.50527990253582,6.179514579241844],[-75.50551278562787,6.190886161827294],[-75.4998796225055,6.189650055213077],[-75.49851496914526,6.189909547247957],[-75.49794613752464,6.19177754685267],[-75.49576725579169,6.192133160363648],[-75.49295926730409,6.190747903981915],[-75.48487629479835,6.190217079435],[-75.48541622104847,6.192168334400533],[-75.48258338078563,6.197871593338566],[-75.48542009320623,6.201043458256268],[-75.4850193554963,6.2110842516511795],[-75.49069263701388,6.215998769507328],[-75.49022007798045,6.218536658175514],[-75.49154944566456,6.220382191149674],[-75.4900280128727,6.223544381340078],[-75.49141373506212,6.2289036628889445],[-75.4850620591602,6.231428018417493],[-75.48175746612239,6.230285108339411],[-75.47888243603373,6.23251827828363],[-75.47842734827604,6.235053672433019],[-75.47284587340195,6.2368974173532425],[-75.47372888903928,6.239601004820558],[-75.47211310821456,6.241122650960361],[-75.47177657317238,6.244358540999942],[-75.47363131140334,6.2458108452361865],[-75.47401019503151,6.248553702642458],[-75.47595239596377,6.248545683979746],[-75.47951065432079,6.25368315763488],[-75.48166378297263,6.25481318924645],[-75.48156325917465,6.258720849136075],[-75.48568118860847,6.262239554323221],[-75.48209919907022,6.267427992177419],[-75.48258301805173,6.275370163080903],[-75.48411466517578,6.2779086245669005],[-75.48360545861227,6.284315333665345],[-75.4850354088719,6.288799460242787],[-75.48425009534543,6.290810063784197],[-75.48908236454974,6.29544814345012],[-75.48720512551203,6.299783974787764],[-75.48982096034673,6.300678338167873],[-75.48945183876806,6.303880157833541],[-75.49101507162024,6.3056220015850215],[-75.48348999397453,6.310789038515748],[-75.4823821645271,6.3197747515247595],[-75.47584464156989,6.317141366193284],[-75.4673913730807,6.319091290795378],[-75.46495852754634,6.320707545529598],[-75.46451804846839,6.323736458836161],[-75.45595538174355,6.3266871800689835],[-75.45190578009574,6.331475314072368],[-75.45109947879985,6.329921127264697],[-75.45116045080876,6.335033804920458],[-75.44293154521672,6.32302274767784],[-75.4357298343659,6.321766657432275],[-75.4330154146263,6.319678383202728],[-75.43175210946616,6.31650999033333],[-75.42298917583084,6.315780917997876],[-75.42320802733066,6.312433277689461],[-75.42105046344132,6.311531005354845],[-75.4206818228546,6.308077961805634],[-75.42140341900217,6.305874731443553],[-75.42594217185432,6.303102608664645],[-75.4241109679481,6.301420016216682],[-75.42402666686606,6.299380350051679],[-75.42769367858638,6.296795720281274],[-75.42488342381635,6.2907272352514605],[-75.42560348582427,6.289351354410722],[-75.42323469147014,6.281953867647436],[-75.41752952978145,6.280251291754998],[-75.41294906685215,6.2760299346751784],[-75.4086918552546,6.260870930520994],[-75.40294447070772,6.261122723334911],[-75.40153254472563,6.264543067639692],[-75.39881389813038,6.263772552962959],[-75.39718576684535,6.26804735931624],[-75.39968944253805,6.272303517050211],[-75.3954502611369,6.275665117076464],[-75.39358553176572,6.275791505436668],[-75.39076288484104,6.284909362874198],[-75.38793853078974,6.2888366934903255],[-75.39034190330355,6.292218966741456],[-75.38412743093505,6.2992895311689905],[-75.37999753360452,6.297612622656985],[-75.3763798624587,6.304787155814763],[-75.37271527378168,6.3057558171617645],[-75.37216870542531,6.310378968489939],[-75.36907964375811,6.3062756147940835],[-75.36677645134044,6.306957311527424],[-75.36754477092154,6.2942422233975766],[-75.37151706616487,6.28579167860924],[-75.3675565966955,6.272864696774766],[-75.36902197515337,6.26383739810808],[-75.36648357155393,6.252611974529669],[-75.36145431669715,6.250446116142174],[-75.34809828652982,6.253418788025404],[-75.34212857042465,6.252801486748438],[-75.33668770941723,6.250483377862028],[-75.32308052854927,6.256436726668496],[-75.31493079846489,6.275341661826955],[-75.31065483122617,6.279417822089405],[-75.30376034020323,6.282418464064802],[-75.29909002085645,6.2801135531387215],[-75.29732531047033,6.281025236217413],[-75.29725824411513,6.282959727274468],[-75.29561654944223,6.282748595517357],[-75.27577162693206,6.276869178878599],[-75.27427387017597,6.2739534984456],[-75.27523127907658,6.268815069252371],[-75.27844164144614,6.269353031279753],[-75.278790644632,6.267733671561846],[-75.27695425819648,6.2624268339578],[-75.27126718879371,6.258786279576729],[-75.27145097715493,6.255257741493214],[-75.26709710864452,6.249727344813829],[-75.26428975749812,6.250009734560837],[-75.25881299872204,6.247724966687989],[-75.25943648533138,6.2408802785026944],[-75.26146587876472,6.239085769265693],[-75.25960358845039,6.233744816285597],[-75.26244426483923,6.2301442342456435],[-75.26223469762861,6.228058676647989],[-75.25693253537993,6.224833312134646],[-75.25340232463353,6.220091116482762],[-75.25138025059762,6.21931481386921],[-75.24615377021354,6.2106133335484],[-75.24305233161701,6.208774258285012],[-75.24403690304406,6.202961333671985],[-75.24075701930323,6.199065264348613],[-75.24582508090593,6.191395471460304],[-75.24576168224706,6.187994546978444],[-75.24978644651193,6.184742408538189],[-75.25225805092656,6.184454314748398],[-75.25184129752255,6.183114429375892],[-75.25229248067427,6.18439517579922],[-75.25125679373917,6.1810210328669815],[-75.25687954758953,6.1712931051580195],[-75.25879099888326,6.172201452901793],[-75.26198390921505,6.169922623183228],[-75.26219003571309,6.168146679638194],[-75.26745002839624,6.168493414526191],[-75.25438496229015,6.165825626164019],[-75.25204423018552,6.162968747711936],[-75.2501584864181,6.157217893537851],[-75.24676005865594,6.1592889768468515],[-75.24325578374467,6.158285580107283],[-75.2406104588881,6.154984015926144],[-75.24845742212777,6.150393449595081],[-75.25476341314236,6.148758147950666],[-75.26206670680982,6.142899741620753],[-75.26876359415962,6.141119257780486],[-75.27451312276908,6.137205460307186],[-75.28090601054247,6.135515204170307],[-75.28741563887102,6.13198241686546],[-75.28826337641566,6.125885021385248],[-75.2848672104053,6.119102427896902],[-75.28413000315298,6.113378056210457],[-75.28505815844368,6.107681528013933],[-75.29146911667729,6.098227797014113],[-75.29983436077444,6.093042450647725],[-75.3178036607534,6.090795640717417],[-75.32694146143659,6.09228873613935],[-75.33792136316592,6.099103728818954],[-75.34988692439879,6.103156681064736],[-75.3635637191399,6.098617590201166],[-75.3606679173887,6.089835362882343],[-75.3612478923231,6.075608199135978],[-75.36455657348137,6.0674495611969625],[-75.36468540007058,6.062261972890793],[-75.36752930281003,6.051950639826793],[-75.37150936645436,6.044655954134307],[-75.37920321390463,6.0390963164638345],[-75.38898895107371,6.037767416985697],[-75.40277281548907,6.042850099720281]],[[-75.28691705168737,6.258334260665955],[-75.2835646497,6.258130399895623],[-75.28357587869542,6.2581493430046224],[-75.28691705168737,6.258334260665955]],[[-75.25697881900545,6.21698184874743],[-75.25185673185464,6.212327010618838],[-75.25713265629389,6.217326862760321],[-75.25697881900545,6.21698184874743]],[[-75.24943989751664,6.203081546418456],[-75.24939077647227,6.2030176531866825],[-75.24870467416268,6.207660804935304],[-75.24943989751664,6.203081546418456]],[[-75.24526166039605,6.195005978391394],[-75.244947006654,6.195919789999364],[-75.24615806189333,6.197833419438005],[-75.24526166039605,6.195005978391394]],[[-75.2505202499595,6.193792749544565],[-75.24564558119546,6.193891002670022],[-75.24550882436141,6.194288169351112],[-75.2505202499595,6.193792749544565]],[[-75.25040525670985,6.157103766487659],[-75.25028617722273,6.157158838719033],[-75.25045028176025,6.157264886285584],[-75.25040525670985,6.157103766487659]],[[-75.24315345021236,6.15763132476228],[-75.24369851047243,6.158271677945335],[-75.24378150009443,6.158285138240315],[-75.24315345021236,6.15763132476228]],[[-75.48249594998845,6.158740529369498],[-75.48740781763485,6.1611641818720715],[-75.48252412237275,6.1587441416007715],[-75.48249594998845,6.158740529369498]],[[-75.47527168779219,6.157036534870423],[-75.47506156318362,6.158654415879355],[-75.48245301233229,6.158735023951755],[-75.4759041189063,6.157895332238658],[-75.47527168779219,6.157036534870423]],[[-75.46507835971356,6.1166554647954445],[-75.47013465194598,6.117822957216948],[-75.46354506318205,6.115381341843177],[-75.46507835971356,6.1166554647954445]],[[-75.46271433659913,6.1146910332273245],[-75.46317229103987,6.115071579489604],[-75.46282491768844,6.112898477865624],[-75.46271433659913,6.1146910332273245]],[[-75.46238290570055,6.112183280933217],[-75.46272652047993,6.1122829236422],[-75.46271567635489,6.112215084858245],[-75.46238290570055,6.112183280933217]],[[-75.4593888647271,6.111315057645672],[-75.45963854293645,6.111387460273982],[-75.4587133720217,6.109028103876297],[-75.4593888647271,6.111315057645672]],[[-75.4453645456155,6.068911249511349],[-75.44661940161183,6.071100108100895],[-75.44541100318244,6.068854194560351],[-75.4453645456155,6.068911249511349]],[[-75.44797514114393,6.062208429404442],[-75.44875303217133,6.064559525011589],[-75.44883032161694,6.064466519459385],[-75.44797514114393,6.062208429404442]],[[-75.44624991232081,6.062125072683162],[-75.44646166382954,6.0621353037384615],[-75.44656849318285,6.060872726614649],[-75.44624991232081,6.062125072683162]],[[-75.44656849318285,6.060872726614649],[-75.44264469040135,6.060740615645021],[-75.44272137309159,6.059653075811075],[-75.44137794726434,6.061409810882618],[-75.44656849318285,6.060872726614649]],[[-75.3857977837224,6.056291185992804],[-75.38815502854533,6.060485414790345],[-75.38666200556345,6.057652777642266],[-75.40380936919257,6.0651519199897415],[-75.3857977837224,6.056291185992804]],[[-75.38195928452544,6.091322081578608],[-75.38048275596496,6.087328193603983],[-75.38103163815319,6.089911368984621],[-75.38195928452544,6.091322081578608]],[[-75.38689562988081,6.095139069985145],[-75.38291729338818,6.092778967745852],[-75.38375682041912,6.0940556733860305],[-75.38689562988081,6.095139069985145]],[[-75.38832295665739,6.099272084880777],[-75.38733638578964,6.099513239736185],[-75.38823201384014,6.0997503076193285],[-75.38832295665739,6.099272084880777]],[[-75.38983623349986,6.106381259897364],[-75.3910151491513,6.105534745418752],[-75.38949061953926,6.105994798670212],[-75.38983623349986,6.106381259897364]],[[-75.38816267555242,6.107829101459261],[-75.38817530342598,6.10765050459412],[-75.38812879163336,6.107665650711633],[-75.38816267555242,6.107829101459261]],[[-75.38793661115545,6.111026345431566],[-75.38798981152324,6.1102739290514725],[-75.38558659590227,6.110724895107828],[-75.38793661115545,6.111026345431566]],[[-75.38353862437152,6.11356693006862],[-75.38569132761745,6.112117637811659],[-75.3835123668905,6.113507165494686],[-75.38353862437152,6.11356693006862]],[[-75.38419972001473,6.114278440080102],[-75.38365129710358,6.113823384136705],[-75.38383877585268,6.114250103956167],[-75.38419972001473,6.114278440080102]],[[-75.38260085122997,6.114627042006734],[-75.38278007209658,6.114351136729707],[-75.38272830328631,6.114342465382744],[-75.38260085122997,6.114627042006734]],[[-75.38025482139209,6.118238686256501],[-75.38038348675587,6.118040609695927],[-75.37979574349092,6.118295294474904],[-75.38025482139209,6.118238686256501]],[[-75.35337007291083,6.123302146412468],[-75.36586591804131,6.118530166284255],[-75.35334461947886,6.123073402395083],[-75.35337007291083,6.123302146412468]],[[-75.35219072785812,6.141087415081287],[-75.35454024563509,6.133818213962521],[-75.35208800680735,6.140378751392907],[-75.35219072785812,6.141087415081287]],[[-75.35103591192606,6.144660313889519],[-75.35128250083024,6.143897389533026],[-75.34968296001922,6.1455381068570345],[-75.35103591192606,6.144660313889519]],[[-75.34912039909693,6.145903095456325],[-75.34922679298796,6.145834067275157],[-75.34758004498914,6.142267017528766],[-75.34912039909693,6.145903095456325]],[[-75.34481288369457,6.140507620343066],[-75.34474180445821,6.140545739180223],[-75.34758004498914,6.142267017528766],[-75.34481288369457,6.140507620343066]],[[-75.34038708354417,6.120025286490431],[-75.34624132862004,6.1231084666645605],[-75.34625234354141,6.123075945010152],[-75.34038708354417,6.120025286490431]],[[-75.30407548662113,6.113607098842262],[-75.30719009434041,6.111532665600635],[-75.30714567413756,6.111541161998847],[-75.30407548662113,6.113607098842262]],[[-75.30896929601602,6.118644905778303],[-75.308765917936,6.1184355434146624],[-75.30890980808805,6.119134634199464],[-75.30896929601602,6.118644905778303]],[[-75.3098273687937,6.126664657894766],[-75.30851791307758,6.122360870702615],[-75.30931948872072,6.1280167044456375],[-75.3098273687937,6.126664657894766]],[[-75.30896619564834,6.139527870158938],[-75.30730277722589,6.133598997277889],[-75.30725763509426,6.1336960210674345],[-75.30896619564834,6.139527870158938]],[[-75.30742047674948,6.144089713117249],[-75.30508380635564,6.14406055159388],[-75.30778977611038,6.144668205661738],[-75.30896619564834,6.139527870158938],[-75.30742047674948,6.144089713117249]],[[-75.30924730481202,6.148710060849391],[-75.30792753641053,6.1466806835664425],[-75.30788486223243,6.146965162078677],[-75.30924730481202,6.148710060849391]],[[-75.31162655878994,6.149922925644888],[-75.30983073270127,6.1494572648945365],[-75.31002607046938,6.149707436635023],[-75.31162655878994,6.149922925644888]],[[-75.3110364995939,6.152344631944777],[-75.31105712586078,6.152259978132388],[-75.30725809165988,6.154332132667625],[-75.3110364995939,6.152344631944777]],[[-75.29088263767983,6.155283278444025],[-75.29098062346095,6.152881153389903],[-75.29009203837224,6.156152464384941],[-75.29088263767983,6.155283278444025]],[[-75.28834553020761,6.158072577807532],[-75.28851426870744,6.157887066474119],[-75.2882397748053,6.158015106452795],[-75.28834553020761,6.158072577807532]],[[-75.28213609911008,6.155895743333159],[-75.28313215407591,6.155502893637707],[-75.28289620875766,6.155379067606368],[-75.28213609911008,6.155895743333159]],[[-75.27858984753868,6.163048782478979],[-75.28054462473264,6.156977529603405],[-75.27963323308002,6.157597037520461],[-75.27858984753868,6.163048782478979]],[[-75.38525364771237,6.055654280963419],[-75.37882495814215,6.056700826988164],[-75.3853184251742,6.0557301022479315],[-75.38525364771237,6.055654280963419]],[[-75.37302315504562,6.054485466067759],[-75.37140491610091,6.0504632988083795],[-75.37234467667113,6.054226395835429],[-75.37302315504562,6.054485466067759]],[[-75.44573707005348,6.049644618143411],[-75.44452796964427,6.054354479213762],[-75.44513352710149,6.055401645700007],[-75.44573707005348,6.049644618143411]],[[-75.47692202456888,6.197438071959105],[-75.47503701239731,6.195617178048923],[-75.47498034976113,6.195641528911438],[-75.47692202456888,6.197438071959105]],[[-75.47107071405787,6.197321701383362],[-75.46602012050977,6.195036077276403],[-75.46594602598994,6.195103590770025],[-75.47107071405787,6.197321701383362]],[[-75.38968190047527,6.212598089352276],[-75.38934081744738,6.212379481815384],[-75.38864912873566,6.2126379852524725],[-75.38968190047527,6.212598089352276]],[[-75.38015841243387,6.217049239378828],[-75.38012584513508,6.217051871854006],[-75.37856871927234,6.219220013104207],[-75.38015841243387,6.217049239378828]],[[-75.37859794680288,6.221717619155568],[-75.37928437958396,6.221968814896426],[-75.37856871927234,6.219220013104207],[-75.37859794680288,6.221717619155568]],[[-75.37999679543508,6.224705154939984],[-75.38071826351741,6.229122272376484],[-75.38092284971013,6.2282620654037935],[-75.37999679543508,6.224705154939984]],[[-75.3798115564379,6.232441410710455],[-75.38000555396097,6.232118944448128],[-75.37880421020346,6.231931888315196],[-75.3798115564379,6.232441410710455]],[[-75.37840471153886,6.231869684075283],[-75.37830703464223,6.23185447522066],[-75.37753942506814,6.233829950898448],[-75.37840471153886,6.231869684075283]],[[-75.37230106082777,6.233382429028282],[-75.37281808747923,6.233787810657809],[-75.37753942506814,6.233829950898448],[-75.37230106082777,6.233382429028282]],[[-75.37045066210554,6.231931599274781],[-75.37030942762824,6.231782074225015],[-75.37030546601324,6.231817756345532],[-75.37045066210554,6.231931599274781]],[[-75.35104475157753,6.233541357734735],[-75.3467962537905,6.233496963551425],[-75.34689971905455,6.233600060103711],[-75.35104475157753,6.233541357734735]],[[-75.34630622230902,6.233008678360092],[-75.34635544148765,6.232100158481873],[-75.3452756848281,6.231981813331889],[-75.34630622230902,6.233008678360092]],[[-75.3283916521799,6.2244987468151916],[-75.33169455767546,6.224500885995746],[-75.32743860371356,6.2247712811227185],[-75.3283916521799,6.2244987468151916]],[[-75.32781563264722,6.232690575330559],[-75.32422555417178,6.2338590705963925],[-75.32781068690676,6.232881607480026],[-75.32781563264722,6.232690575330559]],[[-75.30192046934553,6.250337533983934],[-75.30011144074464,6.256119785833343],[-75.30025276553381,6.257234001957519],[-75.30192046934553,6.250337533983934]],[[-75.29927096114207,6.261294064959288],[-75.2986715271764,6.262512331757911],[-75.29895985709184,6.26258057585157],[-75.29927096114207,6.261294064959288]],[[-75.32957193201622,6.221635458042029],[-75.32762910489505,6.223112574317208],[-75.3274980717782,6.224253488620162],[-75.32957193201622,6.221635458042029]],[[-75.32837150071624,6.219773583167151],[-75.32973580871996,6.22142858092777],[-75.32843896228562,6.219722483203499],[-75.32837150071624,6.219773583167151]],[[-75.33052143854526,6.2185411582705115],[-75.33010558328618,6.218460071532154],[-75.3287653176731,6.219475279520103],[-75.33052143854526,6.2185411582705115]],[[-75.3277104399238,6.217993047588335],[-75.32712005364664,6.2180280187855645],[-75.32827590289483,6.218103306018356],[-75.3277104399238,6.217993047588335]],[[-75.3307225743305,6.2139449525017065],[-75.33068948842804,6.213843905391242],[-75.32915865977928,6.21790726310425],[-75.3307225743305,6.2139449525017065]],[[-75.32522017024034,6.205970674996683],[-75.32194607188613,6.205733119253983],[-75.32262326077118,6.206053829332786],[-75.32522017024034,6.205970674996683]],[[-75.32714018482254,6.205909195172382],[-75.32536848805344,6.201133923518546],[-75.32494395514294,6.201208446976168],[-75.32714018482254,6.205909195172382]],[[-75.35285392860041,6.152038937721279],[-75.35151115584236,6.151357485264564],[-75.35268895348405,6.152094497164467],[-75.35285392860041,6.152038937721279]],[[-75.47377957275526,6.168525263381217],[-75.47399817160093,6.168800471461421],[-75.47429668775186,6.164543671038966],[-75.47377957275526,6.168525263381217]],[[-75.48018235961706,6.174114059820821],[-75.4794536422131,6.171534503248732],[-75.47941136520664,6.171535184555001],[-75.48018235961706,6.174114059820821]],[[-75.39282907349084,6.275600956025305],[-75.39319550150834,6.275889550745517],[-75.39324256208116,6.275634750053027],[-75.39282907349084,6.275600956025305]],[[-75.38107986825698,6.237374688464895],[-75.38639898863146,6.246563942870839],[-75.38135761269227,6.2362048502095995],[-75.38107986825698,6.237374688464895]],[[-75.39305655402698,6.279266262168286],[-75.39303828748585,6.278717846924304],[-75.39332307923465,6.279055640000984],[-75.39305655402698,6.279266262168286]],[[-75.25203879931603,6.162956610519951],[-75.25194329218782,6.162713402512026],[-75.25202159635987,6.162912801083121],[-75.25203879931603,6.162956610519951]],[[-75.25280519827112,6.163938562132475],[-75.25256512919893,6.163718391298215],[-75.25238488632996,6.163536324266553],[-75.25280519827112,6.163938562132475]],[[-75.25800745184445,6.166844397229591],[-75.25807447139879,6.166856624064119],[-75.25804711878328,6.166858190517019],[-75.25800745184445,6.166844397229591]],[[-75.26131842268965,6.167811896550224],[-75.25996352568032,6.167330121933247],[-75.26078963438668,6.1675343995172724],[-75.26131842268965,6.167811896550224]]]}}]}
