{"type":"FeatureCollection","features":[{"type":"Feature","id":1,"properties":{"layer_id":"protected_areas","name":"DRMI Cerros de San Nicolás","use":"Acuerdo 323 de 2015, Acuerdo 376 de 2018, Resolución 112-5303-2018 y Acuerdo 414 de 2021","source_id":"gis-protected_areas","provenance":"institutional","exact_site":false},"geometry":{"type":"MultiPolygon","coordinates":[[[[-75.45173886813866,6.040486615800283],[-75.45137706327918,6.041408878562815],[-75.45069856975122,6.041815297803914],[-75.45040365428235,6.043113393757245],[-75.45005481821369,6.04281117743074],[-75.45031105860447,6.04209488201534],[-75.45003916667281,6.04138162068898],[-75.44981408110223,6.041372455207341],[-75.44975166833011,6.041636676242727],[-75.44996234886386,6.042450139082339],[-75.44909017231775,6.041582854471483],[-75.44854146736209,6.041784018573981],[-75.4491223360889,6.041320444239958],[-75.44896831904403,6.041072555002086],[-75.44930734071036,6.04012778866962],[-75.44894869599233,6.040111070507412],[-75.44901765998115,6.039588859400641],[-75.45173886813866,6.040486615800283]]],[[[-75.44787295927561,6.0393215928168855],[-75.44824362114825,6.039639258324175],[-75.44809573894187,6.040120398218429],[-75.44862080536548,6.040269761817211],[-75.44820636459153,6.041206943736659],[-75.44796948919996,6.041222891709218],[-75.44812944033733,6.040410207855063],[-75.44759951682875,6.040039846049497],[-75.4474274892793,6.03932171410222],[-75.44647542610421,6.039826406427481],[-75.44621154858305,6.040358067005087],[-75.4452883868105,6.0409559679034714],[-75.44527613992155,6.041788372845965],[-75.44481004723595,6.041717789038365],[-75.44489877176464,6.0413695474912865],[-75.44469306151741,6.041317202983678],[-75.4443037531582,6.041427985765679],[-75.4441397993192,6.041790050698649],[-75.44431536470461,6.0426327292904976],[-75.4449216611047,6.043029286428867],[-75.44454707080496,6.043263644189934],[-75.44491207592364,6.044372557672798],[-75.44574143360775,6.044286276984229],[-75.44576932650189,6.043976218864749],[-75.44600707620928,6.044266472861638],[-75.44552806458859,6.045331586093458],[-75.44600811284596,6.045439446020983],[-75.44629968498123,6.045088541212756],[-75.44676760799109,6.045695855722705],[-75.44667511218512,6.046159155935221],[-75.44705393601194,6.04554013979886],[-75.44739797262785,6.046289365590015],[-75.44622783049012,6.046919943264061],[-75.44631278206677,6.046496845154497],[-75.44558188500403,6.0462116610236745],[-75.44590776283412,6.045876022482269],[-75.44518325197822,6.045184202683367],[-75.44514445704674,6.046758110857546],[-75.44541344265399,6.047544959634458],[-75.44709968421157,6.048243921900458],[-75.44808044467344,6.047743937241765],[-75.44884043035243,6.04781377543009],[-75.4495709049828,6.047551216759459],[-75.45072757071577,6.04669439425363],[-75.4494572789219,6.047972472687591],[-75.44803119002842,6.048110018451115],[-75.44804654474667,6.0487041218068285],[-75.44910042056591,6.048963610659256],[-75.44927593735511,6.048829221769196],[-75.44923697904272,6.0492984855225105],[-75.44970669254765,6.049854604650679],[-75.45127550191481,6.050408662753635],[-75.45119615641481,6.051133204009893],[-75.45095717029,6.051378608623113],[-75.45047821133308,6.051373866738836],[-75.45016040183941,6.051931498997763],[-75.44961741902615,6.05188312068655],[-75.44953216456975,6.052185669416624],[-75.44921457378142,6.051898968644038],[-75.44870032066277,6.051873478261888],[-75.44873392085465,6.051553839456139],[-75.44890232336286,6.051629953598152],[-75.44881539577685,6.0512685224303295],[-75.44853534958055,6.051642362328474],[-75.44871423983872,6.052087755611325],[-75.44810412699304,6.0527073565502825],[-75.44815354011035,6.052970932422437],[-75.44761993950699,6.052241940308488],[-75.44690464040376,6.051892138857212],[-75.44669517878313,6.052210788087156],[-75.44643946473508,6.052189904583829],[-75.44585164421285,6.053124220344876],[-75.44658771256827,6.053892874797594],[-75.44634388952865,6.053764205709817],[-75.44540968530701,6.054254503648084],[-75.44511827835271,6.053817524635798],[-75.44543592031862,6.054710089959402],[-75.44568632325081,6.054519305145581],[-75.44595918918658,6.054708770782986],[-75.44644278045162,6.054607092459136],[-75.44632620583869,6.055281894733937],[-75.44584984441695,6.055408670487666],[-75.44591172204568,6.05578523496062],[-75.44655030057368,6.056026638134634],[-75.44629683106987,6.056359832209517],[-75.44663496993002,6.05691715941751],[-75.44803395242218,6.058283312005241],[-75.44745885000394,6.058576575099525],[-75.4468762386146,6.0585102973812885],[-75.44617624389065,6.059022728884319],[-75.44522583580131,6.0592487676774445],[-75.44533020719766,6.059739975933995],[-75.44497898326966,6.05972774677912],[-75.44465578850574,6.0603171029617195],[-75.44547747599373,6.0609713618984085],[-75.44502430430083,6.060915100329736],[-75.44438433921653,6.060312048154128],[-75.44415802087792,6.060769945930558],[-75.44352508562126,6.061089827246593],[-75.44324802059853,6.061708361350125],[-75.44367214421271,6.061710281001157],[-75.44344096947677,6.06242244695564],[-75.44377575588693,6.062529238526623],[-75.44385457635359,6.062992466035977],[-75.44242702799896,6.065274078036639],[-75.4422846451729,6.064524411259804],[-75.441355223934,6.0635982241462685],[-75.44172092831423,6.063647532349217],[-75.44179692117045,6.063460774202307],[-75.44191932598152,6.063678126804248],[-75.4426074697819,6.0630412941076175],[-75.44224674768691,6.062785112135591],[-75.4419716402547,6.062846081184417],[-75.44181207618291,6.0632454478407505],[-75.44154333719202,6.062987800807742],[-75.44101586975246,6.06309965439939],[-75.44061917386541,6.063617221503473],[-75.44041402254541,6.0632528321352295],[-75.44069673165798,6.062193283806118],[-75.44055550565513,6.06185333748629],[-75.43955784493598,6.062702102530143],[-75.43882340445066,6.064339101337238],[-75.43840136292273,6.064372560038434],[-75.43746071946683,6.063188358357162],[-75.43785619375213,6.06112715807995],[-75.43804499366105,6.060482544332202],[-75.43856950126506,6.060331225555042],[-75.43933430567104,6.060762336801879],[-75.43984490170564,6.060617038036418],[-75.4395129435261,6.059528584023392],[-75.43980211048103,6.05897676830056],[-75.4393717652952,6.058112944756143],[-75.43927744306835,6.0570875422396675],[-75.43883363131185,6.056950883173815],[-75.43905404046757,6.056422201730591],[-75.43877725264203,6.055810574555905],[-75.43919582457183,6.0550288137863415],[-75.43916399544875,6.054531381054031],[-75.43868084381327,6.0539508876243655],[-75.43730401751912,6.0537323726913295],[-75.43718107029879,6.053487751328805],[-75.44054499615879,6.053364503464529],[-75.44084245869918,6.053072901938396],[-75.44084077032657,6.05239935282633],[-75.44032392921741,6.05057899360536],[-75.4404552090193,6.049892590058072],[-75.43903855446423,6.049367973691663],[-75.43862850746474,6.050259584744906],[-75.43805458726784,6.049269244884638],[-75.43744299247571,6.049047351059723],[-75.4386331196273,6.047051238643317],[-75.4397241253781,6.047346987273166],[-75.4401185583134,6.046969939135302],[-75.44085487548232,6.047185552618885],[-75.44092969040237,6.046280447798465],[-75.44058047009999,6.045623836089202],[-75.44113226269751,6.045239612271326],[-75.44126311927032,6.044571349175189],[-75.44179716584046,6.044313815191499],[-75.44124409231182,6.043779243605586],[-75.44027736288474,6.0442604033865495],[-75.43928373898311,6.044110307311884],[-75.43906217642532,6.043688162229887],[-75.43864116146833,6.044182409542081],[-75.43792830948576,6.04433846371291],[-75.43733282374889,6.043606560955695],[-75.4347571849406,6.043065270160246],[-75.43495002272783,6.042543960537482],[-75.4346509222704,6.0421773131708685],[-75.43532569277568,6.041420748118642],[-75.43554085145287,6.040816351649052],[-75.43714020593305,6.041183849439253],[-75.43844810527432,6.0412019529475085],[-75.43971301697185,6.039808666411534],[-75.44036799633162,6.040354949235095],[-75.4414498883101,6.039671783702055],[-75.44219666290651,6.039622550206806],[-75.44285481458354,6.039867740822367],[-75.44384297198287,6.039696814932573],[-75.44325788226801,6.038957545677986],[-75.44787295927561,6.0393215928168855]]],[[[-75.37310107409843,6.043127748486966],[-75.37430445651766,6.04376591997871],[-75.3743856576983,6.042746757908989],[-75.37410605527411,6.0424467568125735],[-75.37552554598244,6.0425294803474205],[-75.37587602723552,6.042812805775561],[-75.37614740305969,6.0423873477471055],[-75.37693778075943,6.042374855145927],[-75.37697832067973,6.04334301826727],[-75.37751942748945,6.044206649554628],[-75.3772399654254,6.0446897400585895],[-75.37735312995294,6.045145225165928],[-75.37677903491713,6.045401432788251],[-75.37668079220495,6.046286686197704],[-75.37620659170108,6.047075840003728],[-75.37688221404564,6.0473601972181585],[-75.37595576161692,6.048854577892135],[-75.3745173494302,6.05036454192964],[-75.3735372417894,6.050718785639941],[-75.37335911517029,6.0514809919256205],[-75.3728891132523,6.052125175579912],[-75.37300598922701,6.052419063137308],[-75.37196973272974,6.052687518519818],[-75.37203386547827,6.053722314681219],[-75.37006879908661,6.054256295177729],[-75.36946757940827,6.051849426359276],[-75.36990280368948,6.050981346729769],[-75.36990036388721,6.050410918068012],[-75.37087227863883,6.049803641034489],[-75.37096651134026,6.048696098340494],[-75.37039102113823,6.047841149801032],[-75.36968993475344,6.048431238745694],[-75.36905103937242,6.048238735309325],[-75.37124630738667,6.044945612526614],[-75.37310107409843,6.043127748486966]]]]}},{"type":"Feature","id":2,"properties":{"layer_id":"protected_areas","name":"DRMI Cuchilla Los Cedros","use":"Acuerdo 329 de 2015 y Acuerdo 411 de 2021","source_id":"gis-protected_areas","provenance":"institutional","exact_site":false},"geometry":{"type":"Polygon","coordinates":[[[-75.24939650640158,6.150038815874783],[-75.2493955497106,6.151436568962607],[-75.24873633171842,6.15218011778802],[-75.2496038582874,6.152624442154797],[-75.25032738793475,6.151994129521275],[-75.25092536666165,6.1519978837342615],[-75.25162673017024,6.151545280286262],[-75.2515890008815,6.152639130170892],[-75.25213661511349,6.153294686959073],[-75.25202401856438,6.154826543419449],[-75.25287332465547,6.154902438623264],[-75.25380146944894,6.154567750841953],[-75.25401142992115,6.153420665173478],[-75.2544731829692,6.153227881555722],[-75.25429163812228,6.153901128431178],[-75.2544300969381,6.154245982652568],[-75.2552069696599,6.154268208087416],[-75.25539922465497,6.154488788991681],[-75.25569122603166,6.154202295470288],[-75.2562005665562,6.154866844237153],[-75.2565590711692,6.154987240559366],[-75.25685245144491,6.156060025407864],[-75.25741417307351,6.156707270740786],[-75.26112568948896,6.1577436245700845],[-75.26106020595569,6.158041116202961],[-75.2613970004152,6.15821512628966],[-75.26165752847542,6.158105045869209],[-75.2616358538553,6.157749652839505],[-75.26220980285964,6.157033387297737],[-75.26361428849914,6.156375591591926],[-75.26419787001002,6.1551539749042155],[-75.26683786955557,6.154644413899568],[-75.26671420360486,6.154086324176869],[-75.26592412857362,6.153373854204858],[-75.2667702124357,6.152274893130535],[-75.26687856083218,6.1517831689144495],[-75.2657652381908,6.150789666122241],[-75.26616224829924,6.150131426726577],[-75.26600182206481,6.1499498571005695],[-75.26630649618524,6.148959983086415],[-75.26661836119348,6.148904724181737],[-75.26683241661867,6.148376724423862],[-75.2672412537689,6.148112343106604],[-75.26745660309297,6.147374043845614],[-75.26774445266243,6.147311745379716],[-75.26770884949438,6.14692069878427],[-75.26945559753547,6.146484138685052],[-75.27010971059566,6.146843707757262],[-75.27077781107077,6.147635490529489],[-75.27234834570898,6.147533717985778],[-75.27278788191403,6.1482267764464895],[-75.27326798629522,6.148201939257426],[-75.27356165138146,6.148463144826392],[-75.27379293120367,6.149015718777426],[-75.27318743014884,6.150453608374985],[-75.27329394685695,6.151058851111368],[-75.27288698446614,6.151509211181621],[-75.2732340019069,6.151671728427283],[-75.27357802969075,6.152968654475674],[-75.2747164785887,6.1532794632601355],[-75.27481171635162,6.153484362342121],[-75.27464079965297,6.153697609197948],[-75.27402925045236,6.153631169930745],[-75.27402619548678,6.154178545826326],[-75.27214547088178,6.154937581692448],[-75.27187635161964,6.155471854909277],[-75.27286360093694,6.155964528380624],[-75.2730513225195,6.156849365466581],[-75.27441807708688,6.157495093167545],[-75.27442112668632,6.157793162347623],[-75.27367068022224,6.158095074348828],[-75.27378529389712,6.158574392001291],[-75.27454104202238,6.158556499193201],[-75.27502409551498,6.15821947455406],[-75.27524742822278,6.1579051709968375],[-75.27505053983133,6.157316829610384],[-75.27563958261337,6.156777452743803],[-75.27587259077876,6.15666121012214],[-75.27607224622832,6.157019233608689],[-75.27606170425715,6.157310533979847],[-75.27546737099301,6.157620636562659],[-75.27534646077248,6.15838888129766],[-75.2750348016399,6.158381027752404],[-75.27473438374241,6.159589571852933],[-75.2755760021463,6.159720104845071],[-75.27475307493854,6.160096218658886],[-75.2746784027461,6.161391941742772],[-75.2752578351603,6.161517065747485],[-75.27571665417476,6.160773227603986],[-75.27730194248653,6.160572969345511],[-75.27743782495689,6.160732394168332],[-75.27684672956416,6.161150261966177],[-75.27640986296025,6.1622392154957115],[-75.27744940010886,6.162336308062992],[-75.27741991246238,6.163138984056076],[-75.27647414539238,6.1630788475449165],[-75.27585920373383,6.163438207765668],[-75.2748085643163,6.163511514332162],[-75.27427089861303,6.163982306135131],[-75.27471641381368,6.164832991983329],[-75.27411726223919,6.1650023491301695],[-75.27396133082514,6.165447545391504],[-75.27486324807047,6.165898088418596],[-75.27586697195676,6.165347520746536],[-75.27646049223958,6.165929512909131],[-75.27763705585919,6.166189137334009],[-75.2793874853796,6.168106380536093],[-75.28002939125963,6.169224639951424],[-75.27994761780367,6.170068671732831],[-75.28060496568442,6.170776792959281],[-75.28128284902223,6.170900830511154],[-75.28202521178012,6.170573014473423],[-75.28253562339422,6.168846135277314],[-75.28285184151581,6.168602901304055],[-75.28416446073103,6.169240270541809],[-75.28507200689381,6.170016768834451],[-75.28584862107223,6.170249266548333],[-75.28706640420923,6.169997502269741],[-75.28794325973124,6.1706729212908344],[-75.28656793008193,6.171489645382811],[-75.28527987021809,6.173441095437427],[-75.28388997741588,6.174147477263553],[-75.283542560314,6.174131601872015],[-75.28298736062473,6.173478929111582],[-75.28215172753339,6.1730169124851395],[-75.28096258778798,6.173434302067958],[-75.28018866775889,6.173259881404276],[-75.28052181456992,6.174001060318091],[-75.27983797185203,6.174298833877303],[-75.27981634437397,6.174690712103096],[-75.27939225668922,6.175131412921418],[-75.27981109078328,6.175960708256171],[-75.27966844529041,6.176357367143953],[-75.2771676344688,6.1767873883329445],[-75.2768662351774,6.1759973257844605],[-75.27702584036707,6.175589156912009],[-75.27644083195892,6.1753275860077155],[-75.2764000671281,6.173813575968254],[-75.27555769551313,6.172841886507694],[-75.27465426122126,6.171050836741444],[-75.27411393134666,6.170650873229292],[-75.27359957294611,6.170616731609214],[-75.27347926722757,6.170196406098147],[-75.27208069771619,6.171670928600887],[-75.27150854238636,6.171388821807604],[-75.27142629899326,6.170412503357584],[-75.270839012029,6.170217610689975],[-75.26869327790439,6.170988816313588],[-75.26799869748933,6.169856974775073],[-75.2664559353394,6.169682489341722],[-75.26611698506939,6.16919635574129],[-75.2655343695839,6.169560153494116],[-75.26440882058759,6.169150463428002],[-75.26262783538655,6.1690694745494845],[-75.26240667186309,6.169344936545554],[-75.26250157497765,6.169871053457715],[-75.26092330913512,6.170815674975772],[-75.26116830619696,6.171703710520079],[-75.26039954760678,6.172234989976146],[-75.2600244751063,6.1717392625470735],[-75.2596582615132,6.171929244864287],[-75.25958098428373,6.172940360280198],[-75.25872553425609,6.173268048809864],[-75.25743028956892,6.173087116457362],[-75.25716009366208,6.1742021822696875],[-75.25739840328121,6.174834725747216],[-75.25723137581782,6.175528145634411],[-75.25603940279493,6.1752024962261585],[-75.25581888203544,6.175475564783692],[-75.2554528600389,6.1752515197192315],[-75.25508305894554,6.175342625897552],[-75.25486324234996,6.176366065214928],[-75.25553752717748,6.17710539017783],[-75.25455886252277,6.177677109442021],[-75.25418517778881,6.178351827286741],[-75.25456695394855,6.179139242183632],[-75.25438344087542,6.17991303008605],[-75.25484315928023,6.18020514367466],[-75.25441554135541,6.18077853271899],[-75.25439911848805,6.18149480477879],[-75.25474499972849,6.181722510202698],[-75.25390076729671,6.182549137435575],[-75.25453722198633,6.183734471050441],[-75.25436881489463,6.184420655509745],[-75.25481890517987,6.184826837940496],[-75.25462340554101,6.185251389007739],[-75.2547196611924,6.186602634328739],[-75.25533770706568,6.186589414677075],[-75.25539437308929,6.186930724848042],[-75.25423384013538,6.187686088096397],[-75.25371227056783,6.188601448042427],[-75.25508774819963,6.190122553332873],[-75.2553096570562,6.191479431715736],[-75.25646508537989,6.1933775837037475],[-75.25548577667846,6.194551413834152],[-75.25543544782634,6.194942549744491],[-75.25614458587096,6.195789858752047],[-75.25647565140595,6.195765459874699],[-75.25667520594368,6.1962367994511105],[-75.25722355997576,6.196469945794087],[-75.25711431729789,6.196686721547216],[-75.25665863449217,6.196631065956161],[-75.25695821636734,6.197093182382152],[-75.257281910652,6.197061060663997],[-75.25768865510024,6.196588892372628],[-75.258215785924,6.197012356518122],[-75.25814083924456,6.198408165532177],[-75.2586203351698,6.198657969638295],[-75.25845894038389,6.199314124957156],[-75.25899403694785,6.199485479718696],[-75.2591133697055,6.199765277385651],[-75.25888329130214,6.2008962025010685],[-75.25968315081118,6.200953275090563],[-75.25992462357894,6.201510859044476],[-75.25961036971393,6.201931127281842],[-75.26026138787567,6.202337308033529],[-75.26041435300375,6.203168466523331],[-75.26014724204718,6.203433561339605],[-75.25863495581186,6.203261589849304],[-75.25820106110235,6.203877727944627],[-75.25771794898667,6.203681877317272],[-75.25703206205513,6.202827613516313],[-75.2566791868947,6.203257290333787],[-75.2552490669398,6.202978152659992],[-75.25471611856695,6.202595475650366],[-75.25382631119626,6.203148681750289],[-75.25312867782442,6.202486175478525],[-75.25304840420972,6.202023666598554],[-75.25265799192819,6.202135411209563],[-75.25219253599239,6.201650612202669],[-75.2517857313033,6.20178216671363],[-75.25082588546657,6.200966208133242],[-75.25086384423608,6.199256298531281],[-75.25045842851434,6.198636911103476],[-75.24808498944044,6.197648155273822],[-75.24705702904417,6.196905242283428],[-75.24646556743174,6.195983597714515],[-75.24645339663775,6.195405554991011],[-75.24736390539279,6.195352166939382],[-75.24802839371719,6.194591489111181],[-75.24871114276304,6.194694348875858],[-75.25016072589428,6.193884036013668],[-75.25021038926737,6.191898137243876],[-75.25056973422448,6.190659878553174],[-75.24986108880711,6.18932079392064],[-75.25015680793332,6.188044204380049],[-75.24986406554973,6.187548015818476],[-75.24891488724539,6.187419101476642],[-75.24770332072897,6.188264597825987],[-75.24681632872168,6.188487663804611],[-75.24741008103665,6.190030789202692],[-75.24783421798644,6.189715675280001],[-75.2480012705599,6.189820826301441],[-75.24777747302463,6.1908880679498095],[-75.24685958861684,6.191534233660824],[-75.2452860453252,6.19058788478119],[-75.24439172353638,6.190956184637068],[-75.2435127287355,6.192173501986007],[-75.24308953495927,6.19331076792782],[-75.24291803640114,6.194416780296185],[-75.24363102004457,6.194758996465182],[-75.24363344946266,6.195114825895934],[-75.24303211147564,6.195458364770561],[-75.24302773592355,6.196222829218285],[-75.24237555474637,6.196344186100822],[-75.24220051704319,6.196854473236188],[-75.24261377144944,6.1972686100504575],[-75.24323733530362,6.197046899807757],[-75.24301331018096,6.197479670127563],[-75.24411624237982,6.198202152543601],[-75.24391007986682,6.199180226772939],[-75.24438255474027,6.199132683226803],[-75.24365118108408,6.200467363766598],[-75.24481073628189,6.199960936224965],[-75.24505412570888,6.200953895707006],[-75.24529980115956,6.2010495255355185],[-75.24583239832859,6.2007673089145126],[-75.24633208304493,6.201955395142486],[-75.24748482969706,6.202920404386413],[-75.24708931936547,6.203553542275349],[-75.24725898785331,6.204778366333763],[-75.2480872076928,6.205517251806551],[-75.24903806529116,6.205770008444072],[-75.24887868975271,6.206439117585426],[-75.24911200926114,6.206621600002003],[-75.24859708462544,6.207592136348027],[-75.24881550629543,6.208241497214066],[-75.24871934638323,6.20878267398804],[-75.24926414905431,6.209152667380884],[-75.24918728400019,6.209678755194826],[-75.24896962457524,6.2099993630198576],[-75.24625766487884,6.210808447979344],[-75.24644861395393,6.212610355792345],[-75.24551290389779,6.212202329385805],[-75.2449173753361,6.211497628634934],[-75.2439760884125,6.2111453977536115],[-75.2430278163657,6.211020026727125],[-75.24201734328281,6.211606685945905],[-75.24141763417535,6.21136088011709],[-75.24134607578489,6.209039611577308],[-75.24153179746165,6.208753556781724],[-75.24290939537697,6.208137105422145],[-75.24309862956225,6.207318874410635],[-75.24373065361898,6.206320874452405],[-75.24363782971318,6.205446587741613],[-75.24167387246227,6.2059276150740335],[-75.23978391735929,6.203768101354601],[-75.23930737513052,6.20382961668884],[-75.2386269997305,6.204323191146499],[-75.23827055033583,6.204125736667452],[-75.23745506294402,6.204315780229672],[-75.23620853732426,6.203695372499656],[-75.23638118964533,6.202983666020461],[-75.23624415438621,6.202483418024297],[-75.23521175725725,6.2031478223457555],[-75.23591264514604,6.20139481841286],[-75.23742977582036,6.200749965742531],[-75.23728176409725,6.200415421273541],[-75.23788692871149,6.200017709539838],[-75.238035096347,6.199518247968615],[-75.23744122891115,6.1988748693994635],[-75.23635619400837,6.199122346185774],[-75.23631090086585,6.197971796674859],[-75.2356830424022,6.1975442162568735],[-75.23607372120945,6.196631886416446],[-75.23556037209731,6.195266910500623],[-75.23620745961091,6.194899253880892],[-75.23701739670028,6.195113171254566],[-75.23754949770685,6.194055161377433],[-75.23738502334976,6.19290735705685],[-75.23877761484056,6.192908468814439],[-75.23895518183838,6.19201284100551],[-75.23956880294301,6.191798214184614],[-75.23998186603278,6.192012305083679],[-75.24037415844782,6.191758363000418],[-75.24101996497276,6.190319111716987],[-75.24189052569128,6.189832536491826],[-75.2419626484541,6.189068334984448],[-75.24396294038678,6.187133635925297],[-75.24378690137056,6.186654601462867],[-75.24440189711763,6.186223867873995],[-75.2445814156262,6.185777681762945],[-75.24435340690565,6.1855201452550945],[-75.24362086075463,6.1854440044735295],[-75.24263442557785,6.1841662343675825],[-75.24128662712857,6.18419780624568],[-75.24045527395837,6.183487736011814],[-75.24079488567115,6.182504129664187],[-75.23970131532064,6.181692088773206],[-75.239654469312,6.180589358289676],[-75.23906955906972,6.180495512124885],[-75.23773469866688,6.181113938522678],[-75.23744533951165,6.181000463276197],[-75.23725458016314,6.180486323419519],[-75.23728942410364,6.180105807757557],[-75.23782714752745,6.179709065262972],[-75.2378547828515,6.17821728856836],[-75.23841493308599,6.17807710208062],[-75.23832164073697,6.17693064801111],[-75.2388646638579,6.176959378992167],[-75.2396779122157,6.177916371657342],[-75.24038659931469,6.177832737076336],[-75.24156614338484,6.177007694580617],[-75.24246740792019,6.176771780010926],[-75.24247068964269,6.175169789397767],[-75.24168704870594,6.174623384821536],[-75.24094415251386,6.174841391865039],[-75.24106601710584,6.174305957875446],[-75.24050042263713,6.174350049539249],[-75.24030166033873,6.173825494388649],[-75.23928818492199,6.173487196973394],[-75.23877661657185,6.172621828792117],[-75.23836094704939,6.173408524244134],[-75.23788439560477,6.173579501760753],[-75.23767122989332,6.175237371390301],[-75.23691667358725,6.17542339478318],[-75.23684020456996,6.175019214778188],[-75.23722893395524,6.174780723142882],[-75.23746108080044,6.174060566310153],[-75.23704037067937,6.17399179926924],[-75.2368096872815,6.172892512011055],[-75.23585640458933,6.172476427019385],[-75.23525853259665,6.171302162865104],[-75.23494687009348,6.17030820626656],[-75.23532754278568,6.169772224178187],[-75.23542257329036,6.168746413060741],[-75.23477957422031,6.169123928466757],[-75.23416875987378,6.168849854635355],[-75.23381893732282,6.1689671348852695],[-75.23373246996084,6.168771173241919],[-75.23417383912142,6.168494877283813],[-75.2342986317988,6.167778130458981],[-75.23395069245468,6.167584810282137],[-75.23345500244116,6.16792773641432],[-75.2330880621812,6.167875702724597],[-75.23428946170309,6.163339385394528],[-75.23597878809701,6.163917557311704],[-75.23660792915867,6.163659878861613],[-75.23684812747702,6.162972992731721],[-75.23532367090426,6.162269604479553],[-75.2353818134416,6.161913962613321],[-75.23603739458515,6.159943522024443],[-75.23845075597643,6.156892702321257],[-75.23986833837569,6.1555576366244615],[-75.24305824162876,6.153331354678649],[-75.24939650640158,6.150038815874783]]]}},{"type":"Feature","id":3,"properties":{"layer_id":"protected_areas","name":"DRMI El Capiro","use":"Acuerdo 326 de 2015 y Resolución 112-6979-2017","source_id":"gis-protected_areas","provenance":"institutional","exact_site":false},"geometry":{"type":"Polygon","coordinates":[[[-75.39336385096986,6.083588425811662],[-75.39165257700053,6.081581451772842],[-75.39009482978915,6.082233368791212],[-75.38879112759264,6.081787223387929],[-75.38812598840344,6.081203901491131],[-75.38788829507665,6.079807355031039],[-75.3876511029398,6.0795270271566615],[-75.3870087050987,6.0797194739437925],[-75.38656862485944,6.0805397767162885],[-75.38610859774091,6.0805229510834256],[-75.38544298993953,6.079484072122211],[-75.38560387050676,6.078995555850281],[-75.38501945490266,6.077742946064798],[-75.3853736960394,6.077095337874245],[-75.38522199194388,6.075899722640939],[-75.3837775951524,6.076243576913922],[-75.38326166626658,6.075949326600803],[-75.38328423888544,6.075614712194585],[-75.38414151737986,6.075364239027954],[-75.38416900438477,6.0747769936810005],[-75.38569710025196,6.074203077954516],[-75.38600681209911,6.07380749213792],[-75.38581324426967,6.073236745690965],[-75.38513881679778,6.07250193634573],[-75.38542926923195,6.072053374563998],[-75.3850723807624,6.071678170058818],[-75.38534166363549,6.070907655686225],[-75.38521461085006,6.070501233702776],[-75.3855986013617,6.070444327773887],[-75.38548002571495,6.069609008680074],[-75.38591963125869,6.069613402363343],[-75.38678522208393,6.070232530692593],[-75.3881164276769,6.0702619787395244],[-75.38838750872561,6.070498702515699],[-75.38837434635877,6.071295789145864],[-75.38938044781167,6.0713389080631055],[-75.38999582586587,6.07006575318888],[-75.38926027700629,6.069050937454497],[-75.39060376815596,6.06814711751651],[-75.3916137478643,6.069162050732542],[-75.39219333759581,6.070193097370563],[-75.39282262512714,6.070234922709831],[-75.3937346533971,6.069819384069085],[-75.39513823466493,6.070928457874298],[-75.3954507192986,6.068950423356441],[-75.39586229009505,6.06833803457737],[-75.39494302038922,6.0674615877014375],[-75.39493968864677,6.067130750546844],[-75.39551578505547,6.06591889116616],[-75.39651784561084,6.0659683035089325],[-75.3965944796881,6.064074110947251],[-75.39620907019004,6.06378323491348],[-75.39653767986988,6.063316008800219],[-75.39642148343356,6.0628943576335494],[-75.39690721869694,6.062975846010184],[-75.39762911694197,6.062718086768586],[-75.39642569724555,6.061758118294328],[-75.39641864013083,6.060804648564525],[-75.39700906318106,6.060001702475021],[-75.39721777232319,6.059274427780341],[-75.39856308330802,6.0575951232136545],[-75.398018907515,6.056839634639938],[-75.39811127806361,6.056396322097319],[-75.39835330957067,6.0563656466688265],[-75.39882628847808,6.0571739150562225],[-75.39928234140403,6.057445498491368],[-75.40004980961035,6.057095688747746],[-75.40023468256116,6.056589360304667],[-75.4011248403134,6.056631395848376],[-75.40063502130543,6.054996207817155],[-75.40111747328714,6.053073479350242],[-75.39982786913022,6.0532802926560185],[-75.39955499896404,6.052737139246057],[-75.40004751231803,6.051748413761492],[-75.40161174740439,6.0500420527671235],[-75.4021092561966,6.0512231315596186],[-75.40231245156814,6.053096987641975],[-75.40390081616405,6.053184449864237],[-75.40482483150514,6.0539221437643445],[-75.40570925459218,6.054100281063749],[-75.40497771599463,6.05590410602731],[-75.40514297094441,6.056627318716977],[-75.40712962853382,6.056605873311154],[-75.40822026085732,6.056974842814138],[-75.40917950204036,6.058074149302983],[-75.40922568848937,6.059158375049789],[-75.4101124344051,6.059496246601524],[-75.4110170801753,6.059351001040772],[-75.41014455521191,6.059956926028241],[-75.41089832271754,6.060447106120414],[-75.41197202487056,6.0606947907423745],[-75.4119626323833,6.061375169409081],[-75.41137118967443,6.061729447163591],[-75.41111539886136,6.0623448031421665],[-75.41098018741091,6.0646406626703815],[-75.41115094970252,6.065009834494947],[-75.4120775591985,6.065413561256059],[-75.41184027647701,6.066877003130734],[-75.4127534954557,6.067053823090882],[-75.41227187851094,6.067641060499725],[-75.41134612303138,6.067678641823373],[-75.4109776495359,6.068232793505521],[-75.41011024671933,6.067131651468633],[-75.40898425451282,6.066742808276695],[-75.40844630311027,6.067481205465615],[-75.4074954561947,6.067862365269503],[-75.40696222064898,6.068416262353619],[-75.4054271720321,6.06859774605331],[-75.40489209825135,6.069122451694441],[-75.40407156333,6.069345059513972],[-75.40374709160494,6.07009331300582],[-75.40295504242712,6.07037019229899],[-75.40158731417645,6.0729404654130015],[-75.40085226976687,6.0732055708080654],[-75.40102970599503,6.074050248940043],[-75.40219888060818,6.075525123117735],[-75.40155696090076,6.076266194098854],[-75.4010479472153,6.07539067072552],[-75.40014607687559,6.075907989399246],[-75.40093657752003,6.078318704815612],[-75.40012680455766,6.078596361056838],[-75.4002867834843,6.079776383284921],[-75.39963413086579,6.080262856977491],[-75.399449003107,6.081283100205262],[-75.39898621698406,6.081556603305772],[-75.39791671008385,6.081146253067262],[-75.39759797901141,6.081698811719873],[-75.39600135520188,6.082254500507679],[-75.395291502593,6.083071115908586],[-75.394668415416,6.085235548751183],[-75.39401005242793,6.0847833644811296],[-75.39336385096986,6.083588425811662]]]}},{"type":"Feature","id":4,"properties":{"layer_id":"protected_areas","name":"DRMI La Selva","use":"Acuerdo 192 de 2007, Acuerdo 314 de 2014 y Resolución 112-0477-2019","source_id":"gis-protected_areas","provenance":"institutional","exact_site":false},"geometry":{"type":"Polygon","coordinates":[[[-75.4180368927827,6.138574165144409],[-75.41545796421667,6.138410268204262],[-75.41591100221906,6.135241918838356],[-75.41525669415971,6.134379174307344],[-75.41527119754997,6.1334971451401294],[-75.41403169873725,6.132464147501549],[-75.4138302816557,6.1317285800677634],[-75.41274132360279,6.129940521937449],[-75.4150658415121,6.128187821252576],[-75.41695932652289,6.132428443421404],[-75.41783474630246,6.133396870927191],[-75.41873032674087,6.132594269535779],[-75.42066776747984,6.132148036722344],[-75.42111978138344,6.1326818502335465],[-75.42106760481897,6.133274946070329],[-75.42163438624742,6.133708753796097],[-75.4204528700818,6.140030385912034],[-75.41977718656618,6.141242909804864],[-75.41948511634963,6.143375565696333],[-75.41832446242678,6.1433484055269085],[-75.4180368927827,6.138574165144409]]]}},{"type":"Feature","id":5,"properties":{"layer_id":"protected_areas","name":"DRMI Sistema Viaho Guayabal","use":"Acuerdo 331 de 2015 y Resolución 112-1588-2018","source_id":"gis-protected_areas","provenance":"institutional","exact_site":false},"geometry":{"type":"Polygon","coordinates":[[[-75.30706424722422,6.091574973809429],[-75.30771657845361,6.092543806085797],[-75.30772538627788,6.092909291048615],[-75.30732327508672,6.093824256596638],[-75.30650672168144,6.094521979745458],[-75.30484055543354,6.093223329636828],[-75.30415381060287,6.093875517339324],[-75.30436875646744,6.09479805423299],[-75.30350962249827,6.0943266796256985],[-75.30354712936314,6.09400606627798],[-75.3030105863008,6.093452339965264],[-75.30313648764727,6.094174439856079],[-75.3028264166393,6.094433481596001],[-75.3033061094965,6.095207401314585],[-75.3027131568722,6.095070012434545],[-75.30249677300509,6.094491638753901],[-75.3019898417939,6.094809277255083],[-75.30188728051816,6.094390605005671],[-75.3015901777232,6.0942656692695545],[-75.2999951343003,6.096231165294004],[-75.29892870597327,6.09608550298436],[-75.2986305721819,6.094977417545196],[-75.29874972672663,6.094319758483713],[-75.29754969393622,6.094649768011467],[-75.29785437219421,6.094118050913763],[-75.29751011368445,6.09417793336499],[-75.29795808140406,6.093911199070736],[-75.30179030644578,6.092372059247895],[-75.30380501352454,6.091907189927539],[-75.30706424722422,6.091574973809429]]]}},{"type":"Feature","id":6,"properties":{"layer_id":"protected_areas","name":"RFPN del Río Nare","use":"Resolución MADS 1510 de 2010 y Acuerdo 243 de 2010","source_id":"gis-protected_areas","provenance":"institutional","exact_site":false},"geometry":{"type":"MultiPolygon","coordinates":[[[[-75.49926793000549,6.163377069553414],[-75.49782862822859,6.163447730354881],[-75.49706104988506,6.162581009179994],[-75.49739427754598,6.161439063692262],[-75.49926793000549,6.163377069553414]]],[[[-75.49496302945134,6.159750290793797],[-75.49451845020432,6.15997732870623],[-75.49359508907044,6.159689389221702],[-75.49250350826412,6.159802299185113],[-75.49081511082429,6.159324611457415],[-75.49061064836195,6.158512881142663],[-75.48935823975334,6.158288999971684],[-75.48869797934577,6.158991161726858],[-75.48838493864734,6.159868671255697],[-75.48684950899718,6.161253690157315],[-75.48773746971375,6.161224441259132],[-75.48982802892313,6.162867400837478],[-75.49010854085259,6.1634947806756655],[-75.49203172072828,6.164365189557344],[-75.49190513890787,6.165687999048978],[-75.49211876968802,6.1661693900102],[-75.49187367857925,6.166746431362973],[-75.49107210972583,6.167370811594617],[-75.48978654974185,6.1663821509777845],[-75.48807738012191,6.1655135713110125],[-75.48529084822653,6.1647108900475605],[-75.48379210934647,6.16491129040501],[-75.48215869114247,6.165914851219203],[-75.48193731074569,6.165202769490924],[-75.48077841081606,6.1660191399683],[-75.47903002028593,6.166303380389344],[-75.4778908987889,6.166937499301886],[-75.47703328928424,6.165994818324303],[-75.47637817885006,6.166471108617884],[-75.47621817905933,6.167049499807671],[-75.47662647046792,6.167535499880493],[-75.47881706001478,6.168803700525799],[-75.47860563873779,6.1691828200115335],[-75.47781695821288,6.169590470215263],[-75.47848909928601,6.169624940602611],[-75.47795853920259,6.17141743026578],[-75.47814523840675,6.17162670128585],[-75.47942621068343,6.171508961180606],[-75.48003820123185,6.172490400582559],[-75.47989693998886,6.1733016094573205],[-75.48006343929012,6.17391108991654],[-75.4817773095043,6.174790800579676],[-75.4813950490473,6.175902379543378],[-75.4831071909245,6.177537129411773],[-75.48247412871632,6.177284411097999],[-75.48200836787362,6.177386091245686],[-75.48143649081288,6.178033398725326],[-75.48161030938093,6.178700439554748],[-75.48369711120857,6.1788597996103185],[-75.48406154962849,6.179101239382823],[-75.48416362438326,6.178958805065913],[-75.48511722975282,6.180192183969188],[-75.4851278597946,6.181562936883601],[-75.48418178997274,6.182060930258177],[-75.48373366093254,6.182812515081115],[-75.48294140536431,6.1828308325173476],[-75.48247973456375,6.183187499505597],[-75.4822183026182,6.184004907449314],[-75.4814712157041,6.184524819346623],[-75.48121410633827,6.184997782734427],[-75.4830942111349,6.186697577089028],[-75.48294198426875,6.187540190664394],[-75.48400488068961,6.188286982069566],[-75.48415839146325,6.189571029615448],[-75.48459095060062,6.190677491267744],[-75.48531340108705,6.191667639972479],[-75.48536538943964,6.192349170356492],[-75.48495363051454,6.19314289895601],[-75.4839645796226,6.1940462906145335],[-75.48384461943446,6.194880350193307],[-75.48354377879747,6.194886939346144],[-75.48348291818284,6.195191949839593],[-75.48302913928858,6.195491040442941],[-75.48217551058526,6.195335431359833],[-75.48163673014501,6.1949422012443645],[-75.48129821942801,6.194361880576376],[-75.4814937212286,6.192805370844147],[-75.48093775957734,6.192859309594125],[-75.48036270105503,6.192301130767661],[-75.47882777953497,6.192082739366728],[-75.47645060053047,6.193308830683886],[-75.47726799055273,6.194078300853129],[-75.47720491952788,6.194630988797708],[-75.47817522850931,6.195291559552122],[-75.47909303954447,6.195558830630983],[-75.47832979043602,6.197053349579748],[-75.47855975885231,6.197253651273745],[-75.4780666798366,6.197759699020354],[-75.47693980882107,6.197535989434964],[-75.47682669015195,6.1986693382484],[-75.4768742443919,6.199346041474173],[-75.47779694198894,6.20115161432094],[-75.47878247950422,6.201442260320538],[-75.47756328063899,6.20273562989859],[-75.4768452181618,6.204592410532991],[-75.47650739924015,6.204165239135434],[-75.47568678005571,6.204746190549241],[-75.47522108990464,6.204544950915471],[-75.47526319044633,6.204137549702289],[-75.47247490013855,6.205039319082024],[-75.47113522890379,6.204631750624103],[-75.47139899021319,6.205094320744882],[-75.4711494598272,6.206027730608017],[-75.4702674013273,6.205738229312819],[-75.469529059964,6.207174891006631],[-75.46858493827256,6.207027519989726],[-75.46893858927919,6.207732271491787],[-75.46981491113331,6.208039249245949],[-75.46929162904868,6.2083457302738365],[-75.46897592023733,6.208950970003373],[-75.46931152884069,6.209150979971828],[-75.47031942765383,6.2090327994775585],[-75.47108561970687,6.210437960867629],[-75.47066350825881,6.2111394489709575],[-75.47020330895351,6.211246710113257],[-75.4693537983181,6.210982969958934],[-75.46857617953485,6.211381908730397],[-75.46794623050022,6.210966030371489],[-75.46737605890318,6.211286841110733],[-75.4670075105515,6.211041048756002],[-75.46743260993617,6.211600068383523],[-75.46707267080367,6.212315680770554],[-75.46602613083621,6.212431758607213],[-75.4645995289168,6.212206070064622],[-75.4641117399725,6.21308094082673],[-75.46450601958088,6.213779058936376],[-75.46441012862005,6.214110949065568],[-75.46498306964594,6.216259490228183],[-75.46257322990502,6.217423481089041],[-75.46177509001448,6.2184445988875385],[-75.46173406909146,6.218890120667256],[-75.46328966976908,6.219733030873866],[-75.46196520056176,6.22263361005086],[-75.46184430959245,6.2233869396724835],[-75.46111804997797,6.224239390999328],[-75.46048061080701,6.22656162896696],[-75.46245903046608,6.2273116200440395],[-75.46203281827047,6.227801860656464],[-75.46222346011561,6.22806644903101],[-75.46194497894304,6.2284672101985405],[-75.46198295096431,6.2290143387148635],[-75.46164855981993,6.2293511815326195],[-75.46099376775325,6.229412749135818],[-75.4599587902297,6.2291268905903205],[-75.46013183910836,6.229464869118146],[-75.45989815786626,6.230190160686593],[-75.45872306870073,6.230245850195587],[-75.45818191003976,6.230989579593371],[-75.45780622985714,6.231080109655762],[-75.45872729966372,6.23190335031343],[-75.45858304862091,6.232154040862165],[-75.4581706597285,6.231922960222243],[-75.45786144877675,6.232514910668665],[-75.45924542875326,6.233821510718137],[-75.45959006890261,6.234697731541062],[-75.45995112062839,6.234807569459601],[-75.46004380058585,6.2353014101970246],[-75.46062550926386,6.235308220752222],[-75.46080369095368,6.234942170531947],[-75.46104113864752,6.235184959253911],[-75.463144188845,6.23534210027224],[-75.4629825304582,6.236321859203425],[-75.46429964077984,6.2368331707167215],[-75.46494476887524,6.237984959058097],[-75.46437753943849,6.238455389200002],[-75.46432769938224,6.239431181459905],[-75.4641500888108,6.239497061025234],[-75.4631772100008,6.239658370417044],[-75.46109912042543,6.239376019206543],[-75.46105867881909,6.240181901262634],[-75.46069193911539,6.2406057589897035],[-75.46202587097349,6.2406328409558665],[-75.46148547920913,6.242216461409458],[-75.46346663134571,6.241800479081623],[-75.46358684961174,6.240609670371496],[-75.46445803944796,6.240154409333269],[-75.46613849015452,6.238402871579125],[-75.46925273977095,6.234407000524462],[-75.47115671854841,6.236214590444917],[-75.47289399139267,6.236917250175955],[-75.47357837937189,6.239237810377637],[-75.47446613089845,6.240524820721741],[-75.47667008900225,6.23968799085327],[-75.47650926941864,6.239213650812011],[-75.47816399904909,6.238104370678178],[-75.47829312915569,6.238283459094769],[-75.47853162945671,6.237772541039642],[-75.4805956784572,6.23900746818985],[-75.48034125006085,6.2397656606313445],[-75.47995994831659,6.239677840944275],[-75.4799921598259,6.240043909154741],[-75.47933568922903,6.2410809596088255],[-75.48045420893813,6.2413397989422705],[-75.48097986946115,6.241178910225064],[-75.4814340589316,6.241542910891553],[-75.48141482905861,6.244056668850555],[-75.48189149034721,6.246274740032925],[-75.48290190916629,6.245865749202294],[-75.48367067878509,6.245048181503342],[-75.48381166085052,6.24550374010582],[-75.48455541143325,6.245859980416884],[-75.48520324860655,6.246774760507265],[-75.4857242404333,6.246273571314913],[-75.48668792855287,6.246677879541634],[-75.48733985800865,6.2455591601391545],[-75.48707077855393,6.245077079509553],[-75.48532213107944,6.243572361000076],[-75.484259810808,6.240930759881982],[-75.48382925881371,6.240470081081217],[-75.48446862848445,6.240116999480656],[-75.48507330942927,6.238410630669996],[-75.48534201815913,6.2382905698640965],[-75.48530074905712,6.2390874107591054],[-75.48599778974516,6.23916389939751],[-75.48637852898591,6.238781098640712],[-75.48688907946796,6.237475012122354],[-75.48617301051067,6.2369896607714095],[-75.48564243970195,6.2370361510102015],[-75.48498630987177,6.236410330585445],[-75.48474473144812,6.235577050162127],[-75.48326431145102,6.23468533910142],[-75.48284974033206,6.234096360443573],[-75.48231788842342,6.23273966143422],[-75.482863499219,6.231599490870569],[-75.48308119885152,6.23168617893614],[-75.48292580887171,6.231857679761308],[-75.48395433964815,6.232167700701542],[-75.48429656984793,6.231081911132728],[-75.48449201888816,6.231415928879293],[-75.48510907030706,6.231519930564678],[-75.48963883062129,6.229494840230309],[-75.48991649988606,6.229684021089395],[-75.49080195995224,6.2294711413778385],[-75.4917909305904,6.228741231274065],[-75.49360445944608,6.232381380717689],[-75.49474224050238,6.233119839663453],[-75.49515969996348,6.233753050865793],[-75.49441641930588,6.235824279938653],[-75.49487127896342,6.236123568975818],[-75.49516378853417,6.23690700028889],[-75.49388305941143,6.238654530186991],[-75.49387589966398,6.240177149293024],[-75.49353713053253,6.240933189839444],[-75.49406921984338,6.2409777195635545],[-75.49419430062453,6.2421855787159375],[-75.49454159923667,6.242208411314252],[-75.49506824940549,6.241414950557153],[-75.49537863919393,6.241369961714613],[-75.49637701006505,6.2425271689581],[-75.49726408957731,6.242761810516351],[-75.49753599871721,6.243192809753863],[-75.49762034995435,6.244429439741504],[-75.49821171017187,6.244239698866217],[-75.49813547980013,6.243134240748978],[-75.49829036967519,6.242965190524037],[-75.49848959902928,6.243096900037229],[-75.4991148787811,6.241599629341652],[-75.49948989008192,6.238423749713975],[-75.50024278013139,6.237465270270649],[-75.49920857029844,6.23664749942274],[-75.50051493977995,6.235304399850291],[-75.50076076045015,6.234369290719433],[-75.50129230848849,6.2346143198934225],[-75.50181751792866,6.2344171100720445],[-75.50327396025334,6.2348040808360485],[-75.50305284069681,6.235188059896705],[-75.50297982910836,6.238072178971311],[-75.5033118112674,6.237995080092792],[-75.50301430995962,6.238809611371385],[-75.50236678981616,6.239234670263418],[-75.50293223970291,6.239417829690627],[-75.50339542132357,6.239924928855645],[-75.50564924827151,6.2428780392152],[-75.50351840611626,6.244703707778326],[-75.50662353038132,6.2509031362116065],[-75.50623336043799,6.250610030655655],[-75.5059280404367,6.251048531080679],[-75.50563745892954,6.251841959151643],[-75.50569458000237,6.252589630898846],[-75.50644902854734,6.252673740476762],[-75.5075218101196,6.253356729764198],[-75.50772177638694,6.25309580128161],[-75.50852302040867,6.254695497315105],[-75.51090743570288,6.256850159063083],[-75.5121424669405,6.258312073134662],[-75.51323211628697,6.259885337007099],[-75.51493678345828,6.263307405797312],[-75.51595914678208,6.266991319233334],[-75.51620177230073,6.268889641589597],[-75.51613882370837,6.272712269278065],[-75.51538612747221,6.276313577207215],[-75.51793013295813,6.2799304212923905],[-75.51886201926965,6.281669121530303],[-75.51961808573547,6.283491168213072],[-75.52057511893788,6.287313757736044],[-75.52068394067996,6.292048194832867],[-75.52091290441251,6.293170158701844],[-75.5192501598237,6.297266826954994],[-75.51800589398549,6.2987063938078505],[-75.51697776995155,6.299228249656905],[-75.51633496365928,6.299904321904962],[-75.51520396023767,6.300190606371517],[-75.514071914286,6.301235011779212],[-75.51272965165802,6.300379820046431],[-75.5096581760558,6.299031695853041],[-75.50667760409905,6.298731546225929],[-75.50449271032443,6.296785788714848],[-75.50439254045692,6.296295609047123],[-75.50389881098235,6.296129240644545],[-75.50306202882338,6.296366280041903],[-75.50285990182766,6.296962188298599],[-75.50227424872435,6.297091829691464],[-75.50158940927297,6.297613078450939],[-75.50131505701151,6.2974300205213645],[-75.50133444792422,6.2969274190390765],[-75.4947475187066,6.298404455424672],[-75.49398468972629,6.2983716608739275],[-75.49350732330005,6.297891962851944],[-75.49319681602313,6.29537605822877],[-75.49242980089059,6.294755299995793],[-75.49049692066312,6.295088830811812],[-75.49002642973237,6.294935111734565],[-75.48989826837483,6.2940674602377875],[-75.49026173003818,6.293199371372247],[-75.48964608903762,6.292400099601138],[-75.48930097173768,6.2922355207418885],[-75.48851228904005,6.292362029827065],[-75.48734235917854,6.291619940465434],[-75.48681438885282,6.292292030217976],[-75.48695918983088,6.292657869010715],[-75.48740254980686,6.292661830059805],[-75.4869321595317,6.293880930542424],[-75.48567449046782,6.2918383907204705],[-75.48467179007041,6.291358110845023],[-75.48396745028737,6.2904238104127845],[-75.48406054130986,6.289703128081413],[-75.48491170939367,6.28899850107572],[-75.48537065996706,6.288271370034142],[-75.48423854929271,6.286330200593271],[-75.48416262819781,6.285195260534372],[-75.48372662935168,6.2844773809941135],[-75.48387223862044,6.284087370664577],[-75.48416880994127,6.283817700525119],[-75.48685752029654,6.2838005701502455],[-75.48737233043258,6.284653819244005],[-75.48779544981518,6.284722539854459],[-75.4880111908856,6.284230641149299],[-75.4876557106483,6.2830718488445205],[-75.48910859038527,6.282961550027903],[-75.48956949870316,6.28208085011617],[-75.49033512979351,6.28271385110961],[-75.4903228305962,6.283058538968135],[-75.48941967909686,6.2830312804531205],[-75.4894052805865,6.28366655098358],[-75.4884422187466,6.285200140718596],[-75.48990571816827,6.285613530108507],[-75.48882494997177,6.286350750876424],[-75.49024541937715,6.287647711316484],[-75.49113879867961,6.286787409884388],[-75.4908323587041,6.2855377815476485],[-75.49195354845939,6.285091769372949],[-75.49176215020859,6.283739649507943],[-75.49141829843474,6.283123989218094],[-75.49237736058159,6.283180719458702],[-75.49272895959564,6.28105008974929],[-75.49238963923747,6.279858810532058],[-75.49191697071052,6.279608940824842],[-75.49151696935787,6.279823850568725],[-75.49110642069522,6.27959450926612],[-75.4907548002169,6.28071703981463],[-75.49017823882322,6.280813530343553],[-75.48999520991016,6.280796820568441],[-75.48963744063015,6.279698311524516],[-75.48875543910043,6.279129530014086],[-75.48820463980917,6.279060799954566],[-75.48820390128827,6.279630281883912],[-75.48804873126433,6.279404538402552],[-75.48774651074825,6.279491008758857],[-75.48683211946417,6.2791163501134255],[-75.48600748801574,6.279177980783134],[-75.48554444899061,6.278527639805093],[-75.48396650994772,6.279041160889571],[-75.48381564975347,6.277663798821541],[-75.48392962832187,6.277926288437303],[-75.48433082035767,6.277926351387699],[-75.48468563987863,6.277773338495336],[-75.48468570112273,6.27741162985409],[-75.48536438009992,6.277297791006995],[-75.48381189850953,6.277173990067082],[-75.48163598003353,6.274414720722637],[-75.48196323963658,6.274164710704093],[-75.4834786682285,6.274291849318235],[-75.48372520071943,6.273867349874757],[-75.48444355058167,6.273635690533022],[-75.48403341925065,6.272285579370742],[-75.48448571838789,6.271578899385913],[-75.48419017849042,6.271406610349336],[-75.48325036993195,6.271516341073337],[-75.482420108119,6.270376629916398],[-75.4832330807676,6.269742711316358],[-75.48320807942356,6.2691370601277985],[-75.48353987152458,6.26883169068904],[-75.48419787897147,6.268801829850157],[-75.48417635955445,6.269099948543918],[-75.48446016879495,6.269134699397925],[-75.48541984986873,6.268849100286566],[-75.4847323092912,6.267669370256831],[-75.48433753943335,6.267583549002704],[-75.48397395902434,6.266664921113542],[-75.48341473040273,6.266220190004683],[-75.48589198966872,6.263333810085727],[-75.48610096884151,6.262024099298301],[-75.48600257085428,6.261894739835475],[-75.48558665837734,6.262188020013338],[-75.48507970918668,6.261451491525557],[-75.48553885136518,6.260381601012232],[-75.48440520987229,6.261089719670244],[-75.48418556944002,6.260961309819538],[-75.48430807852803,6.260641091220285],[-75.48379959842053,6.260444290659741],[-75.48352562829345,6.260700089372337],[-75.48368756048136,6.259928068518671],[-75.48291721126782,6.260250179185676],[-75.48266411966213,6.259429020872256],[-75.4816104689109,6.258405831151053],[-75.48154051124848,6.257758389795059],[-75.47955989001966,6.256973621293659],[-75.47947571933973,6.255474689149622],[-75.47909521005748,6.2549954805950945],[-75.47953149952271,6.2539801295403725],[-75.47891711071733,6.252603490252639],[-75.4790503592826,6.25186460859948],[-75.4787794391614,6.251696188866278],[-75.48002245898778,6.250046878748042],[-75.48054450903606,6.248941589800675],[-75.48044662028774,6.248693420615712],[-75.47898940907488,6.248425220816524],[-75.47622105924007,6.248821639861535],[-75.47572917080718,6.248395498930552],[-75.47475330985945,6.2489701106293065],[-75.474084440509,6.248570329690814],[-75.47348056077705,6.248854509689658],[-75.47241898936609,6.250362979594561],[-75.47170333039236,6.250667408742408],[-75.4717761095716,6.251038711647912],[-75.46980164039817,6.2502628001094855],[-75.46963777019603,6.250436509662808],[-75.46743091860787,6.249700430291318],[-75.46759371916946,6.250976339621007],[-75.46680880058935,6.252415749935106],[-75.4673798094129,6.253445140582489],[-75.46837786006985,6.253270739160326],[-75.46905267105177,6.2537445006377],[-75.46976240109606,6.252937789546885],[-75.47064381905543,6.2524160006434],[-75.47084402993927,6.253234000065511],[-75.4685467792767,6.255282419989673],[-75.46800998906468,6.255351999966079],[-75.4675122510383,6.255122870942562],[-75.46710095076216,6.255807859970907],[-75.4665547207678,6.255320569277865],[-75.466021280704,6.255570478452224],[-75.46644387149966,6.256603920773797],[-75.46679000932427,6.2565383388347895],[-75.46758519069853,6.258146891192289],[-75.46792910994043,6.2580230110838455],[-75.46757361059808,6.258934619795968],[-75.46695069041931,6.259097790669276],[-75.46585713080786,6.260299088781698],[-75.46525727017023,6.2600583213741645],[-75.46540982033147,6.260731111529265],[-75.46380278042432,6.260686751787924],[-75.46385881103843,6.261140160739192],[-75.46327752019953,6.262220130497774],[-75.46353976955965,6.262427950646056],[-75.46469956881461,6.261869900187288],[-75.46589646907304,6.261913980251206],[-75.46661227841376,6.261584941715469],[-75.4666724184447,6.261739120464261],[-75.46645507956976,6.2620437009326],[-75.46662496051052,6.262347060281838],[-75.46630387889769,6.262558350777748],[-75.46600058910508,6.262422419091614],[-75.46587120855258,6.262670549725798],[-75.46549807968414,6.262471080531717],[-75.46505479045149,6.263270639543082],[-75.46471579871033,6.263438258556758],[-75.46413467027948,6.263404670659799],[-75.46357625877073,6.262709448780658],[-75.4628064184706,6.2628697707399406],[-75.46177052954378,6.262674480260767],[-75.4616108983789,6.261994040747321],[-75.460586549586,6.261125681026525],[-75.46114656998928,6.260539471962812],[-75.46000143094001,6.259528750996148],[-75.45851715083506,6.261686000229382],[-75.45571813006858,6.260760000773987],[-75.45555142911259,6.259493300826762],[-75.45366258859846,6.259720629464945],[-75.45273362976802,6.2592543989543135],[-75.45219107936565,6.258085229715616],[-75.4509081376694,6.257305279721055],[-75.45020072987904,6.256134839252733],[-75.45015198108963,6.255058339216104],[-75.45049845947294,6.254303569765647],[-75.45077030910734,6.25148560979389],[-75.45176085010779,6.250544771944305],[-75.45275114953407,6.247651750886038],[-75.45230620986158,6.246078079857944],[-75.45293635086637,6.245806941577076],[-75.45411514092415,6.246072738905519],[-75.45392757818058,6.24520494966152],[-75.45218324896807,6.245158981531025],[-75.45210507901457,6.244037220260707],[-75.45307831986925,6.243872370984517],[-75.45247176141658,6.242943048798138],[-75.45214225082762,6.243525638553333],[-75.45206768926187,6.242873909256057],[-75.45250222059202,6.242401340769086],[-75.45260853777428,6.241608729767585],[-75.45230157080496,6.238493038804513],[-75.45248030896771,6.237837900878343],[-75.45196793956612,6.237256570617027],[-75.45161693087955,6.235270480914706],[-75.45199525984566,6.23332862052934],[-75.45183256831429,6.232555560835741],[-75.45300128963909,6.231446511156178],[-75.45252641837743,6.231060539914754],[-75.45253531954462,6.230794190126409],[-75.45330341036869,6.230466959334983],[-75.45285382036788,6.230160639205237],[-75.45236618955846,6.230569980080758],[-75.45209259057746,6.230238221720154],[-75.45213429952518,6.229296020752656],[-75.45137696051013,6.226932259276185],[-75.4521255994962,6.225680639111588],[-75.45250844009976,6.221355880354802],[-75.45418929967936,6.220107169820766],[-75.4539717395046,6.219321409228078],[-75.45417613025894,6.218937691461017],[-75.45403043030745,6.217925538700202],[-75.45482796091248,6.217156899646988],[-75.45523605985919,6.217048790464711],[-75.45540009864034,6.217331480955663],[-75.45560072785946,6.216285459107799],[-75.45458993881736,6.2160626488864565],[-75.45451474041572,6.215377668417996],[-75.4555956110596,6.215124039442684],[-75.4566499894287,6.215242631824742],[-75.4564460987656,6.212894761504669],[-75.45530152018753,6.212915061248611],[-75.4546606789474,6.213617660753183],[-75.45435534019862,6.213529479654963],[-75.45497947014333,6.2100802398194155],[-75.45507737938547,6.207457839987946],[-75.45581842910288,6.206734179149802],[-75.45547059905336,6.205816420072694],[-75.45440507943671,6.2047420802318936],[-75.45428740988865,6.204171519609608],[-75.45435386868924,6.203926490363773],[-75.45548552855985,6.20448263079538],[-75.45733344035897,6.204787390036965],[-75.45832037886983,6.204607711055239],[-75.4582308505824,6.204081569756225],[-75.45902303099116,6.203310608536531],[-75.45911443893324,6.202831621458278],[-75.45817132849567,6.202072138725954],[-75.45754339972305,6.202582679645528],[-75.45488117867765,6.201343789816822],[-75.45419586881442,6.199296330290364],[-75.45487973921996,6.199418039942409],[-75.45549015878139,6.199020099628765],[-75.45619656840675,6.19973619948009],[-75.45658625081813,6.199775019801197],[-75.45895704837584,6.198536359954895],[-75.45988799954965,6.198413490110448],[-75.46083018833879,6.198951639264785],[-75.46344812016407,6.197733521449704],[-75.46527300834906,6.200330180858758],[-75.4660788111849,6.200209018355834],[-75.46679259925087,6.20046336076958],[-75.4672165686603,6.200406290271128],[-75.46725961042056,6.19953657917741],[-75.46658878950178,6.199561081592377],[-75.46637845058883,6.199343610435333],[-75.46724720935218,6.198829031065487],[-75.46729585099023,6.1983294219643295],[-75.46682627941665,6.197570301928993],[-75.46752925086759,6.197015961346973],[-75.4677970406014,6.196087110876144],[-75.46862812060346,6.196133310165217],[-75.46950811061342,6.1966512804462175],[-75.46977722014758,6.197119950761335],[-75.47096999872151,6.197570960587515],[-75.47236037844972,6.196915039422026],[-75.4726513098771,6.197335100005394],[-75.4734694086247,6.196804301022678],[-75.473742958622,6.197011209604542],[-75.47396252041034,6.196710649842811],[-75.47428841902239,6.196859348171227],[-75.47436247854596,6.195522679507689],[-75.47346375846561,6.195585500780796],[-75.47218066043958,6.196401520361571],[-75.4719179907942,6.195803650960664],[-75.47129350104186,6.195732510895124],[-75.47107432833106,6.1949788507987416],[-75.47112131926238,6.19375649919383],[-75.46924344897823,6.1930423503492245],[-75.46878697061916,6.191354110465241],[-75.46848572902975,6.191313041052731],[-75.46834249975142,6.190919958420321],[-75.46797672998271,6.190886371485553],[-75.46783543905809,6.190083539255897],[-75.46797746041031,6.189556959949411],[-75.46889537050245,6.188705451578487],[-75.46833236949037,6.188180720383429],[-75.46854318972733,6.187688049325795],[-75.47000000914868,6.186871680143235],[-75.47001716038855,6.18599183161178],[-75.46899175013122,6.185425580117396],[-75.46962394894834,6.184819660351746],[-75.47051881890587,6.184758721300064],[-75.4710555112548,6.185276349889336],[-75.47138381852666,6.186070780558618],[-75.47194231958001,6.1848878803152],[-75.4722179788917,6.1851705810172035],[-75.47189377077459,6.185501380828789],[-75.47202095012564,6.186154020765257],[-75.47238008024978,6.185943799625195],[-75.47239105915548,6.1853416197833315],[-75.47285303055565,6.185352978584792],[-75.47302522982734,6.1856628593077385],[-75.47441338921023,6.185141440618925],[-75.4747220289173,6.184814148315029],[-75.47288072959687,6.181812968976392],[-75.47229673045332,6.181268348216285],[-75.47158946930676,6.181168209801765],[-75.47261393038328,6.180401332008005],[-75.47299655996196,6.1795799311067645],[-75.47339369874885,6.17929275038796],[-75.47376046960999,6.1794174313706325],[-75.47430794947044,6.178454960501912],[-75.47436635982376,6.17771470993122],[-75.47394331078058,6.177701461676698],[-75.47377753986774,6.1773684618597695],[-75.47321317908494,6.177274390247883],[-75.4719979791796,6.176381820764438],[-75.47119466088206,6.176086470796815],[-75.4724088003267,6.174870461119274],[-75.4722604596863,6.174348230587326],[-75.47153578896679,6.1741420317681515],[-75.47206530916247,6.173745999417813],[-75.47294921902417,6.173612130859085],[-75.47261388860694,6.173325990364016],[-75.47252852150734,6.1726684588905725],[-75.47303731994585,6.172146101308393],[-75.47207304963798,6.171244500274805],[-75.47103576925427,6.171393550059099],[-75.47189171877056,6.170671530707755],[-75.47194926053758,6.170286290983583],[-75.46910264069777,6.169223839400317],[-75.47130659089675,6.168080469999422],[-75.47219446929375,6.1679152008735745],[-75.47300988881207,6.168029510388068],[-75.4736231714332,6.168489817324993],[-75.47391116830283,6.167662039874218],[-75.47391913184586,6.166271734366928],[-75.47317340934084,6.16541620067412],[-75.47418513923876,6.164055559694041],[-75.4740531001761,6.163431089645666],[-75.47446244946518,6.162786428716167],[-75.47454840110572,6.161122429809861],[-75.47483386246405,6.160587936685389],[-75.47448975936916,6.159714251194149],[-75.47445707913108,6.158818780059076],[-75.47468635913438,6.15848800372772],[-75.4759285913413,6.157939318033457],[-75.47475132929924,6.156101909196409],[-75.47472945608902,6.155097446740273],[-75.47603703185965,6.151690462370164],[-75.475760990528,6.150810859087295],[-75.47613925804805,6.149318280337393],[-75.47545264117727,6.1483934511958305],[-75.47530103872339,6.14760963151944],[-75.47571230118349,6.14512599429223],[-75.47562024208932,6.143590517494454],[-75.47659875035997,6.142610557682584],[-75.47665879071884,6.142252135360603],[-75.47556562853192,6.139531690939109],[-75.47587545173336,6.138614483593834],[-75.47486879070803,6.137689379941351],[-75.47552793703416,6.136331606936992],[-75.47494724266946,6.134443759776471],[-75.47480918938224,6.131715205352284],[-75.47506888980465,6.130195800589675],[-75.47465195066988,6.128962927671075],[-75.47495466130916,6.127938359155162],[-75.47452012873613,6.1273383201192395],[-75.47470090980003,6.126076762211816],[-75.47456448001651,6.124630706454488],[-75.4749686593459,6.123964048606676],[-75.47457525030447,6.122478573626921],[-75.47370105094147,6.121332309546643],[-75.47366573921785,6.120888769144651],[-75.47412126954983,6.120130100822965],[-75.47510178947073,6.119744310093628],[-75.47570703995073,6.120087740509812],[-75.4769835898461,6.118922229925462],[-75.47779015006249,6.118656661738652],[-75.47942262973979,6.118628099186212],[-75.48038128081838,6.117674860889054],[-75.48059183054616,6.116049859200193],[-75.48174969934715,6.115559349787216],[-75.48112431876432,6.114359800397951],[-75.48198802990233,6.111626339657726],[-75.48099928043843,6.111958559477572],[-75.48071441861937,6.1084619696908735],[-75.48004796846183,6.108525611378279],[-75.47944048141737,6.108076839596571],[-75.47910898896747,6.10742989857993],[-75.4789983589693,6.105420291435406],[-75.47939597978551,6.102746519603868],[-75.48093134046341,6.101973098937518],[-75.48364079091093,6.101520570098256],[-75.48424637983497,6.1010330391409235],[-75.48428578041958,6.100627970811706],[-75.48432359908372,6.099615479280064],[-75.48375445993906,6.098564070244397],[-75.48512966932297,6.098438989639535],[-75.48674560847746,6.0975438504582895],[-75.48701213577283,6.097006766095108],[-75.48719717078568,6.097663319218313],[-75.49072480109668,6.100630017632665],[-75.49204189015018,6.102053969690914],[-75.49423263835669,6.105250011932917],[-75.49576598260494,6.108808511495011],[-75.49658436857429,6.11259589952929],[-75.49671476581042,6.1145311926853365],[-75.49641184780019,6.1183941325497555],[-75.49525397733687,6.12238687837148],[-75.4948609417979,6.133621177481296],[-75.49606973101064,6.136789564165595],[-75.49650649359494,6.1386965405802165],[-75.49681243536351,6.142592572032941],[-75.49628715033631,6.146724185669234],[-75.4963215060483,6.15005166598465],[-75.49473277170058,6.159477115573783],[-75.49496302945134,6.159750290793797]],[[-75.50315423894358,6.273984310312989],[-75.50284761922583,6.275173499628201],[-75.50182581033015,6.275336780414719],[-75.50171304870639,6.275046060469073],[-75.50067051942271,6.274997101219041],[-75.50065693025901,6.275438521141638],[-75.50015103001049,6.276242918215611],[-75.50064667847866,6.277201960332279],[-75.4999086096803,6.277370540494503],[-75.49978112967817,6.278069599228265],[-75.498264709585,6.277855329626849],[-75.49822351880302,6.278211530362557],[-75.4993888191791,6.27867455009091],[-75.50079900922186,6.279711010811937],[-75.50181824032033,6.27988976968073],[-75.50161941794683,6.2808610198451875],[-75.50186089055947,6.281307720177751],[-75.50227368138734,6.281685500074172],[-75.50217790105047,6.281855719980552],[-75.50229550952224,6.281701450392559],[-75.50245870032519,6.281921989564088],[-75.50178733972874,6.280958330046698],[-75.50200247960848,6.280500840149825],[-75.50198397101879,6.280910389745559],[-75.50211797947026,6.281178050441688],[-75.50249276035017,6.281589699207294],[-75.50209754876693,6.281082579998929],[-75.50218624975109,6.280737469743074],[-75.50199527085188,6.2808709795122235],[-75.50229226977481,6.280199109636307],[-75.50194228888111,6.280309109223097],[-75.50187241097866,6.279905139528815],[-75.50391560048982,6.281035811023218],[-75.50339972794391,6.278906489265984],[-75.50452056787353,6.279193549739063],[-75.50463024874803,6.280037939108258],[-75.50531125888075,6.280042431041458],[-75.50438521859222,6.277421050519097],[-75.50392409931304,6.277885820086719],[-75.50296640087687,6.276436700318201],[-75.5035790674413,6.276151819884913],[-75.50384633933976,6.276812840914493],[-75.50422412836322,6.2765979097006985],[-75.5041431894412,6.275954819041917],[-75.50473061885951,6.2759352702729645],[-75.50518795080905,6.275322419919465],[-75.50554729854176,6.275316280767097],[-75.50390597873456,6.2740340592012975],[-75.50366504002976,6.274241839857761],[-75.50315423894358,6.273984310312989]],[[-75.49995355985457,6.245368050526399],[-75.500152779288,6.247355199119262],[-75.50051832975302,6.247319109915265],[-75.50051609923092,6.247070880125426],[-75.50056168062152,6.247445589898976],[-75.49913239938077,6.247780311253308],[-75.49872331815921,6.248090551058363],[-75.49813819931994,6.247842630594891],[-75.49812616940001,6.248024401021236],[-75.49641778886044,6.248175939546071],[-75.49607397994323,6.24891102002964],[-75.49649105937978,6.248862188670611],[-75.49807551882633,6.249563610110249],[-75.4993285886141,6.24946388053708],[-75.49983208984399,6.249851709171537],[-75.50055812851923,6.249008210192911],[-75.50048861976427,6.249754810775926],[-75.49926810992231,6.250087000135519],[-75.50010960069505,6.250849170974372],[-75.49980926007005,6.251472209979278],[-75.49940167844937,6.251855538380046],[-75.49909865896122,6.251483020223135],[-75.49774144094,6.251664709298231],[-75.49762352116088,6.252927000093754],[-75.49686857917959,6.25268341091042],[-75.49589503946204,6.2532572981305465],[-75.4962259288075,6.254046439437954],[-75.49718020081107,6.253301189604305],[-75.49858224005648,6.252775800630122],[-75.4987089900672,6.253133899996883],[-75.49911470028418,6.253014999754586],[-75.49920221880245,6.2527128801318845],[-75.50002439006407,6.252807468942889],[-75.49877411989598,6.253612721111248],[-75.49896249940872,6.254166059990355],[-75.4999034191671,6.254599330614619],[-75.50005328945083,6.254922220376025],[-75.50067915891894,6.255031239048362],[-75.50026902939393,6.255651528736232],[-75.4996808801152,6.255567828821194],[-75.4996239488379,6.256004548669867],[-75.5000601493921,6.256172559589962],[-75.50089667033146,6.255804359231685],[-75.50069569908143,6.256010658867866],[-75.50098617879999,6.256893979371661],[-75.50197731941324,6.256553160167242],[-75.50309020895388,6.257471889262744],[-75.50279160951865,6.257089740848053],[-75.50274212113173,6.256231309523471],[-75.50237452107838,6.256239179822105],[-75.50235758003137,6.256579810265654],[-75.5020549504967,6.256512719757627],[-75.5022682995783,6.25634343943051],[-75.50196413930368,6.255123460213971],[-75.50123501976597,6.255371458394589],[-75.50106966076902,6.254872568453233],[-75.50204260999737,6.25427140128039],[-75.50150555963393,6.253042090088389],[-75.50077253900942,6.253062808328763],[-75.50054558010126,6.251114669346656],[-75.50018173962702,6.250926810680733],[-75.5010910092296,6.250569639437565],[-75.50139426820152,6.250142989843924],[-75.50103709056032,6.249422049657268],[-75.50055258940552,6.249585339355059],[-75.50075436059167,6.246651509627501],[-75.50045874889119,6.245232410692947],[-75.50044068036404,6.246214419642259],[-75.50033036014716,6.245304269890592],[-75.49995355985457,6.245368050526399]],[[-75.50545004032678,6.263797468587497],[-75.50322507019527,6.2660954005828335],[-75.50279267960757,6.266941078919477],[-75.50266652964461,6.268755250630019],[-75.50225020993787,6.26886334187201],[-75.50207531067302,6.269501870442768],[-75.50210314150767,6.270391208805343],[-75.5027598009277,6.270454380814331],[-75.50425010957493,6.271640139935549],[-75.50476474000466,6.27165379101408],[-75.5068727290269,6.269192759440322],[-75.50512232131457,6.268374660448859],[-75.50524761902562,6.2675136087004235],[-75.50557898010939,6.267344130558446],[-75.50578277960922,6.2668038290374835],[-75.505467539814,6.264431580642683],[-75.50578066851133,6.264014478985184],[-75.50545004032678,6.263797468587497]],[[-75.5079493799266,6.279771919504107],[-75.50703102801745,6.279592488312588],[-75.50669704955156,6.279823750430036],[-75.50602580949445,6.280873670896125],[-75.5061798800178,6.281538208196644],[-75.50675076144124,6.281459648877587],[-75.50903131054088,6.280255640228538],[-75.5088572091989,6.280049140529007],[-75.50870553918678,6.27974075947027],[-75.5085761687114,6.279030679167868],[-75.50810926871536,6.278644991205929],[-75.5079493799266,6.279771919504107]],[[-75.4951167587281,6.260805718734745],[-75.49428363957522,6.260943010110421],[-75.49396146899622,6.260763799734812],[-75.49403462941606,6.261778610157939],[-75.4944516202439,6.262645199523186],[-75.49502597050387,6.262219909832371],[-75.4951167587281,6.260805718734745]],[[-75.49904975947987,6.263244979920621],[-75.49867663028631,6.263540229618369],[-75.4983726787236,6.263796220116675],[-75.49818412121256,6.264306270342687],[-75.4984030489134,6.2653601805464945],[-75.49879591904681,6.266613690879409],[-75.49880859869329,6.267099569301359],[-75.49866390096194,6.267360900828527],[-75.4985291912191,6.267931048842286],[-75.4985009092647,6.269549410261058],[-75.49808074893402,6.270132748426408],[-75.49739868882257,6.270744259561559],[-75.49784287061894,6.271017838665981],[-75.4982612696248,6.27063768884071],[-75.49809872941381,6.270149921824708],[-75.49853311031417,6.269902469736766],[-75.49881301910801,6.269323519939904],[-75.49853018100505,6.268850942106146],[-75.49879667974973,6.268269291590154],[-75.4986844402759,6.26739479133611],[-75.49883991848772,6.267105399976958],[-75.49891276989734,6.266134080071583],[-75.4986812013957,6.266005280619313],[-75.49883252940923,6.265799400152844],[-75.49840661036733,6.265216181105368],[-75.49821972986364,6.264314350084614],[-75.49841741916222,6.2638036496783345],[-75.49892464885957,6.263633040514474],[-75.49904975947987,6.263244979920621]],[[-75.49596240093467,6.272550481433422],[-75.49621630930538,6.2714118092635935],[-75.49657484833962,6.271327491040967],[-75.49658025954324,6.270955169835411],[-75.49733424835821,6.270759259936369],[-75.49844009917845,6.269531320863903],[-75.49846647990107,6.267926170686583],[-75.49875379946316,6.266756941002073],[-75.498119399101,6.2643015995590146],[-75.49831921983238,6.263757818271818],[-75.49864646873124,6.263426269061061],[-75.49814791923949,6.263861040777202],[-75.4980702899844,6.26413843909295],[-75.4987208100532,6.266701220612179],[-75.49843016951398,6.267795609680558],[-75.49840838032937,6.269406620344583],[-75.49753533019259,6.270477739368774],[-75.4965815308048,6.270818850962238],[-75.49618333931298,6.271317509835618],[-75.49596240093467,6.272550481433422]],[[-75.50907688955026,6.280226030982263],[-75.50971552035273,6.280279039840185],[-75.50979680868642,6.279707330775294],[-75.50871026051642,6.279617598501599],[-75.50907688955026,6.280226030982263]],[[-75.50158540001263,6.260827030493573],[-75.5026697500126,6.260827180432802],[-75.50266978930337,6.260551468144772],[-75.50158543897831,6.260551319791375],[-75.50158540001263,6.260827030493573]],[[-75.49365018005905,6.267315610991203],[-75.49420740042859,6.266030559966156],[-75.4940425303758,6.265955201007801],[-75.49358722050961,6.266824119946098],[-75.49365018005905,6.267315610991203]],[[-75.49708499943985,6.2671358601103195],[-75.49716114074451,6.2664495122729384],[-75.49681899901769,6.266298439746789],[-75.49708803998905,6.266783568883414],[-75.49656717958902,6.267273459555727],[-75.49708499943985,6.2671358601103195]],[[-75.49605739966694,6.26947845896973],[-75.49620988911266,6.268794419646312],[-75.49594154964893,6.268533760750509],[-75.49556853047157,6.2685657897518015],[-75.49557559060958,6.26880187816706],[-75.49604188928514,6.268868049353045],[-75.49605739966694,6.26947845896973]],[[-75.50246512934045,6.2622946507284265],[-75.50272288092413,6.262294689587018],[-75.50272300914274,6.261351929877947],[-75.50246525083287,6.261351899006568],[-75.50246512934045,6.2622946507284265]],[[-75.49569543962214,6.264711450494664],[-75.49586768021076,6.264775922405437],[-75.49600275914808,6.264299200107324],[-75.49555063071685,6.26355691941208],[-75.49582340958705,6.2643254103585235],[-75.49569543962214,6.264711450494664]],[[-75.49045090824005,6.262497350071439],[-75.49032149916509,6.262266949856867],[-75.48972369886499,6.263273488738124],[-75.49018690026556,6.262953850636111],[-75.49045090824005,6.262497350071439]],[[-75.49477756967627,6.268248321148207],[-75.49541331821008,6.268398019405545],[-75.49546737935206,6.268271300579734],[-75.49510346033075,6.268219408598328],[-75.49498032044103,6.2676320293826215],[-75.49460849022404,6.268464009875175],[-75.49477756967627,6.268248321148207]],[[-75.49713231014395,6.269616851716183],[-75.49684646870116,6.268791119391783],[-75.4967088903316,6.26878540067901],[-75.49678922907923,6.269144340685746],[-75.49639108923914,6.269479149558587],[-75.49713231014395,6.269616851716183]],[[-75.49479868026589,6.270914030651094],[-75.49550570049938,6.270532919108158],[-75.49523979084584,6.2705988498737675],[-75.49471013102794,6.270156030687854],[-75.4949651090488,6.270420999598647],[-75.49479868026589,6.270914030651094]],[[-75.49567402076838,6.266154501176102],[-75.49509073097057,6.266801960669992],[-75.49558341884389,6.266785038814227],[-75.49572079965263,6.267023890096754],[-75.49548910919593,6.266473991025982],[-75.49567402076838,6.266154501176102]],[[-75.49980791851259,6.245849240435615],[-75.50001936138025,6.24704310977482],[-75.49988865945772,6.245701252285091],[-75.49980791851259,6.245849240435615]],[[-75.5024853895379,6.282239820499825],[-75.50218461017508,6.281972769989909],[-75.50222519907449,6.282224431241596],[-75.5024853895379,6.282239820499825]],[[-75.49986579906111,6.247056338661389],[-75.49984734887454,6.246463430247672],[-75.49980797970323,6.246440970504577],[-75.49986579906111,6.247056338661389]],[[-75.49652170870641,6.268505560242269],[-75.49661669859188,6.268626001328815],[-75.49662844893439,6.268518980043621],[-75.49652170870641,6.268505560242269]],[[-75.49574364972796,6.268176261717968],[-75.4956498003699,6.268294258791271],[-75.49575686882746,6.268283599942345],[-75.49574364972796,6.268176261717968]],[[-75.49504125935066,6.265806439978516],[-75.4951888092782,6.265775769998114],[-75.49509968023804,6.26571546022825],[-75.49504125935066,6.265806439978516]],[[-75.49436879914477,6.263217189662939],[-75.4943806484408,6.263370159459978],[-75.49444997936686,6.263287841174286],[-75.49436879914477,6.263217189662939]],[[-75.49515691833501,6.262309221125803],[-75.49504288024661,6.2624117896577465],[-75.49515035037399,6.262416681636303],[-75.49515691833501,6.262309221125803]],[[-75.49491227025482,6.264718510821718],[-75.49505887033237,6.2647534509739256],[-75.49500378104972,6.264660970704284],[-75.49491227025482,6.264718510821718]],[[-75.49478919897952,6.2670963614008395],[-75.49464082046107,6.26712273978477],[-75.49472814041906,6.2671856196024205],[-75.49478919897952,6.2670963614008395]],[[-75.49978869751614,6.246309039713182],[-75.49978093086781,6.24585258834885],[-75.49973118909313,6.245715861189147],[-75.49978869751614,6.246309039713182]],[[-75.5032614199475,6.282686960118991],[-75.50323626939652,6.28286473965525],[-75.50326767995432,6.282979491420776],[-75.50330369956508,6.282907890417687],[-75.5032614199475,6.282686960118991]],[[-75.50223845007805,6.280514041074023],[-75.50231770932541,6.280449359709272],[-75.50228897945614,6.280438460346181],[-75.50223845007805,6.280514041074023]],[[-75.50263435874763,6.282244200602265],[-75.502656470191,6.282214308908724],[-75.50248547908988,6.282239840866426],[-75.50265708938679,6.282273150768668],[-75.50263435874763,6.282244200602265]],[[-75.50330878855836,6.282608180200294],[-75.50326143924659,6.282686838872366],[-75.50328537827674,6.282691840776586],[-75.50330878855836,6.282608180200294]],[[-75.5029537203791,6.282158689625505],[-75.50280014158305,6.282238139691592],[-75.50296105789788,6.2821820300474425],[-75.5029537203791,6.282158689625505]],[[-75.50328019023462,6.2824095690008175],[-75.5032625984175,6.282499719638593],[-75.50328680044375,6.282496230449],[-75.50328019023462,6.2824095690008175]],[[-75.50314036928492,6.282227040422904],[-75.50320279959178,6.2823270292765105],[-75.5032427288194,6.282328530682977],[-75.50314036928492,6.282227040422904]],[[-75.50280005850728,6.282238150938829],[-75.50265656050823,6.282214300339261],[-75.50265596092495,6.282238769143782],[-75.50280005850728,6.282238150938829]],[[-75.50295380878546,6.282158659365873],[-75.50306459911899,6.282149478309269],[-75.50306061857215,6.282118990899698],[-75.50295380878546,6.282158659365873]],[[-75.5021862900311,6.280737389986339],[-75.50220688897139,6.28065494084971],[-75.50216527890896,6.2807248696495614],[-75.5021862900311,6.280737389986339]],[[-75.50308094912315,6.282171339821251],[-75.50312358088814,6.282244838236432],[-75.50314029942113,6.282226980180191],[-75.50308094912315,6.282171339821251]],[[-75.49777429959971,6.269661880290579],[-75.49772913016574,6.269662008812679],[-75.49775177867508,6.2696845486577155],[-75.49777429959971,6.269661880290579]],[[-75.48936436860332,6.261332310923562],[-75.48934880078944,6.261289879974145],[-75.48933537946452,6.261318880850388],[-75.48936436860332,6.261332310923562]],[[-75.49781752945778,6.263981840708558],[-75.49786269934206,6.26398172050589],[-75.49784005027423,6.263959181473736],[-75.49781752945778,6.263981840708558]],[[-75.49058303976197,6.265174081204783],[-75.49053786956337,6.265174208958136],[-75.49056051757344,6.265196740275932],[-75.49058303976197,6.265174081204783]],[[-75.49795988896204,6.268756049875257],[-75.49800505925235,6.2687559294970026],[-75.49798241079674,6.268733390554735],[-75.49795988896204,6.268756049875257]],[[-75.48955447947587,6.2624633110251615],[-75.48950930857589,6.26246343950588],[-75.4895319510136,6.262485979096972],[-75.48955447947587,6.2624633110251615]],[[-75.49751287925615,6.270217339143923],[-75.4975580496877,6.270217218754252],[-75.4975354002477,6.270194678911379],[-75.49751287925615,6.270217339143923]],[[-75.49827978941568,6.268259159332215],[-75.49830247956248,6.268298241113728],[-75.49831066784331,6.268267350115225],[-75.49827978941568,6.268259159332215]],[[-75.49092010993336,6.262532310652521],[-75.49096527993014,6.262532191093472],[-75.49094263925532,6.262509650676856],[-75.49092010993336,6.262532310652521]],[[-75.49249613029515,6.26951797047178],[-75.49247343949791,6.269478890101983],[-75.4924652589781,6.269509781113117],[-75.49249613029515,6.26951797047178]],[[-75.49782875009195,6.264666278448775],[-75.49787392000465,6.264666151892886],[-75.49785127815366,6.264643619168109],[-75.49782875009195,6.264666278448775]],[[-75.49107536003848,6.262892999020682],[-75.49112053002237,6.2628928712988525],[-75.49109788841832,6.262870330902324],[-75.49107536003848,6.262892999020682]],[[-75.49161413851945,6.268264579888754],[-75.49162185858138,6.268220049336064],[-75.49159574074893,6.268238449878594],[-75.49161413851945,6.268264579888754]],[[-75.49058380034026,6.26476374033694],[-75.4905386301427,6.264763860843359],[-75.49056127907451,6.264786401205403],[-75.49058380034026,6.26476374033694]],[[-75.49307598975771,6.270327600079889],[-75.49303082006604,6.270327720082544],[-75.49305346939313,6.270350259290687],[-75.49307598975771,6.270327600079889]],[[-75.49798013867111,6.264992891326173],[-75.4979349696418,6.264993018802205],[-75.49795761064686,6.265015558752957],[-75.49798013867111,6.264992891326173]],[[-75.4905563602655,6.261954958975139],[-75.49051118940507,6.2619550793876755],[-75.49053383903212,6.261977611660186],[-75.4905563602655,6.261954958975139]],[[-75.49134012971228,6.263852330206348],[-75.4912949596191,6.263852450746824],[-75.49131760941917,6.263874991075305],[-75.49134012971228,6.263852330206348]],[[-75.48914693967411,6.26394452134102],[-75.48910177040122,6.263944641691414],[-75.48912441924229,6.263967181250558],[-75.48914693967411,6.26394452134102]],[[-75.49231348015097,6.271450501062601],[-75.49226831033637,6.2714506210378245],[-75.49229095880781,6.271473160276171],[-75.49231348015097,6.271450501062601]],[[-75.49185553991245,6.266821010139968],[-75.49181037048503,6.26682113082186],[-75.4918330186701,6.266843671074753],[-75.49185553991245,6.266821010139968]],[[-75.49128623759891,6.26318257154258],[-75.49124106127105,6.263182699318603],[-75.49126371012161,6.263205238762484],[-75.49128623759891,6.26318257154258]],[[-75.4922584292682,6.26924792935426],[-75.49221325874217,6.269248050157975],[-75.49223589985543,6.26927059037756],[-75.4922584292682,6.26924792935426]],[[-75.48918610011086,6.262326759174799],[-75.48914093007494,6.262326879477715],[-75.48916357791614,6.26234941906771],[-75.48918610011086,6.262326759174799]],[[-75.4920463697237,6.264461291157818],[-75.49206905926204,6.264500378888798],[-75.49207724884731,6.264469480624316],[-75.4920463697237,6.264461291157818]],[[-75.49214944884068,6.272115500883311],[-75.49210427895885,6.272115619962957],[-75.49212692114985,6.27213816103764],[-75.49214944884068,6.272115500883311]],[[-75.48991548997125,6.261587959539222],[-75.48987032002391,6.261588079879783],[-75.48989296874736,6.261610620338863],[-75.48991548997125,6.261587959539222]],[[-75.49846750056787,6.266940259234129],[-75.49851266978082,6.266940138878558],[-75.4984900214172,6.266917599030232],[-75.49846750056787,6.266940259234129]],[[-75.49410242033575,6.264479080173573],[-75.49407348068526,6.264513781385193],[-75.49410529033091,6.264510910434127],[-75.49410242033575,6.264479080173573]],[[-75.49844453909616,6.266340728667508],[-75.49848970912312,6.266340600193043],[-75.49846706080051,6.266318061236698],[-75.49844453909616,6.266340728667508]],[[-75.497633848899,6.269910539205943],[-75.4975886784965,6.269910659591665],[-75.4976113206924,6.269933199470852],[-75.497633848899,6.269910539205943]],[[-75.49171804893635,6.266463851264194],[-75.49167287866577,6.2664639791593215],[-75.49169552045805,6.266486510415729],[-75.49171804893635,6.266463851264194]],[[-75.49219589960897,6.273434169927877],[-75.49224106959267,6.273434048987105],[-75.49221842100437,6.273411509780826],[-75.49219589960897,6.273434169927877]],[[-75.49853685970828,6.266563510846835],[-75.4985820306978,6.266563391393678],[-75.49855938867553,6.266540850608517],[-75.49853685970828,6.266563510846835]],[[-75.49126989080236,6.267749311464625],[-75.49122472037138,6.267749432131985],[-75.49124736858859,6.26777197059536],[-75.49126989080236,6.267749311464625]],[[-75.48975085910155,6.264530190266287],[-75.48974289018143,6.264485700730082],[-75.48972464066026,6.264511930749674],[-75.48975085910155,6.264530190266287]],[[-75.49801455872083,6.268436180285261],[-75.49796938935762,6.268436299744955],[-75.49799203057098,6.268458839631919],[-75.49801455872083,6.268436180285261]],[[-75.49834081941371,6.2631339193593565],[-75.49831833939325,6.263173121449555],[-75.4983491695157,6.263164769529393],[-75.49834081941371,6.2631339193593565]],[[-75.49832253905014,6.265838959983768],[-75.49827736901757,6.265839079385487],[-75.49830001008674,6.265861620204526],[-75.49832253905014,6.265838959983768]],[[-75.49181002022165,6.2688351401080045],[-75.49180205905691,6.26879064976203],[-75.4917838086989,6.268816879872345],[-75.49181002022165,6.2688351401080045]],[[-75.49139201018576,6.267246221007762],[-75.49134683980228,6.267246341668505],[-75.49136948890019,6.26726888103332],[-75.49139201018576,6.267246221007762]],[[-75.48883337908484,6.26378626036888],[-75.48878820981481,6.26378638068687],[-75.48881085050638,6.2638089203063405],[-75.48883337908484,6.26378626036888]],[[-75.49198426861074,6.273184069146475],[-75.492029439488,6.273183949132318],[-75.49200679092026,6.273161409908797],[-75.49198426861074,6.273184069146475]],[[-75.49402414818714,6.264274259016416],[-75.49397897814988,6.26427437980253],[-75.49400161990866,6.264296919096216],[-75.49402414818714,6.264274259016416]],[[-75.49824412104316,6.269367399836519],[-75.49828929047277,6.269367279417154],[-75.4982666492013,6.269344740468542],[-75.49824412104316,6.269367399836519]],[[-75.4903444311623,6.264547351564453],[-75.49035976895725,6.264504839950805],[-75.49033085892142,6.264518420980208],[-75.4903444311623,6.264547351564453]],[[-75.49806996006717,6.265252650539205],[-75.49802479011937,6.265252778940284],[-75.4980474392355,6.265275310705142],[-75.49806996006717,6.265252650539205]],[[-75.49210874957775,6.272817171003493],[-75.49215392041052,6.272817049182858],[-75.49213127909438,6.272794510830009],[-75.49210874957775,6.272817171003493]],[[-75.49277822959274,6.269660479564232],[-75.49280071021633,6.269621279254242],[-75.49276988043205,6.269629629218945],[-75.49277822959274,6.269660479564232]],[[-75.49311173929861,6.2645059307643685],[-75.49306656921006,6.2645060514797715],[-75.49308921005564,6.264528590828612],[-75.49311173929861,6.2645059307643685]],[[-75.49273616060624,6.270931509580712],[-75.49269098995161,6.270931630483099],[-75.4927136393063,6.270954169700934],[-75.49273616060624,6.270931509580712]],[[-75.48928408931812,6.263349630296029],[-75.48925496022852,6.263315089113949],[-75.48925225952064,6.2633469305879155],[-75.48928408931812,6.263349630296029]],[[-75.49168126861012,6.264467149847811],[-75.49172643874724,6.264467030157209],[-75.49170378980446,6.2644444898596605],[-75.49168126861012,6.264467149847811]],[[-75.49160241984922,6.267930330009911],[-75.49155724940978,6.267930449807987],[-75.49157988951889,6.267952989190838],[-75.49160241984922,6.267930330009911]],[[-75.49361856807334,6.264016138956629],[-75.4935733989436,6.264016258790576],[-75.4935960397771,6.264038799021737],[-75.49361856807334,6.264016138956629]],[[-75.49837918104215,6.262823830901689],[-75.49842435893497,6.262823709747401],[-75.49840170992238,6.262801170728362],[-75.49837918104215,6.262823830901689]],[[-75.49277038931025,6.274288479467737],[-75.49272521836758,6.274288600487642],[-75.49274785979344,6.274311139682064],[-75.49277038931025,6.274288479467737]],[[-75.48969553966667,6.261280299926973],[-75.48974070869,6.261280179616241],[-75.48971805999466,6.261257640046211],[-75.48969553966667,6.261280299926973]],[[-75.4894842805545,6.264083590782188],[-75.48943911037343,6.264083710266545],[-75.48946175923587,6.264106250707022],[-75.4894842805545,6.264083590782188]],[[-75.49158601130134,6.266133740964708],[-75.49154084102028,6.2661338616042],[-75.4915634891484,6.266156400077405],[-75.49158601130134,6.266133740964708]],[[-75.49262868800247,6.273984791318915],[-75.49267385892657,6.273984671221812],[-75.49265121028527,6.273962130243256],[-75.49262868800247,6.273984791318915]],[[-75.49112314150322,6.2656530603238565],[-75.49107797124763,6.26565318090708],[-75.49110061843558,6.265675720325181],[-75.49112314150322,6.2656530603238565]],[[-75.49241623864468,6.271102140107859],[-75.49237106073598,6.2711022610228495],[-75.49239371009264,6.271124800256951],[-75.49241623864468,6.271102140107859]],[[-75.48955339109392,6.2627666897077505],[-75.48950822012924,6.262766810061585],[-75.48953086890992,6.262789349617305],[-75.48955339109392,6.2627666897077505]],[[-75.48886882846256,6.261803979883666],[-75.48882365846072,6.261804100141441],[-75.4888462999418,6.261826640694015],[-75.48886882846256,6.261803979883666]],[[-75.49837202158267,6.267612400716102],[-75.49841719085676,6.267612280345749],[-75.49839454968772,6.267589741373393],[-75.49837202158267,6.267612400716102]],[[-75.49816417987779,6.263457479948009],[-75.49812950020959,6.263428520062472],[-75.49813236950585,6.263460350211687],[-75.49816417987779,6.263457479948009]],[[-75.49239568025706,6.2644046301795955],[-75.49235051105187,6.264404749921433],[-75.49237315910113,6.264427289280869],[-75.49239568025706,6.2644046301795955]],[[-75.50304393138347,6.282156069836522],[-75.50308089005455,6.282171269581355],[-75.50306462119777,6.282149560479985],[-75.50304393138347,6.282156069836522]]]]}},{"type":"Feature","id":7,"properties":{"layer_id":"protected_areas","name":"DRMI Embalse Peñol Guatapé y cuenca alta del río Guatapé","use":"Acuerdo Inderana 10-1985,  Acuerdos Cornare  268-2011, 294-2013, 370-2017, 384-2019, 402-2020, 420-2022 y 427-2022","source_id":"gis-protected_areas","provenance":"institutional","exact_site":false},"geometry":{"type":"MultiPolygon","coordinates":[[[[-75.2294621602231,6.212484954332811],[-75.23016373393948,6.2115040580404495],[-75.23048638984807,6.211490438486925],[-75.23052147467652,6.2117960667800025],[-75.23119198260011,6.211484593742146],[-75.23126149695614,6.211794453456403],[-75.2299301050073,6.212886699222454],[-75.2299011674199,6.213429280852851],[-75.23011789436133,6.213621983808327],[-75.23039065056551,6.213414155175876],[-75.23117991839119,6.213650027453804],[-75.23178688306618,6.214821802667052],[-75.23258558970919,6.215517003344893],[-75.23307902517935,6.215537160328734],[-75.23371835817215,6.215186335175307],[-75.23383805159926,6.21544867272206],[-75.23346964495663,6.216185752886364],[-75.23369964217122,6.2170851408247625],[-75.23333402470902,6.217128998074693],[-75.23317421149234,6.21684517086753],[-75.2328174238714,6.216992345061986],[-75.23294071169684,6.2163117746820165],[-75.23033025396043,6.215275273435953],[-75.2294621602231,6.212484954332811]]],[[[-75.23698818202948,6.225789951573253],[-75.23776824860987,6.224213204677975],[-75.23813804719461,6.224339079017139],[-75.23792724495105,6.224945588058334],[-75.23872783487727,6.224926707150626],[-75.23870101988058,6.225180140990783],[-75.23810269557167,6.2253800476882075],[-75.23754296857848,6.226018140112389],[-75.23749359327611,6.226577297157316],[-75.23698818202948,6.225789951573253]]],[[[-75.238599241965,6.228186553736814],[-75.23861137256544,6.228197139768178],[-75.23861780108352,6.2282135662805524],[-75.238599241965,6.228186553736814]]],[[[-75.23870264152724,6.228337050388687],[-75.2387970420202,6.228395049815363],[-75.23882097827374,6.228509287908444],[-75.23870264152724,6.228337050388687]]],[[[-75.23901686202585,6.2287780530988455],[-75.2392624649582,6.228438537261157],[-75.23955691812401,6.228530336680259],[-75.2394721791726,6.2288934656000965],[-75.2396986692334,6.229197700207828],[-75.23953901653739,6.229554382803159],[-75.23901686202585,6.2287780530988455]]],[[[-75.23965840691775,6.2297157714045746],[-75.2413425848394,6.230375386043762],[-75.24171791930148,6.229446623037917],[-75.24085690293731,6.228441872321752],[-75.24111639431545,6.22819477414445],[-75.24177419898001,6.228590504587995],[-75.2418456763453,6.228181469092243],[-75.24151926831159,6.227786613856153],[-75.24133187190404,6.226833249721812],[-75.2424348722509,6.22752269484739],[-75.24241223799035,6.227043571621508],[-75.24265072066025,6.226928886740925],[-75.24326512320545,6.22727567363292],[-75.24326932784552,6.226332588785493],[-75.24357063368413,6.225792466867563],[-75.24404768280978,6.2258069373601534],[-75.24425201739975,6.225259267190017],[-75.24448498035834,6.225382942870773],[-75.24460289325322,6.2260929033090076],[-75.24543723865948,6.226335559046059],[-75.24621024475927,6.225146268045942],[-75.24657894356973,6.225269642502809],[-75.24644057483076,6.225832691703472],[-75.24526922343652,6.227523511668344],[-75.2454354490051,6.228050841434695],[-75.24580071610156,6.228298740276958],[-75.24734133141752,6.2286962677981785],[-75.24793803897003,6.227804790678862],[-75.24759547149442,6.227223404129169],[-75.2475340429686,6.2257526491060835],[-75.24791810900835,6.225810012488735],[-75.24804920822591,6.227218517376802],[-75.24839545624822,6.227710633189294],[-75.2486230647169,6.227166790886522],[-75.24845478215504,6.226480231616593],[-75.24891863868632,6.225792268786042],[-75.24910148715905,6.226051889356697],[-75.24887795694524,6.2266849840812375],[-75.2490920726824,6.227053201737172],[-75.24884539291165,6.227740682304867],[-75.24895197523615,6.2281934881737415],[-75.24920940748915,6.228481019034062],[-75.24919798743773,6.227596303054211],[-75.249801224596,6.2268032442256676],[-75.25003001952193,6.22679497443197],[-75.2501469494979,6.227058621059428],[-75.24959031939838,6.227882624658341],[-75.24964241413974,6.228639298746726],[-75.25013884604584,6.2286498395048415],[-75.25030335023928,6.227632657761345],[-75.25057449488651,6.227484577543895],[-75.25074562553773,6.227705412753211],[-75.25057721772157,6.228710959988886],[-75.25162934942483,6.229180947323448],[-75.25224294318102,6.228597893733367],[-75.25301321754901,6.228934515445171],[-75.25294211641723,6.228352528451428],[-75.25241670748086,6.227519289407549],[-75.25258282236338,6.227227847026831],[-75.25347744078066,6.2284134313083594],[-75.25418337969022,6.228462309754355],[-75.25426815409303,6.228217619660515],[-75.25359293906709,6.228032838569504],[-75.25309158543142,6.227552715909153],[-75.25333917493079,6.227276615027593],[-75.25427486482997,6.227748007964203],[-75.25401365470601,6.227131516473664],[-75.25347812341154,6.226977470940255],[-75.25388799809524,6.226754690524173],[-75.25350232393008,6.2266933472701425],[-75.25365802662353,6.226577429352837],[-75.25457125342292,6.226746056024813],[-75.25460750476977,6.227351406343306],[-75.2554131414447,6.228451189158627],[-75.25685484877046,6.227966653994275],[-75.25714633906397,6.228329565106054],[-75.25778040737603,6.228459148958209],[-75.25887867942956,6.227935650562137],[-75.26045700163716,6.227893305357801],[-75.26147003405998,6.2282636049094275],[-75.26212824928378,6.227784770580552],[-75.26216962054094,6.227210294580905],[-75.26158942175749,6.226159857909826],[-75.26209330956864,6.2260384170624095],[-75.26273402810708,6.227687724455745],[-75.26304759399468,6.227932430156206],[-75.26385013183861,6.227942152978924],[-75.26433398217333,6.227633627023221],[-75.26479889272821,6.22766073493334],[-75.2650957872184,6.227982218084419],[-75.26508854476458,6.228158027171609],[-75.26453491882162,6.228205132368199],[-75.2642002258743,6.228813517315243],[-75.26438669735029,6.2302232637766695],[-75.26522423527335,6.2307602210732576],[-75.26669060244141,6.232423128881993],[-75.26660744768753,6.232805474102243],[-75.26730750436212,6.233338916947936],[-75.26720158280324,6.233786279975125],[-75.26794673443852,6.234966003842346],[-75.26890006296065,6.235070317488755],[-75.26857434039195,6.235527761155705],[-75.26925247784573,6.235547218277861],[-75.26889454795568,6.23601043910519],[-75.26943691427623,6.236047427758312],[-75.2697934759473,6.236669538605003],[-75.2697161704872,6.237120082530084],[-75.27008311760069,6.237126829677218],[-75.27066735994705,6.238073900354778],[-75.27066203855603,6.239098096099124],[-75.27095300675799,6.2398755431918715],[-75.27154660829028,6.2401584894206295],[-75.27128002131144,6.240483927873271],[-75.27188513838118,6.241246869864742],[-75.27194503627885,6.242400849433724],[-75.27105533282354,6.24244872647459],[-75.27103111247034,6.241871723799681],[-75.27053804878084,6.241685583783364],[-75.269905336647,6.2405405441518145],[-75.2696353607061,6.239367930135005],[-75.26810071617297,6.239615982794356],[-75.2681420593089,6.239321627638622],[-75.26943537144177,6.238745466088885],[-75.26893761130411,6.238169532662161],[-75.26745336552938,6.238749946645259],[-75.26767372195228,6.238245000093353],[-75.26866531436792,6.237658057073082],[-75.26820656460932,6.237445086079831],[-75.26788329598546,6.236345200900264],[-75.26692912728424,6.23659193701301],[-75.26632863297614,6.236180560205324],[-75.26660608484613,6.235591410516301],[-75.26594750111991,6.23482093649657],[-75.26630082270319,6.234006142339012],[-75.2657082372146,6.23371321698246],[-75.26554212524545,6.2328690203208685],[-75.26510232126161,6.23258721445981],[-75.26473966689109,6.2326491758203],[-75.26483017716009,6.232140700787324],[-75.26429984589312,6.232359725161059],[-75.26439741004528,6.2315913669948575],[-75.26364718138566,6.230821094351476],[-75.26321227321725,6.2293163665308455],[-75.26260439280873,6.229012005395475],[-75.26265534073889,6.229592772427681],[-75.26238774771912,6.229471082224011],[-75.26207512622261,6.22970490171148],[-75.26164358925679,6.2297020485093935],[-75.26157427532326,6.229446158495375],[-75.26115044451495,6.229473859504298],[-75.26077550570794,6.229165152134175],[-75.2604591156571,6.229421908156658],[-75.26024502952804,6.229319205369469],[-75.2602241444414,6.2302249701529835],[-75.26053145808542,6.231030635894852],[-75.26033716690388,6.231241259744017],[-75.25979681063247,6.230394077230881],[-75.25983695276233,6.22956088071827],[-75.25897023037481,6.2296316114250585],[-75.2592069747702,6.231327867662682],[-75.25905466580814,6.231526932607922],[-75.2587105407899,6.231336623245858],[-75.2585364279625,6.230324291530842],[-75.25809598225973,6.229660426350495],[-75.25711104031299,6.230049137981189],[-75.25698315978535,6.230435932032802],[-75.25728936180582,6.230836478746144],[-75.25821325377305,6.231110488523814],[-75.25816266109216,6.231515514064261],[-75.2567785024209,6.231032715888437],[-75.25648450244513,6.231154847062678],[-75.25637898821978,6.231674108144551],[-75.25620162838771,6.231317443909937],[-75.25590436832229,6.231627315447878],[-75.2555943240368,6.231153154478031],[-75.25561498973363,6.230523653506813],[-75.25502657136803,6.230580182237347],[-75.25508383183087,6.231515036145028],[-75.25593855841875,6.232113134720412],[-75.25581428101326,6.232466791839046],[-75.25472807826031,6.2319870023813495],[-75.25428171260008,6.231413757049823],[-75.25409984723447,6.230685319506588],[-75.25352326641847,6.231102561426865],[-75.25307016037434,6.230805408356499],[-75.25244535827979,6.231042386332612],[-75.25226352941812,6.230328670841814],[-75.25168684871507,6.230701740139919],[-75.25067166935287,6.23072976536985],[-75.25050512830896,6.230273687015907],[-75.25022177738877,6.2302227832496655],[-75.24994651116134,6.23049947295107],[-75.2494945799781,6.229832650732174],[-75.24858406713447,6.229531862146875],[-75.24828264146423,6.22965329553233],[-75.24858552308947,6.230000928895818],[-75.24850300853718,6.230392486122635],[-75.2479494414238,6.230184893717447],[-75.24736155867998,6.230374891281651],[-75.24704681099024,6.230156704209745],[-75.24719959037279,6.23102938855689],[-75.24696631897919,6.231273950301302],[-75.24652930507266,6.230338997507437],[-75.24596627254495,6.230398111178804],[-75.24539447910118,6.229906256844133],[-75.24499017422178,6.230118489288378],[-75.24476997320139,6.23058945311519],[-75.24453824631198,6.230396240322357],[-75.24457240427779,6.22992568775738],[-75.24367005550117,6.230025804609797],[-75.2438895059454,6.230352389079253],[-75.24454620003505,6.2305824017468865],[-75.24438593578736,6.230872085960356],[-75.24368171788188,6.2307528800043785],[-75.24421585929902,6.231272493353299],[-75.24421150460462,6.231576929600937],[-75.24390987104582,6.231605273043135],[-75.24326989050468,6.230975191336804],[-75.2431359502458,6.231800709630275],[-75.24274157813237,6.231957568097711],[-75.24230573528425,6.23155095108011],[-75.24210904006924,6.232421894927384],[-75.24185537918702,6.232543218415464],[-75.24153009825545,6.2321086829918855],[-75.24147242892265,6.232368438147402],[-75.23965840691775,6.2297157714045746]]]]}}]}
