{"type":"FeatureCollection","features":[{"type":"Feature","id":1,"properties":{"layer_id":"rio_negro_riparian","name":"Rio Negro","category":"Acuerdo 251 de 2011","use":"Ronda","source_id":"gis-rio_negro_riparian","provenance":"institutional","exact_site":false},"geometry":{"type":"MultiPolygon","coordinates":[[[[-75.35243532881451,6.187669161632787],[-75.35299554127175,6.1876360006911355],[-75.35343965367574,6.187163642267144],[-75.35374018021942,6.187279517161955],[-75.35401357978483,6.187276032578891],[-75.35496084693052,6.186823100442562],[-75.35520124553149,6.186600608305517],[-75.35551321592106,6.186009939108601],[-75.3561135752289,6.185451312510681],[-75.35711074073524,6.1850517356571615],[-75.358182632238,6.183817230884532],[-75.35946130977592,6.183090923532533],[-75.35985145729504,6.182753181036624],[-75.35992288298257,6.182499132263066],[-75.35985883778473,6.182100551252814],[-75.3599895766653,6.181819192540868],[-75.35996709086139,6.180987565910176],[-75.36026194952898,6.1806330041118756],[-75.36031392067983,6.180461629984927],[-75.36100451041747,6.180168050563762],[-75.36112539089234,6.180001284851375],[-75.36084048733233,6.179575814030516],[-75.360518599544,6.1792946147408445],[-75.36067100360583,6.178976333323503],[-75.36106119901982,6.178686368050737],[-75.36111630005487,6.178015043399309],[-75.3620571204283,6.176594133334725],[-75.3623630912363,6.176269843111738],[-75.36328498963033,6.175590904753995],[-75.3639139064313,6.174748032227736],[-75.36390915612895,6.174637712738745],[-75.36377933678497,6.174571377428942],[-75.36350918800757,6.174642823906802],[-75.36334506665244,6.174617598943605],[-75.3627449978728,6.174191119819169],[-75.36270972565016,6.173777259472521],[-75.36283417555966,6.173587314529496],[-75.363131798419,6.173700302000015],[-75.36319996154722,6.173609322895006],[-75.36359417463062,6.173467921339677],[-75.36396936382485,6.172961765863277],[-75.36438728591256,6.172784445676774],[-75.36446909262435,6.172350174390713],[-75.36491114135644,6.172291534682244],[-75.36497219054694,6.171867940665276],[-75.36528952554413,6.1716319567584526],[-75.36533063298619,6.171360090861909],[-75.36506196591831,6.171447180374099],[-75.36479847366677,6.171143778337044],[-75.36474164467793,6.170296392404416],[-75.36460938632098,6.1702064356940065],[-75.36448960623378,6.1699987731364665],[-75.3640686868387,6.169775533343301],[-75.36390023305059,6.169471684778295],[-75.36351619807601,6.169155528079257],[-75.36326088816497,6.168576258652788],[-75.36305531769567,6.168285851055035],[-75.36299468925722,6.16734757632446],[-75.36311019530824,6.166877070369315],[-75.3628886655282,6.166453546189216],[-75.36280603448331,6.1661391432718125],[-75.36285013210383,6.1658441092716565],[-75.36298913081171,6.165581553908774],[-75.3637587155763,6.165120491885633],[-75.3639320858701,6.165085869120591],[-75.36471823353142,6.165178502710639],[-75.36480941853796,6.164894148715359],[-75.36463943334137,6.164827538002315],[-75.36457623578637,6.16458290665214],[-75.36413322764574,6.164171315191016],[-75.36379703849927,6.163718744214788],[-75.36377502383257,6.163545576662351],[-75.36429168142492,6.163093398008682],[-75.36453472832973,6.162992281907904],[-75.36507051022329,6.162992855877872],[-75.36529878514139,6.16290928382969],[-75.36549498822876,6.163013399572682],[-75.36560835183465,6.163159593272363],[-75.36566816889548,6.162961075267],[-75.36581171608523,6.162780385034127],[-75.36596584279764,6.162295119428676],[-75.36579668934135,6.161855086100753],[-75.36579902995162,6.161650304650675],[-75.36549147265441,6.16132389962747],[-75.36547886262895,6.160993007257695],[-75.3656940647713,6.160734114309991],[-75.3661317142595,6.160429023573043],[-75.36636880060786,6.1604798976330395],[-75.36662137819054,6.1603948875061],[-75.3664156483902,6.159922134354094],[-75.36634518132212,6.15949762361951],[-75.3666665363278,6.158151734455934],[-75.3665729266674,6.157555027221592],[-75.36549294759722,6.157455380057611],[-75.3654378930746,6.157169354764886],[-75.36550444149944,6.156608853598152],[-75.36543928257,6.156219250055549],[-75.36547759386274,6.15605947536422],[-75.36559443754976,6.155896729315454],[-75.36589082350054,6.155713466808542],[-75.36696960923655,6.155636538198314],[-75.367250205946,6.155486614520864],[-75.36737608968545,6.155263679792096],[-75.36774285723222,6.155026218633056],[-75.36770004371978,6.154796806737904],[-75.3677901829861,6.15452083754362],[-75.36795492994128,6.154280720962705],[-75.368279914702,6.154144014395282],[-75.36860485897971,6.153185349602353],[-75.36888906160956,6.152974510829617],[-75.36923437309324,6.152827463528651],[-75.36934666243609,6.152637173064216],[-75.36934044372197,6.152217673158162],[-75.36919826923778,6.151788010840524],[-75.3692838200373,6.151303205386646],[-75.36923502136597,6.151183086323964],[-75.36995341922463,6.150797266885345],[-75.37032928063627,6.150480362212289],[-75.3706724053948,6.150294151497769],[-75.37133754121257,6.149595757377683],[-75.37216320976738,6.14899873369836],[-75.37201387442529,6.14861491344849],[-75.37242241859076,6.148228942164885],[-75.37245372229995,6.148084976002857],[-75.37370989637768,6.147371420632381],[-75.3743305160083,6.14710987909388],[-75.37444635823317,6.147212136695783],[-75.37495333397878,6.147277778867401],[-75.37507884101888,6.147263327536319],[-75.37523400755926,6.147135836518105],[-75.37531521470763,6.146865924370423],[-75.37485569921688,6.146322494297216],[-75.37478739302117,6.1460880375919045],[-75.37483835752411,6.1458400010575565],[-75.37520217917566,6.14544563145992],[-75.37566242728525,6.145399862886776],[-75.37563441974173,6.145005017681599],[-75.37609759411468,6.14420123662767],[-75.37703349099849,6.14359625347034],[-75.37717748669365,6.14333211253892],[-75.37711545014169,6.143113709184585],[-75.37687876213026,6.142836016513851],[-75.37608396476259,6.142732666411496],[-75.37548737429638,6.142492144290172],[-75.3752980069228,6.142216895059906],[-75.37534926991468,6.14186746393541],[-75.37486995757891,6.141956996156992],[-75.37461555806459,6.141813506003466],[-75.37452981538792,6.141670566166192],[-75.37451642202909,6.141483852510223],[-75.37460142471842,6.141250948161323],[-75.37474633649968,6.141105961450005],[-75.37460058085186,6.1405397544493345],[-75.37461817029268,6.140164413893958],[-75.3744196932111,6.140037521643296],[-75.37394388684017,6.139509276337645],[-75.37351532841056,6.139467687467965],[-75.3732731243386,6.139553984458571],[-75.37303825291293,6.139468019981203],[-75.37320986178794,6.139356434933403],[-75.37322160239509,6.139279462147884],[-75.37351534390743,6.139208256865758],[-75.37409597225599,6.139282831664543],[-75.3746027340224,6.139850990284076],[-75.37487858631107,6.14000189243733],[-75.37486825832133,6.140511053108362],[-75.37502837980742,6.14123851255479],[-75.3753410075786,6.141052341245253],[-75.37534621228545,6.1410945381844435],[-75.37553813043054,6.141010405756922],[-75.37578579258933,6.141008608466343],[-75.37597109614946,6.141086526912706],[-75.37609620023453,6.141269791725633],[-75.3761861292173,6.1417039025650615],[-75.37613562031038,6.141850905177186],[-75.37594699311187,6.142049675286671],[-75.37689768635047,6.142205552010022],[-75.37730555286838,6.142385656768093],[-75.37773347812731,6.142933856154412],[-75.37792863184056,6.143261482440088],[-75.3779676265536,6.14344706711369],[-75.37831825916287,6.143387473427027],[-75.37861067561089,6.143577635235886],[-75.37903639327232,6.143540330623262],[-75.37964325591851,6.143186082658597],[-75.38021399183864,6.143066714746752],[-75.38042562424256,6.1429192922717135],[-75.38042097466015,6.142832166837246],[-75.38053114431592,6.142722560326709],[-75.38053368911159,6.142440592018525],[-75.38108831829321,6.141997644761577],[-75.38145677669227,6.142267985346181],[-75.38177721306444,6.142341453758972],[-75.38200283548576,6.142478962571857],[-75.3821986967002,6.142686380706043],[-75.38235363697923,6.143031379096707],[-75.38255275871789,6.143236698211614],[-75.38323183707314,6.14344872465362],[-75.3834042593882,6.143309343662911],[-75.38346855280756,6.142582876674537],[-75.38365025536275,6.14245499400785],[-75.38409959233479,6.142329262753743],[-75.38479548209652,6.142526718736152],[-75.3849782234696,6.142635494897105],[-75.38526390444954,6.142535152538404],[-75.38543401848389,6.1425544120927436],[-75.38583658970641,6.143100952543941],[-75.3860898932587,6.143143251660038],[-75.38649679648618,6.142895840063239],[-75.38663422492,6.142682787987888],[-75.38704190703562,6.142399273668698],[-75.3875081514801,6.142610419844753],[-75.38807277675704,6.142341755748098],[-75.38855942750249,6.142846009010617],[-75.38878141247882,6.143240283460297],[-75.38896776851865,6.143873057330084],[-75.38882887593408,6.144178895177031],[-75.38889957463275,6.144267923877378],[-75.38918912849584,6.14429631150925],[-75.38931223021572,6.144127200117878],[-75.39005292815182,6.1439670490735585],[-75.39010485845645,6.1438010552842455],[-75.39039220294187,6.14371669662502],[-75.39066880255169,6.143721702411662],[-75.3909700595795,6.143770920552611],[-75.3917944226973,6.14407530026829],[-75.39199717142662,6.144303392408019],[-75.39246885574093,6.144455281616916],[-75.39340915311777,6.144626479357772],[-75.39397360868146,6.1448419779135905],[-75.39618467678343,6.144330458661726],[-75.39953545058957,6.144620046883356],[-75.39958980482841,6.1445457255562355],[-75.39971774041913,6.144545396226005],[-75.40100778033275,6.14492064509429],[-75.40162089194682,6.1464433824924996],[-75.40200111165463,6.1464868060273075],[-75.40204991775728,6.146471894163338],[-75.40207487103157,6.146060396661461],[-75.4021343673584,6.1459545187236655],[-75.40264218533707,6.14577942825901],[-75.40339262513687,6.145222907328296],[-75.40368105989256,6.145131997898172],[-75.40484617780682,6.144374149284854],[-75.40545785217925,6.144293959908575],[-75.4056506242885,6.144360248558059],[-75.40626182330911,6.144193888858541],[-75.40664720088714,6.144301669292155],[-75.40680551438197,6.144552695942371],[-75.40704351203959,6.144522290920853],[-75.40717099557764,6.144567654880628],[-75.40731753007606,6.144383712813687],[-75.40731774198852,6.143732136264232],[-75.40744714548683,6.1433362916912095],[-75.40800008171274,6.1432541889962256],[-75.408505585774,6.143097307593514],[-75.40871536997473,6.142778654485928],[-75.40878148336958,6.142504737596523],[-75.40920471853185,6.142005370050078],[-75.40973063560322,6.142136804081366],[-75.41112591421916,6.141955129881698],[-75.41146713441532,6.141987947187748],[-75.41198296685455,6.143457296045818],[-75.41217366467211,6.143470917291716],[-75.412246425395,6.143352498567563],[-75.41273651242207,6.143339497122694],[-75.41286747168158,6.143082835662912],[-75.41327733522341,6.143046400956085],[-75.41430012015583,6.143375463435804],[-75.41436685232782,6.143559525569481],[-75.41468885795544,6.143531113384445],[-75.41499337564328,6.143282988277415],[-75.41508654970058,6.143121082896818],[-75.41592796180831,6.142828250658389],[-75.41602132822474,6.142911341394327],[-75.41646522838847,6.14304339973476],[-75.41675224266119,6.1440491507025765],[-75.41690130403066,6.14410517987771],[-75.41825952322607,6.144108988526945],[-75.41857018061278,6.14389139957679],[-75.41888647477774,6.143844775780726],[-75.41913901606115,6.143720011270783],[-75.4198915464443,6.14304459800345],[-75.4203941502057,6.14272408313767],[-75.42258208329193,6.142084645057968],[-75.4228238440121,6.14156301437709],[-75.4229346023294,6.141448842744269],[-75.42377462092071,6.14128061848166],[-75.42412440595635,6.141030501140822],[-75.42450797708365,6.140907258748357],[-75.42440599300376,6.140344236316199],[-75.42478866851795,6.140033192697173],[-75.42504403706066,6.1400317772707345],[-75.42561589732894,6.140232288372003],[-75.42605513039076,6.1402147758086905],[-75.42647691269175,6.13957487502099],[-75.42626608671765,6.1387682734504105],[-75.42631375768815,6.138652561253269],[-75.42659705944261,6.138438562629696],[-75.42661295053513,6.138098864537313],[-75.42768108641174,6.1374513167886775],[-75.42780311459748,6.1374449202695],[-75.42816576688465,6.137599386836454],[-75.4283214858143,6.1375704450314315],[-75.42854410459512,6.137437167973983],[-75.42877863288373,6.137187321088556],[-75.42891929304996,6.136897965792625],[-75.42903716771602,6.136837044458345],[-75.42954858599764,6.137048353936437],[-75.42999962929431,6.137500718882378],[-75.43037338169616,6.1375398528126786],[-75.43064013934888,6.137706319317362],[-75.43111544214803,6.137221030445454],[-75.43130671963364,6.13696267662416],[-75.43138410570016,6.136667016251946],[-75.43182752159738,6.136111077910769],[-75.43182558642708,6.135975605892702],[-75.43150112466067,6.135548580703404],[-75.43155017384164,6.135106549854603],[-75.43226044578515,6.134694518085075],[-75.43229063433134,6.134154789738637],[-75.43251140808873,6.133933797864995],[-75.43294619074666,6.133771279350375],[-75.43337175882108,6.133343956141131],[-75.43351021839196,6.132914905041861],[-75.43378781654343,6.132422821929912],[-75.43408720722509,6.1322573007312995],[-75.43419527563665,6.132068522649844],[-75.43423566878535,6.131726599063249],[-75.43448177686567,6.131389555343652],[-75.43484038211484,6.1310248403314755],[-75.43505208160757,6.130922813511749],[-75.43540062467153,6.131161290271108],[-75.43569429695638,6.131199463331995],[-75.43660178946266,6.130142469512238],[-75.43706917333253,6.130262317149168],[-75.43761211746883,6.130235178062141],[-75.43784708128936,6.129084436014985],[-75.43808793698028,6.128894497672991],[-75.43832153273593,6.128577596986391],[-75.43855511019719,6.128413040493665],[-75.4388380222541,6.128033599027145],[-75.43941337953147,6.128071861182237],[-75.43970194351802,6.127763497882966],[-75.4396737910797,6.127533249252059],[-75.44032132149398,6.12692930737655],[-75.44125303966295,6.126827620023852],[-75.44164291495083,6.126641618077082],[-75.4418746282257,6.126439873123764],[-75.44277640158634,6.126236698164022],[-75.44306709915521,6.126358342897686],[-75.44374280141916,6.126010281061242],[-75.44490813862309,6.125924878948133],[-75.44511629075032,6.125505319827721],[-75.44533046679597,6.125376387144162],[-75.4453937092717,6.125221154910514],[-75.44551884342,6.1246511004416115],[-75.44554586904277,6.124110577299019],[-75.4453787134375,6.123756979051026],[-75.44512083710008,6.1235442305399355],[-75.44441454440239,6.123232735065459],[-75.44420519319844,6.122817090913761],[-75.44481734782299,6.121754095029269],[-75.44551761991167,6.1212543586018455],[-75.44570570101881,6.1206845971024615],[-75.4457287009926,6.120396294186092],[-75.4458941379646,6.120177400542843],[-75.44677808478866,6.11990262965415],[-75.44705606763382,6.119690103501532],[-75.44731939876962,6.1196323272913205],[-75.44776863406615,6.118836091904816],[-75.44840220571248,6.11830640373415],[-75.44845134304532,6.117991595456964],[-75.44858257949147,6.117746273069968],[-75.4489217289621,6.117492074419385],[-75.44917094523632,6.117395310784537],[-75.4494534838121,6.117388435665397],[-75.44980369489822,6.117517024541408],[-75.4501442659878,6.117765442403134],[-75.4505363315672,6.11824806502908],[-75.4509259048907,6.117646979565473],[-75.45109591759062,6.117467700924358],[-75.45131192329865,6.117377176805671],[-75.45150483009662,6.117030676638315],[-75.45164104272614,6.115984755546675],[-75.45194481035925,6.115448152824672],[-75.45218344563904,6.115363041770213],[-75.45239002480389,6.115400904674412],[-75.45261868085657,6.115245257345264],[-75.4527817831214,6.1152913477423],[-75.45317839988495,6.114857008841536],[-75.45367431509342,6.114882193112513],[-75.45394789823605,6.11439237541782],[-75.45461503722034,6.113722573927091],[-75.45518428660242,6.113501855879053],[-75.45551400842506,6.113227019967178],[-75.45632987937407,6.112205803052623],[-75.4570980582875,6.1109507854947545],[-75.45740749301966,6.110256229812413],[-75.45789416938827,6.109509917341632],[-75.45788493946547,6.108675289070663],[-75.45796331609469,6.108528909747054],[-75.45846594324105,6.1083123807191235],[-75.45908008605274,6.10856483644936],[-75.45928844698936,6.108563966482366],[-75.45965620278342,6.108440968744264],[-75.46030553793454,6.108060191890228],[-75.46080310977615,6.107938179104122],[-75.46099051061243,6.107704389207483],[-75.46105562434951,6.107249289457047],[-75.46114367760278,6.107106194948983],[-75.46286879303896,6.106104184976011],[-75.46327705579503,6.105754053185225],[-75.46366915162328,6.105572480658999],[-75.46417250534242,6.1051174680956075],[-75.46456926070387,6.1045484111475234],[-75.46563898204866,6.103992114056091],[-75.46603156748381,6.103846242992858],[-75.4662213955147,6.1038701261817305],[-75.46641207321224,6.103731861335302],[-75.46670496353055,6.102921548825896],[-75.4676876807375,6.101974850377231],[-75.4675099865755,6.101698885728625],[-75.46755972691021,6.101574189388886],[-75.46773477961361,6.101444114659456],[-75.46759439964511,6.101298158778803],[-75.46752100441563,6.100926710681716],[-75.46760468806887,6.10058765479703],[-75.46772357348068,6.1003995090847685],[-75.46738646992281,6.100020795910729],[-75.46734098998519,6.099750875018035],[-75.46752616261834,6.099401564636887],[-75.46784416386794,6.099158778173807],[-75.4681636065443,6.09909053676063],[-75.46840123937005,6.099146200856924],[-75.46857950470948,6.0994194945768],[-75.4688207638398,6.099551614198966],[-75.46892332788819,6.099509300031584],[-75.46948866150478,6.0986147774401065],[-75.47033579774451,6.097801055868875],[-75.4711678699325,6.097672735024697],[-75.47112819767744,6.097437076126753],[-75.47119837810418,6.097304415399127],[-75.47152835322062,6.097282831492988],[-75.47195509813535,6.096834106421975],[-75.47285181865887,6.096317097089586],[-75.47329754289748,6.0961413024449405],[-75.47349065655932,6.095933670178658],[-75.47459424456537,6.095943989508333],[-75.47574601257956,6.095295335959056],[-75.47667807773144,6.094541711786253],[-75.47761585475233,6.094137393297167],[-75.4783364348879,6.0936373955874235],[-75.47846231438038,6.093604672917323],[-75.47871541473071,6.093663595489656],[-75.47893781940273,6.093800503495406],[-75.4792290552219,6.093404415678726],[-75.48002561374972,6.093389950302718],[-75.4800398486545,6.093075525671302],[-75.48017273451707,6.092791674315395],[-75.4808990530355,6.092308086883578],[-75.48115313302112,6.092621308745051],[-75.48137784444634,6.0929410516399365],[-75.48128227309972,6.09306675527091],[-75.4814137978404,6.093370418114166],[-75.48141912975967,6.0935714616016305],[-75.48112203048176,6.094168701130443],[-75.48091985250251,6.094345119770728],[-75.47997282337012,6.094743777821301],[-75.47914034697585,6.094930210890208],[-75.47874396427936,6.094937961474125],[-75.47843644889082,6.09460990282138],[-75.4777294706375,6.094821049440805],[-75.47648114385362,6.095477146167138],[-75.47608954013215,6.0954346921405005],[-75.4758763507529,6.09585283771906],[-75.47559534471262,6.096065649276236],[-75.47531515768905,6.096107509265332],[-75.47449492465468,6.096397247613857],[-75.47359485951448,6.096351711667535],[-75.47331674675603,6.096676824140901],[-75.47229229231475,6.097334114633899],[-75.47199329770743,6.0976566374317835],[-75.47183161672936,6.0980601206308345],[-75.47121572605536,6.098479705869825],[-75.47093206040776,6.098751054025325],[-75.46958512624614,6.100451311176243],[-75.46913570152083,6.1007368753698925],[-75.46878231174216,6.100734515307798],[-75.46889666856902,6.100880252923743],[-75.46901915255692,6.101231005895578],[-75.46888505743038,6.101739432238312],[-75.46876605306457,6.101922225145068],[-75.46834084590577,6.102195153732078],[-75.46838387093659,6.102297959715699],[-75.46807337109217,6.103135138672621],[-75.4676302363205,6.103799480223651],[-75.4671151509462,6.104197252142615],[-75.46675520844961,6.104381193380572],[-75.46658710623433,6.104416856851163],[-75.46642851860503,6.104359183917708],[-75.46620708248565,6.104425418436093],[-75.46453446643397,6.105517883797861],[-75.46380940255757,6.106162956726833],[-75.46307868623381,6.106700449304438],[-75.46256437564816,6.106849911188186],[-75.46162824613657,6.107338295823734],[-75.46133229448631,6.108263340828074],[-75.46122514053859,6.108390591403036],[-75.46078950683166,6.10859818112682],[-75.45981931964134,6.108909522881673],[-75.45932025062457,6.1089935795444825],[-75.45882006827357,6.108927438234955],[-75.45847644084208,6.108705845131156],[-75.45833105057895,6.108698957483764],[-75.45841421985928,6.1093648761752055],[-75.45834479847804,6.1099059323041915],[-75.45767149234443,6.110761054875568],[-75.45614614413338,6.113386513980727],[-75.45568694990601,6.113923231775155],[-75.45461218789151,6.114707711964039],[-75.45441956142419,6.11476834012311],[-75.45415492682298,6.115082829421356],[-75.45405759432359,6.115341340791375],[-75.45375663182188,6.1156009608441755],[-75.45267559140886,6.11718719721646],[-75.45236015644103,6.117424761723256],[-75.45220789790119,6.117637000756352],[-75.45217006190731,6.117912018381112],[-75.45183716583985,6.1181747706427645],[-75.45130175964466,6.118920072217743],[-75.4508201021487,6.119984690313446],[-75.45013032239656,6.121029467660422],[-75.44938260247413,6.121620912276575],[-75.44929260282636,6.1217595645922644],[-75.4490464700147,6.121888687231322],[-75.4488431365542,6.122121479954074],[-75.44850865610539,6.122276534320822],[-75.4485286549908,6.122891450852197],[-75.44845332517657,6.12306496097287],[-75.4482413983055,6.123215239757935],[-75.4477817436978,6.1233706764349165],[-75.4475750943763,6.1235758109687835],[-75.44702446387069,6.123793745085888],[-75.4469405949985,6.124070582098098],[-75.44685636410408,6.125525245958815],[-75.44675832622434,6.125840172959631],[-75.44616571984554,6.1266731322134405],[-75.44578869592824,6.127005132954149],[-75.44572589016161,6.12732880368269],[-75.44538887836588,6.127711681732735],[-75.44525855729631,6.127970880675881],[-75.44513466088053,6.128034324419529],[-75.4447913609437,6.128017687714101],[-75.4441587754458,6.127565534629977],[-75.44404632568246,6.127362531867578],[-75.44397789327834,6.12738287784154],[-75.44379719321688,6.1274885071453555],[-75.44374432123493,6.127919725768537],[-75.44347242173758,6.128259606451603],[-75.44265548340381,6.128554753773674],[-75.44225451090804,6.128881172534803],[-75.44189876422232,6.129014476141837],[-75.44220123426751,6.129189518752421],[-75.44230788430389,6.129428201222328],[-75.44228323182904,6.129709182123189],[-75.44122829646273,6.130631265396565],[-75.44113965038476,6.130648966370173],[-75.44072662184261,6.1304718700610445],[-75.44065603739566,6.130565603626351],[-75.4405050967028,6.130540910003746],[-75.4399540817052,6.130844757019263],[-75.43990751393275,6.131051541439211],[-75.43964770981236,6.131467651631434],[-75.43988631898081,6.131686453850102],[-75.4396491919508,6.132773425133595],[-75.43946945216658,6.132953575103903],[-75.43909924755698,6.1331374788287105],[-75.43889198256647,6.133195809607113],[-75.43813847695138,6.132826074464684],[-75.43784074349442,6.133154478781843],[-75.43758434421564,6.13332938775203],[-75.43717147705267,6.13330066228677],[-75.43640941055703,6.1325711627236945],[-75.43626782698452,6.132512845851084],[-75.43587174167016,6.132787049747895],[-75.43527028144833,6.132602337668019],[-75.43516898790361,6.132635100333051],[-75.43509286680396,6.132844596429129],[-75.43518073094579,6.133029563103307],[-75.43515766465927,6.133240794489777],[-75.43524995584589,6.133424850359326],[-75.43554379153912,6.133550647803973],[-75.43549033547835,6.1338809376914325],[-75.43559208306228,6.133946536448048],[-75.43577189609096,6.133916546694404],[-75.43584924544861,6.1339795709538105],[-75.43598253087679,6.1345999210015245],[-75.43591129367266,6.134823110549186],[-75.4355958637325,6.13505155691329],[-75.43484744364017,6.135194247880915],[-75.43491905803077,6.135827725723484],[-75.43484488162795,6.136014697997581],[-75.43450278765165,6.13631226119921],[-75.4339550705136,6.136495557133155],[-75.43329353195793,6.136939882727035],[-75.43324507912956,6.137087354412497],[-75.43330148611173,6.137276212243861],[-75.43319921535827,6.137608389141016],[-75.43337740520579,6.13786066887437],[-75.43341298010247,6.138108351935424],[-75.43326038879188,6.13838112570915],[-75.43300967424139,6.139197256747365],[-75.43274473523124,6.139465107381122],[-75.43227763199096,6.139429851456756],[-75.43185010019056,6.138995770535569],[-75.43152397678533,6.138289715805108],[-75.43132583227431,6.138209649831093],[-75.43108001296736,6.138535358711975],[-75.4308540583744,6.138518387533429],[-75.43077950152193,6.138570250565341],[-75.43039056457457,6.139025204224868],[-75.4310498474024,6.139121123233474],[-75.43118009767014,6.139250610550466],[-75.43141440178358,6.139268015502106],[-75.43151015505879,6.139423688348675],[-75.4314433391801,6.139766201032366],[-75.43145099187485,6.140192266694198],[-75.43120462762,6.140951999619335],[-75.43056697065926,6.141508633106793],[-75.43031115495853,6.141982890872848],[-75.42981370912476,6.14227360146838],[-75.42966134270611,6.142922915788257],[-75.42951586129769,6.143196537195253],[-75.42927514388192,6.143343063619591],[-75.42853385095246,6.143450075319912],[-75.42793822099787,6.144029581009347],[-75.42771943851588,6.144032171505],[-75.42732581290372,6.143746002392101],[-75.42706187038837,6.143796382487447],[-75.4266479023173,6.144062587692449],[-75.42537854098177,6.143893326128758],[-75.42518808639858,6.143968024752903],[-75.42499898575575,6.1439610948503125],[-75.42485242065308,6.143755661751751],[-75.42444388541432,6.1438502098891234],[-75.42420359033365,6.143956879559867],[-75.42402616387183,6.144403680922738],[-75.42337633496552,6.1448600171912],[-75.42308566029595,6.144846961124613],[-75.42256467366968,6.145524890329058],[-75.42225616567758,6.145629510637196],[-75.42174629220477,6.145653726486897],[-75.42151711258691,6.145582018953168],[-75.42149022886854,6.145444545876118],[-75.42128807416884,6.145404699820356],[-75.42107945822552,6.145430550996423],[-75.42062845097867,6.1456587404252785],[-75.41993412061994,6.14569750038956],[-75.41907242072267,6.146312010807122],[-75.4188246673898,6.146576319480591],[-75.41834873093018,6.146714544518403],[-75.41784231411829,6.146519003535973],[-75.41765134618554,6.146016040032534],[-75.41715414292825,6.1458110653593145],[-75.41673600482471,6.145445547586667],[-75.41659055369048,6.145417082923405],[-75.41643758687488,6.145171996454947],[-75.41635630854903,6.145214653276839],[-75.41593524996986,6.145861552116783],[-75.41525009313868,6.146073039000112],[-75.41472117296561,6.145878657610473],[-75.41457631569183,6.1457215285274565],[-75.4145386253115,6.145529788001271],[-75.41411147434826,6.145481022912494],[-75.41396744244514,6.145372043867412],[-75.41383620751375,6.145429405893972],[-75.41253029851565,6.145539805703306],[-75.41225339419618,6.145689612212448],[-75.41135732754253,6.145779668402071],[-75.41107581376335,6.145971885134475],[-75.41064612022723,6.145866912733623],[-75.41035756939586,6.145464030709438],[-75.4102872377193,6.145242017345421],[-75.4098834176541,6.1451180195836494],[-75.40943567508451,6.145436104974285],[-75.40915003948815,6.145515809653556],[-75.40914469795588,6.145627500942926],[-75.40890782922307,6.1457833067370675],[-75.40874424925309,6.146005701276589],[-75.40838641732903,6.146153949638594],[-75.4081670655384,6.146107806631324],[-75.40806840557875,6.146793142710935],[-75.40715888859421,6.147199851372555],[-75.40702115825815,6.147502294261181],[-75.40672888466011,6.147814896832177],[-75.40640489660633,6.147888495573768],[-75.40635141190789,6.148163586583776],[-75.40604810276494,6.148462825809623],[-75.40554563367479,6.148491733065996],[-75.40524688987881,6.148420214794475],[-75.40503327985192,6.148482606486686],[-75.4042255545938,6.148476389485995],[-75.40388213641153,6.148362786259272],[-75.40343890903405,6.148460266673254],[-75.40301935378275,6.1487287649806905],[-75.4029155595401,6.149433140441528],[-75.4028147863664,6.149560025418119],[-75.40264046590092,6.149610331261432],[-75.40219099880896,6.149542621583283],[-75.40183057236473,6.1494073727678575],[-75.40145579574188,6.149135784844361],[-75.40144181159481,6.148986412962958],[-75.40132174166317,6.148879758079963],[-75.40097120056517,6.148719456306482],[-75.40082522574549,6.148586752626954],[-75.40059850753232,6.148125746588425],[-75.40047012984573,6.1481543720236145],[-75.40043807986447,6.14801837303521],[-75.40047621433688,6.14776646560327],[-75.40071350379868,6.147320581416238],[-75.40059076260442,6.14727828071083],[-75.40009174956607,6.147432658449994],[-75.39985206187423,6.147398072285401],[-75.39967327683847,6.147269894499719],[-75.39950490530815,6.1469288570734095],[-75.39926534499533,6.146628398170318],[-75.39879728537971,6.146521299242302],[-75.398221470945,6.146485268785158],[-75.39794091281628,6.146346621342454],[-75.39778521322637,6.146384768799409],[-75.39768134728331,6.146616937785467],[-75.39728644968808,6.14684259394446],[-75.39656717103308,6.147096457045771],[-75.39623569882602,6.1471134555274185],[-75.39448916506544,6.14834574900241],[-75.3941967829179,6.148774889372491],[-75.39400906961109,6.1488721071115915],[-75.39361811024663,6.148920764396786],[-75.39325762170603,6.148821021114915],[-75.39281718774421,6.148601189063824],[-75.39248959971684,6.148220034043656],[-75.39238552809987,6.147753290359547],[-75.39238141729936,6.147345814135677],[-75.39245442428772,6.147095294078501],[-75.39260117398422,6.146892451220222],[-75.39254538418093,6.146150726172501],[-75.39240596604711,6.146021907703339],[-75.39195732670015,6.1459980546621775],[-75.39102151459525,6.146132919742473],[-75.39086833238375,6.146303316239819],[-75.39062754731165,6.146371857894148],[-75.39019993948627,6.146197814212932],[-75.3900625088592,6.145967140679302],[-75.38966966988525,6.145824516068513],[-75.38841167545176,6.145816323598434],[-75.38813294543847,6.1460151531819305],[-75.38778263725033,6.1460415212528225],[-75.38755938029928,6.145915763004504],[-75.38739890833833,6.145718810036253],[-75.3872189408917,6.145304525120916],[-75.38708717584417,6.145154843668156],[-75.38707863972758,6.14494519750364],[-75.38695565563991,6.1447702825517165],[-75.38685405291858,6.144728912633093],[-75.38658919846222,6.144753923257797],[-75.38642891493036,6.144942237813298],[-75.38617410790775,6.144932124298251],[-75.38613515423505,6.145113587496301],[-75.3860446095396,6.1451851708412235],[-75.38605583468576,6.145288980063283],[-75.38519715515542,6.1452449174967025],[-75.38511248555035,6.145416140161375],[-75.38491981739513,6.145514499137194],[-75.38441237011492,6.1452905315541315],[-75.38417314420917,6.145459397406797],[-75.38376210088197,6.145557263575978],[-75.3832058931805,6.14547317337176],[-75.38268957782101,6.145591610844597],[-75.38190765069382,6.145518592228573],[-75.38159953852067,6.145330559234351],[-75.38147297818925,6.144880669460482],[-75.38129579885184,6.144671618206975],[-75.38139384051733,6.144346198177361],[-75.38137747734267,6.144097885284304],[-75.381266031036,6.143908810080882],[-75.3810652272952,6.1437624630347125],[-75.38073519097911,6.143858868039605],[-75.3800087698507,6.143808097203008],[-75.37958321940195,6.143982209758601],[-75.3793432108429,6.144261846291093],[-75.37861037708342,6.144666867425987],[-75.37809138780398,6.144736582969794],[-75.37760115511793,6.144712679804048],[-75.37745215021532,6.144803105745547],[-75.3769295855505,6.144928420596179],[-75.37672502616465,6.145174417381204],[-75.37685050308356,6.145582298039739],[-75.37678179777335,6.145902932037664],[-75.37661318583756,6.146119868254176],[-75.37663171714927,6.1462322170044805],[-75.3769213511895,6.146464961670678],[-75.37712423574374,6.146870347471146],[-75.37735134148114,6.147119061768583],[-75.37761939272634,6.147190818981053],[-75.37771924718513,6.147423813314416],[-75.37788396689476,6.147593656411375],[-75.3779675061952,6.147939630823687],[-75.37778152966861,6.148312316665885],[-75.3774038970413,6.148554029816862],[-75.37705743539084,6.148644464090151],[-75.376723169346,6.148648932736603],[-75.3766718758949,6.148799256648838],[-75.37648984050655,6.148895242457209],[-75.37573246772703,6.148780357219581],[-75.37567497215014,6.148576279070763],[-75.37551938311513,6.1485276392631345],[-75.37532823371751,6.148360913005039],[-75.3752353976445,6.148384363641074],[-75.37517844771664,6.148490412040677],[-75.37470833223952,6.148354801418128],[-75.3744667854517,6.148478753009212],[-75.37421962704697,6.148722988705366],[-75.37385751081007,6.148838428358024],[-75.37268537206167,6.149496088854427],[-75.37166476971241,6.15025078472547],[-75.37060007143617,6.151327523477486],[-75.37038318959686,6.151803924681946],[-75.370010554935,6.152256648487918],[-75.36998894423239,6.1528697611061105],[-75.3696838654667,6.153428583801995],[-75.36949517731145,6.1535529155279525],[-75.36922990627312,6.153531869899859],[-75.36909822014819,6.153651095509529],[-75.36909630138037,6.153945945742821],[-75.36922625362524,6.154405638201718],[-75.36915422656875,6.154670777475725],[-75.3688364108223,6.154834591395308],[-75.36839712597511,6.154871040287163],[-75.36836852691955,6.155221694192326],[-75.36823981970142,6.155480562919957],[-75.36795213632685,6.155649553387617],[-75.36788081393965,6.155860179113689],[-75.3670166594046,6.156402326744446],[-75.36705376162764,6.156675645441044],[-75.36755203909186,6.157249803561084],[-75.36763267218704,6.15759448322836],[-75.36750106355956,6.158584276044478],[-75.36728222671427,6.158924128205861],[-75.36726430275,6.1591685151601006],[-75.3671472689186,6.159465240340114],[-75.36731976484876,6.160039853724179],[-75.36734054676539,6.160944691453495],[-75.3672142887181,6.161077992964965],[-75.36674016627893,6.161196830517537],[-75.36654951278985,6.1613731743493085],[-75.36666201183935,6.162001714900154],[-75.3666355453,6.162661364842362],[-75.36612295887342,6.163867817310335],[-75.3659572495775,6.163956385487178],[-75.36532946986668,6.163798107432982],[-75.36524081229241,6.163831314586378],[-75.3652032801512,6.163964404872359],[-75.36527208087445,6.164369427104781],[-75.36545733660556,6.1649821719759705],[-75.36541933518048,6.165400099630292],[-75.36516789741023,6.165666181754856],[-75.3651705531937,6.165770445821009],[-75.36510307495656,6.165830043047564],[-75.36415449539867,6.165803258569825],[-75.36395315548351,6.165933997896818],[-75.36369851470569,6.166509256951192],[-75.3637118128599,6.16682511287015],[-75.36364467564917,6.16716098104327],[-75.3635132859567,6.1674354911303375],[-75.36351635359728,6.1676409062483595],[-75.3635696972936,6.167975027153441],[-75.36380264525535,6.1682642749037955],[-75.364034014033,6.16835616836402],[-75.36421904578327,6.168538060286906],[-75.36449392030522,6.16851592396607],[-75.36479736132945,6.16868440357188],[-75.36527057706907,6.168791606814099],[-75.36566969329598,6.169202102890429],[-75.36621211515613,6.169152766535055],[-75.36638835371876,6.169378529826424],[-75.36647020297967,6.169625590339636],[-75.36716773076256,6.169460733526088],[-75.36740986743554,6.1694601469366726],[-75.36777420967924,6.169525971259803],[-75.36815554729546,6.169857500468194],[-75.36830726219293,6.1698892755856205],[-75.3683728097887,6.16998026401108],[-75.36834978668591,6.170062290429149],[-75.36798710024608,6.170256269479598],[-75.36860344192415,6.171499310462883],[-75.3684682054764,6.171880411536569],[-75.36773566811341,6.172956108068375],[-75.36754221935435,6.173093733459386],[-75.36729588845925,6.173148125641725],[-75.36624924662726,6.173212963250934],[-75.36608334015997,6.173868517054907],[-75.36564337429105,6.174439428631229],[-75.36548118846838,6.174585572643669],[-75.36486764990858,6.174675178139265],[-75.36472168736765,6.17494379845065],[-75.36448444300262,6.17514739262847],[-75.36431002430676,6.175403691805984],[-75.36420033094544,6.175655587217615],[-75.36422306237077,6.175855618669457],[-75.36377541156159,6.176081211227735],[-75.3636230378711,6.176499871120094],[-75.36322929177703,6.176807642796342],[-75.36266415272851,6.177017312653812],[-75.36259227115912,6.177104166115167],[-75.36230780796991,6.177558823624064],[-75.3623614890392,6.1780582157582025],[-75.36222038501526,6.17817091775853],[-75.36225687600302,6.178340504377174],[-75.36212432524879,6.178528147303564],[-75.36198334510337,6.178631538780419],[-75.36185893368892,6.1786352274156515],[-75.36178056409634,6.178798732554632],[-75.3614882958741,6.178785197040906],[-75.36145715497372,6.178891932630648],[-75.36164837769424,6.179122150663752],[-75.36164898199152,6.17930686456236],[-75.36224803220739,6.1796186999746645],[-75.3626592872962,6.179935450981811],[-75.36291645270258,6.1802594856697315],[-75.36304634775358,6.180655327712664],[-75.36295519366993,6.180863124840853],[-75.36267169880462,6.181060349505297],[-75.36182600123327,6.181229733493622],[-75.3614538327231,6.181515024428913],[-75.36118829361193,6.18159876179482],[-75.36131334623698,6.181763657119073],[-75.36132778375972,6.182251849557045],[-75.36107990981519,6.183475284656163],[-75.36112286986486,6.183589944803065],[-75.36102857267923,6.183851136492674],[-75.36108116543451,6.184890686069382],[-75.36111604951363,6.185078273161472],[-75.36146725800907,6.185397259197085],[-75.3612067296366,6.186204627709786],[-75.3609588678909,6.18653351330008],[-75.36059178801935,6.1872152207915345],[-75.36016920558977,6.187613829200756],[-75.35973311182464,6.187729171429746],[-75.35896118124192,6.187617806227451],[-75.3583935478102,6.188080645039022],[-75.35818737832648,6.188490074178737],[-75.35790381212571,6.188763969700987],[-75.35758734779411,6.188789354018868],[-75.35637508375135,6.189554797126309],[-75.3525703565673,6.191130316709998],[-75.3509255465898,6.19148333875646],[-75.35079201552415,6.191749670908684],[-75.35077795063289,6.1921885947460975],[-75.35068283266733,6.192304983098048],[-75.3493367677469,6.191782659654815],[-75.34920535925728,6.1908612631648126],[-75.34927617252133,6.19051796961411],[-75.34949198150268,6.190306487151499],[-75.34994080729808,6.190170190245815],[-75.35044976962193,6.1893384340181115],[-75.35065069390916,6.189136548029949],[-75.35154331739989,6.18889822774353],[-75.35158190767449,6.188594710965455],[-75.35150551742936,6.188132789995571],[-75.3515990583143,6.1878722288870245],[-75.35243532881451,6.187669161632787]]],[[[-75.36573839252307,6.160666040660621],[-75.36566206735556,6.16074790745908],[-75.36552062215523,6.1608595266488075],[-75.36560456475335,6.160756920990118],[-75.36573839252307,6.160666040660621]]]]}}]}
