{"type":"FeatureCollection","features":[{"type":"Feature","id":1,"properties":{"layer_id":"wetlands","name":"Ecosistema Estrátegico Humedales","category":"Ecosistema Estrátegico Humedales","use":" ","source_id":"gis-wetlands","provenance":"institutional","exact_site":false},"geometry":{"type":"Polygon","coordinates":[[[-75.38583442590634,6.158412566530557],[-75.38484139650386,6.15754993648165],[-75.38420378098118,6.157552454706186],[-75.38395526600375,6.157321285212214],[-75.38328799188201,6.157362983407703],[-75.38281737336861,6.156950929687782],[-75.38228152669157,6.156936772038697],[-75.38209281072275,6.1565798785178085],[-75.38088309309649,6.156008771146357],[-75.38062130249955,6.157095881436966],[-75.38030302202627,6.157411436332203],[-75.38031226386008,6.156676333790742],[-75.38059218751155,6.156312076430945],[-75.38064746205411,6.1557518908803734],[-75.37926319666379,6.155525740348184],[-75.37857034380018,6.155121996653185],[-75.37832676706084,6.155863820098747],[-75.37840327953849,6.154994644558847],[-75.37785629992162,6.154578346015552],[-75.37808774531375,6.154523605163071],[-75.37945274522555,6.1554156737043035],[-75.38060975114624,6.155461403484264],[-75.38089005973698,6.155353560237459],[-75.38139455390301,6.154516827363878],[-75.38174857930662,6.1543341440529415],[-75.38165664495686,6.154855331285893],[-75.38112605202348,6.155132894865518],[-75.3808453490904,6.15556915065866],[-75.38089038078836,6.155807277413544],[-75.38234458439382,6.156476813315752],[-75.38267922100451,6.1564069367938465],[-75.38260916049454,6.156654843352074],[-75.3833120028346,6.15703702852025],[-75.3835957619255,6.156971751738077],[-75.3843349681391,6.15727132521776],[-75.38543790944257,6.157079899798833],[-75.3858385132665,6.156420899196887],[-75.386031852918,6.156615606858515],[-75.38666390735804,6.15648991590281],[-75.38657414041002,6.156722630750928],[-75.38532258578729,6.1572704805435805],[-75.38542918867498,6.157862220942437],[-75.38609981952726,6.158215777577038],[-75.38583442590634,6.158412566530557]]]}},{"type":"Feature","id":2,"properties":{"layer_id":"wetlands","name":"Ecosistema Estrátegico Humedales","category":"Ecosistema Estrátegico Humedales","use":" ","source_id":"gis-wetlands","provenance":"institutional","exact_site":false},"geometry":{"type":"Polygon","coordinates":[[[-75.39491862166591,6.049483145990577],[-75.39502403875383,6.04930448196062],[-75.39547204506361,6.049233582621681],[-75.39539223891629,6.049497431257179],[-75.39491862166591,6.049483145990577]]]}},{"type":"Feature","id":3,"properties":{"layer_id":"wetlands","name":"Ecosistema Estrátegico Humedales","category":"Ecosistema Estrátegico Humedales","use":" ","source_id":"gis-wetlands","provenance":"institutional","exact_site":false},"geometry":{"type":"Polygon","coordinates":[[[-75.35554710191722,6.162640106868313],[-75.35578748905552,6.162708690837212],[-75.35583283830076,6.163199664850771],[-75.35626028075639,6.16378610519696],[-75.35626298075933,6.164221032135974],[-75.35570637861602,6.16516584222328],[-75.35599815111405,6.166205546187057],[-75.3557568162378,6.166650929858223],[-75.35555406104673,6.166671062887209],[-75.3551466017468,6.1662051078587],[-75.35488560238939,6.165141351383664],[-75.355033203539,6.164116732377762],[-75.35481424809359,6.163011211927609],[-75.35554710191722,6.162640106868313]]]}},{"type":"Feature","id":4,"properties":{"layer_id":"wetlands","name":"Ecosistema Estrátegico Humedales","category":"Ecosistema Estrátegico Humedales","use":" ","source_id":"gis-wetlands","provenance":"institutional","exact_site":false},"geometry":{"type":"Polygon","coordinates":[[[-75.34576088621291,6.138457276259308],[-75.34603620768726,6.138902563399902],[-75.34587400364593,6.139343765983259],[-75.34516438962594,6.138858394197458],[-75.34576088621291,6.138457276259308]]]}},{"type":"Feature","id":5,"properties":{"layer_id":"wetlands","name":"Ecosistema Estrátegico Humedales","category":"Ecosistema Estrátegico Humedales","use":" ","source_id":"gis-wetlands","provenance":"institutional","exact_site":false},"geometry":{"type":"Polygon","coordinates":[[[-75.38955570022546,6.144277188769331],[-75.38968463239071,6.144939572289689],[-75.3893984636514,6.1450239942129965],[-75.38926507441583,6.1443347301430755],[-75.38955570022546,6.144277188769331]]]}},{"type":"Feature","id":6,"properties":{"layer_id":"wetlands","name":"Ecosistema Estrátegico Humedales","category":"Ecosistema Estrátegico Humedales","use":" ","source_id":"gis-wetlands","provenance":"institutional","exact_site":false},"geometry":{"type":"Polygon","coordinates":[[[-75.43258906037693,6.139351985432436],[-75.43156429989047,6.138014762412532],[-75.43152218057774,6.137567690480792],[-75.43227413627785,6.137961619957473],[-75.43261858423672,6.137877652646418],[-75.43262739420291,6.1381006928900606],[-75.43294238292704,6.138077087011463],[-75.43294370401233,6.138785133081135],[-75.43279124837456,6.138921062009498],[-75.43292640226409,6.1391467727414035],[-75.43258906037693,6.139351985432436]]]}},{"type":"Feature","id":7,"properties":{"layer_id":"wetlands","name":"Ecosistema Estrátegico Humedales","category":"Ecosistema Estrátegico Humedales","use":" ","source_id":"gis-wetlands","provenance":"institutional","exact_site":false},"geometry":{"type":"Polygon","coordinates":[[[-75.3503093792937,6.190671135570357],[-75.34985728150194,6.190295180394362],[-75.34984300513433,6.1895718242878495],[-75.35001908513844,6.1889959950437206],[-75.35073768230856,6.188991235628351],[-75.35091852154949,6.188677147375564],[-75.35039028139319,6.188324986797627],[-75.35058063802835,6.187634943411143],[-75.35012378129224,6.187673014728105],[-75.35000956694311,6.1875254879580925],[-75.35046166521377,6.18692586372537],[-75.35040455793698,6.186516596773557],[-75.35018564769024,6.186478524958627],[-75.35001432619981,6.186692676906338],[-75.34952510947691,6.18603784935854],[-75.35003907294244,6.186043559619415],[-75.35050163953268,6.185341142335279],[-75.35053780806714,6.18640714117198],[-75.3509090032097,6.1865784628314175],[-75.35097087003422,6.186859239065629],[-75.35083286081456,6.1874017561196135],[-75.35110887844073,6.187406514917615],[-75.35158001207364,6.186878274694196],[-75.35156097578083,6.186116846653375],[-75.35171326183105,6.185912213505048],[-75.3529029922448,6.186050221953306],[-75.35335508964556,6.186654604999029],[-75.35388435303203,6.188195330323106],[-75.35353231179438,6.188448623290662],[-75.35292697709808,6.188354397252566],[-75.3524387118385,6.188508586445549],[-75.3522645345601,6.188776989446167],[-75.35224454720662,6.189576487939792],[-75.3511052617787,6.190004791123717],[-75.3503093792937,6.190671135570357]]]}},{"type":"Feature","id":8,"properties":{"layer_id":"wetlands","name":"Ecosistema Estrátegico Humedales","category":"Ecosistema Estrátegico Humedales","use":" ","source_id":"gis-wetlands","provenance":"institutional","exact_site":false},"geometry":{"type":"MultiPolygon","coordinates":[[[[-75.38082420146297,6.117288534532034],[-75.38107007202073,6.117137915739183],[-75.38059655185423,6.116753294456918],[-75.380719815084,6.116497344794622],[-75.38043956555097,6.115714235990053],[-75.38021349915512,6.115200422751364],[-75.37969138861868,6.114692879481504],[-75.38056772844145,6.115073971367848],[-75.38074800815181,6.115310813782744],[-75.38117320816703,6.115636998942585],[-75.38168987756622,6.115840493652413],[-75.38163437815685,6.116013804610175],[-75.38177247636867,6.1162396509710035],[-75.38165737575036,6.1170627549895995],[-75.38109060178817,6.11689191204091],[-75.38137842506404,6.117328936781946],[-75.3812323186541,6.117644612010831],[-75.38085155806677,6.117651213562449],[-75.38082420146297,6.117288534532034]]],[[[-75.38175101142255,6.115823123346581],[-75.38116926446638,6.115587255789097],[-75.3806403985063,6.11508336252743],[-75.38092275329478,6.1148613839953105],[-75.38097875727101,6.114304406116906],[-75.38182100949024,6.113960794009854],[-75.38212759258579,6.11525618217804],[-75.38174424220072,6.115633124993287],[-75.38223259411792,6.115984988619934],[-75.38180104394915,6.116201836300273],[-75.38175101142255,6.115823123346581]]]]}},{"type":"Feature","id":9,"properties":{"layer_id":"wetlands","name":"Ecosistema Estrátegico Humedales","category":"Ecosistema Estrátegico Humedales","use":" ","source_id":"gis-wetlands","provenance":"institutional","exact_site":false},"geometry":{"type":"MultiPolygon","coordinates":[[[[-75.48500490075429,6.268785108094926],[-75.48467438609518,6.268184404991007],[-75.48465663200669,6.26783849984861],[-75.48538998944971,6.2686294669293],[-75.48531544468545,6.268784274304993],[-75.48500490075429,6.268785108094926]]],[[[-75.48625163830998,6.269460016180532],[-75.48563129653706,6.269169880301816],[-75.48548731747977,6.268960744056725],[-75.48636887238276,6.269322889084441],[-75.48625163830998,6.269460016180532]]]]}},{"type":"Feature","id":10,"properties":{"layer_id":"wetlands","name":"Ecosistema Estrátegico Humedales","category":"Ecosistema Estrátegico Humedales","use":" ","source_id":"gis-wetlands","provenance":"institutional","exact_site":false},"geometry":{"type":"Polygon","coordinates":[[[-75.39400899810212,6.148459285758848],[-75.39324219749412,6.148401855390827],[-75.39280115412484,6.147867150889223],[-75.39334643839324,6.146474667965253],[-75.39380738657188,6.14655198851697],[-75.39398779671254,6.146834747184204],[-75.39413843527004,6.1482274292938195],[-75.39400899810212,6.148459285758848]]]}},{"type":"Feature","id":11,"properties":{"layer_id":"wetlands","name":"Ecosistema Estrátegico Humedales","category":"Ecosistema Estrátegico Humedales","use":" ","source_id":"gis-wetlands","provenance":"institutional","exact_site":false},"geometry":{"type":"Polygon","coordinates":[[[-75.39921746166449,6.148038448974233],[-75.39854045878756,6.147955927048416],[-75.39760618158422,6.147433927589888],[-75.39813912135804,6.147243171725474],[-75.39809471882907,6.147069150062097],[-75.39891460458998,6.146946571527154],[-75.39921746166449,6.148038448974233]]]}},{"type":"Feature","id":12,"properties":{"layer_id":"wetlands","name":"Ecosistema Estrátegico Humedales","category":"Ecosistema Estrátegico Humedales","use":" ","source_id":"gis-wetlands","provenance":"institutional","exact_site":false},"geometry":{"type":"Polygon","coordinates":[[[-75.39646141810687,6.146759554218716],[-75.3961917386054,6.145939696821448],[-75.39716436367515,6.146508295367744],[-75.39646141810687,6.146759554218716]]]}},{"type":"Feature","id":13,"properties":{"layer_id":"wetlands","name":"Ecosistema Estrátegico Humedales","category":"Ecosistema Estrátegico Humedales","use":" ","source_id":"gis-wetlands","provenance":"institutional","exact_site":false},"geometry":{"type":"Polygon","coordinates":[[[-75.39230398584351,6.052636662333324],[-75.39169759933192,6.051667007348349],[-75.39272397196773,6.051618596482146],[-75.39297869379158,6.051820814619357],[-75.39306384457578,6.052252112671156],[-75.39251922425754,6.052320406041456],[-75.39230398584351,6.052636662333324]]]}},{"type":"Feature","id":14,"properties":{"layer_id":"wetlands","name":"Ecosistema Estrátegico Humedales","category":"Ecosistema Estrátegico Humedales","use":" ","source_id":"gis-wetlands","provenance":"institutional","exact_site":false},"geometry":{"type":"Polygon","coordinates":[[[-75.40693032463209,6.147754887049389],[-75.40531371789423,6.147316402988943],[-75.40532309346683,6.146278291476547],[-75.40558105498481,6.146222637043756],[-75.40597473907332,6.146929663311154],[-75.40628764311349,6.146864304623488],[-75.40681418297773,6.147178726498315],[-75.40693032463209,6.147754887049389]]]}},{"type":"Feature","id":15,"properties":{"layer_id":"wetlands","name":"Ecosistema Estrátegico Humedales","category":"Ecosistema Estrátegico Humedales","use":" ","source_id":"gis-wetlands","provenance":"institutional","exact_site":false},"geometry":{"type":"Polygon","coordinates":[[[-75.34804442188005,6.19528970549247],[-75.34725625868305,6.193526327544073],[-75.34758983876162,6.193094977527827],[-75.34830224774683,6.192697224996184],[-75.34825241120545,6.193459009584676],[-75.34845348504639,6.194027207542197],[-75.34819470881581,6.194555971461566],[-75.34856337955813,6.195205700455727],[-75.34804442188005,6.19528970549247]]]}},{"type":"Feature","id":16,"properties":{"layer_id":"wetlands","name":"Ecosistema Estrátegico Humedales","category":"Ecosistema Estrátegico Humedales","use":" ","source_id":"gis-wetlands","provenance":"institutional","exact_site":false},"geometry":{"type":"Polygon","coordinates":[[[-75.390156098958,6.1579769382946745],[-75.38973079273904,6.157936652090018],[-75.39030684289413,6.157908030990102],[-75.39090816367978,6.157529583688213],[-75.39099723218794,6.157207890922928],[-75.39102367370035,6.15629745998138],[-75.39075740811988,6.155154968361796],[-75.39021319293644,6.155066690259562],[-75.39056923397995,6.154929570734227],[-75.39103573842372,6.154385743895659],[-75.39074236845154,6.154039158400966],[-75.39128049595786,6.153621640204986],[-75.39129605315465,6.152949950949398],[-75.3917545082498,6.152854624594512],[-75.39287236244276,6.153777066419756],[-75.3938986768308,6.154015642876068],[-75.39390658197499,6.154443840872538],[-75.39438538342148,6.15462521087426],[-75.39461486684029,6.155113744020976],[-75.39528163078683,6.155226910268746],[-75.39459915773695,6.155256149438399],[-75.39445435403785,6.15561472050408],[-75.39438766995085,6.1550878978210015],[-75.39369635859781,6.154322657705656],[-75.39231317160575,6.153766165165937],[-75.39172331812141,6.153244348738141],[-75.3913809287688,6.153957027349968],[-75.39142045026234,6.154479325455876],[-75.39109210685011,6.154839495846071],[-75.39135417809949,6.156297731323664],[-75.39128172214417,6.157311318732998],[-75.39071422538557,6.157915861819695],[-75.39064497389475,6.158366096148437],[-75.39040941698754,6.158362083361941],[-75.390156098958,6.1579769382946745]]]}},{"type":"Feature","id":17,"properties":{"layer_id":"wetlands","name":"Ecosistema Estrátegico Humedales","category":"Ecosistema Estrátegico Humedales","use":" ","source_id":"gis-wetlands","provenance":"institutional","exact_site":false},"geometry":{"type":"MultiPolygon","coordinates":[[[[-75.42641672835289,6.14370252449811],[-75.4255105251517,6.142563878325696],[-75.42622136872075,6.142992625494174],[-75.42664406861415,6.142876749020355],[-75.4268274284048,6.142122911523282],[-75.42722638015059,6.141819202508432],[-75.428063660621,6.142901868934549],[-75.42792155919749,6.143411699974393],[-75.42722597459289,6.143348874594509],[-75.42641672835289,6.14370252449811]]],[[[-75.42507532581016,6.14371561090277],[-75.42401115052989,6.142172992349708],[-75.42416860505618,6.142064960668972],[-75.42511318544199,6.1424357864598225],[-75.42568426786464,6.143230776605155],[-75.42561034682849,6.143675376999699],[-75.42507532581016,6.14371561090277]]]]}},{"type":"Feature","id":18,"properties":{"layer_id":"wetlands","name":"Ecosistema Estrátegico Humedales","category":"Ecosistema Estrátegico Humedales","use":" ","source_id":"gis-wetlands","provenance":"institutional","exact_site":false},"geometry":{"type":"Polygon","coordinates":[[[-75.34490270218537,6.15137548984626],[-75.34373683007176,6.150735294141708],[-75.34341002198119,6.150789648904627],[-75.34338633682245,6.150475879180583],[-75.34360405334063,6.150373943511159],[-75.3438664277627,6.150560851926192],[-75.3440151980967,6.150409327060516],[-75.34446973233959,6.15100528334835],[-75.34484444324669,6.150994826941033],[-75.34490270218537,6.15137548984626]]]}},{"type":"Feature","id":19,"properties":{"layer_id":"wetlands","name":"Ecosistema Estrátegico Humedales","category":"Ecosistema Estrátegico Humedales","use":" ","source_id":"gis-wetlands","provenance":"institutional","exact_site":false},"geometry":{"type":"MultiPolygon","coordinates":[[[[-75.38689259556168,6.104243163594922],[-75.3860217993348,6.104239540827942],[-75.38601156784577,6.103962102063871],[-75.38688359795673,6.104080534317362],[-75.38689259556168,6.104243163594922]]],[[[-75.38735794770626,6.1044173117350935],[-75.38693350023317,6.104240576173712],[-75.38691876519104,6.104077004389506],[-75.38736132080713,6.104113815599542],[-75.38735794770626,6.1044173117350935]]]]}},{"type":"Feature","id":20,"properties":{"layer_id":"wetlands","name":"Ecosistema Estrátegico Humedales","category":"Ecosistema Estrátegico Humedales","use":" ","source_id":"gis-wetlands","provenance":"institutional","exact_site":false},"geometry":{"type":"Polygon","coordinates":[[[-75.37062678084797,6.159795056844204],[-75.3707937312475,6.159653527190542],[-75.37074515836183,6.159333125374257],[-75.37129578830333,6.159726459858745],[-75.37072811723196,6.160191872965814],[-75.37062678084797,6.159795056844204]]]}},{"type":"Feature","id":21,"properties":{"layer_id":"wetlands","name":"Ecosistema Estrátegico Humedales","category":"Ecosistema Estrátegico Humedales","use":" ","source_id":"gis-wetlands","provenance":"institutional","exact_site":false},"geometry":{"type":"Polygon","coordinates":[[[-75.35258651926227,6.15317872405197],[-75.35310966977877,6.153413480898565],[-75.35310110604016,6.153831296579241],[-75.35266244731451,6.1542852220252495],[-75.35250942673737,6.154256884051706],[-75.35257434352908,6.153417948942197],[-75.35234472428583,6.153338765857641],[-75.35258651926227,6.15317872405197]]]}}]}
