{
  "type": "FeatureCollection",
  "name": "cornare-decision-corridor",
  "source": {
    "id": "dane-mgn-2025",
    "title": "DANE Marco Geoestadístico Nacional 2025, capa Municipio",
    "url": "https://geoportal.dane.gov.co/mparcgis/rest/services/Divipola/Serv_DIVIPOLA_MGN_2025/FeatureServer/317/query?where=MPIO_CDPMP+IN+('05318','05440','05615')&outFields=DPTO_CCDGO,MPIO_CCDGO,MPIO_CDPMP,MPIO_CNMBRE,DPTO_CNMBRE,MPIO_NANO&returnGeometry=true&outSR=4326&f=geojson",
    "accessed": "2026-10-07",
    "simplify_degrees": 0.0015,
    "note": "Geometría oficial simplificada para el mapa del prototipo. No se fabricaron límites."
  },
  "features": [
    {
      "type": "Feature",
      "properties": {
        "id": "guarne",
        "name": "Guarne",
        "divipola": "05318",
        "source_name": "GUARNE",
        "department": "ANTIOQUIA",
        "mgn_year": 2025,
        "simplify_degrees": 0.0015,
        "provenance": "institutional",
        "source_id": "dane-mgn-2025"
      },
      "geometry": {
        "type": "Polygon",
        "coordinates": [
          [
            [
              -75.40888026928036,
              6.348964600707892
            ],
            [
              -75.41552264595657,
              6.348523773690479
            ],
            [
              -75.4167028831618,
              6.343545538184154
            ],
            [
              -75.4147665297861,
              6.337635212691221
            ],
            [
              -75.42304933298811,
              6.332716539129008
            ],
            [
              -75.42309921108568,
              6.32630839116339
            ],
            [
              -75.42079395975304,
              6.32379455265225
            ],
            [
              -75.42435994099776,
              6.315321569665152
            ],
            [
              -75.4318174648838,
              6.316428138670121
            ],
            [
              -75.43576425216247,
              6.32175167696533
            ],
            [
              -75.44312320742705,
              6.323120270374445
            ],
            [
              -75.45123429303408,
              6.335086368602191
            ],
            [
              -75.45115724716567,
              6.32988463566837
            ],
            [
              -75.45197153109382,
              6.331596698403443
            ],
            [
              -75.4560565296789,
              6.32674902683949
            ],
            [
              -75.46438626180708,
              6.324131812818036
            ],
            [
              -75.46685462576573,
              6.319182549799306
            ],
            [
              -75.47581985897165,
              6.317258454843832
            ],
            [
              -75.4791329453978,
              6.318428739606073
            ],
            [
              -75.47881684057381,
              6.320860224997917
            ],
            [
              -75.48442674943357,
              6.320149415394944
            ],
            [
              -75.48345390374834,
              6.311001494359351
            ],
            [
              -75.4910303098755,
              6.3056968763957
            ],
            [
              -75.49005926082219,
              6.300762453557345
            ],
            [
              -75.48714480840931,
              6.298761462752284
            ],
            [
              -75.49106345414259,
              6.293893867437799
            ],
            [
              -75.4940627102809,
              6.29763574254847
            ],
            [
              -75.50125750368642,
              6.296740783555391
            ],
            [
              -75.4990634297385,
              6.295014036048666
            ],
            [
              -75.50078978288457,
              6.290236167231218
            ],
            [
              -75.4980328088597,
              6.288598204786333
            ],
            [
              -75.49531926931178,
              6.278786488413989
            ],
            [
              -75.4923628071511,
              6.276290281150965
            ],
            [
              -75.49626455915376,
              6.270473160434563
            ],
            [
              -75.49278717162952,
              6.267937668914581
            ],
            [
              -75.48479032486824,
              6.251971841154868
            ],
            [
              -75.47318936244972,
              6.241628181573188
            ],
            [
              -75.47228872070957,
              6.2360482585016594
            ],
            [
              -75.47679934141553,
              6.234091165704547
            ],
            [
              -75.47863821672541,
              6.230391089237329
            ],
            [
              -75.48512185377797,
              6.231535924707265
            ],
            [
              -75.49168569607622,
              6.228593779008788
            ],
            [
              -75.48721549330207,
              6.226525477385845
            ],
            [
              -75.49086749908366,
              6.217528012602147
            ],
            [
              -75.48503620833048,
              6.211161158426456
            ],
            [
              -75.48597505634842,
              6.205221563103291
            ],
            [
              -75.47768327627466,
              6.20110833314137
            ],
            [
              -75.47486848393709,
              6.1955380256443116
            ],
            [
              -75.4710707138081,
              6.197321703029189
            ],
            [
              -75.46599045655353,
              6.1950216601327845
            ],
            [
              -75.46409434414136,
              6.198420794451799
            ],
            [
              -75.45553650442798,
              6.1991312114907045
            ],
            [
              -75.44994964456015,
              6.201538067752779
            ],
            [
              -75.4487568390158,
              6.2046423316414385
            ],
            [
              -75.4333577372604,
              6.2102547171582545
            ],
            [
              -75.43419491117845,
              6.2059871124900265
            ],
            [
              -75.4311135480595,
              6.200820156961837
            ],
            [
              -75.4234278285532,
              6.199496447911611
            ],
            [
              -75.41771801976773,
              6.2055711634359225
            ],
            [
              -75.41457878713203,
              6.203841866508396
            ],
            [
              -75.41333531207368,
              6.209425782594543
            ],
            [
              -75.40876451138223,
              6.2147356027061065
            ],
            [
              -75.40545520596817,
              6.213214725870357
            ],
            [
              -75.39419055689035,
              6.215220390613597
            ],
            [
              -75.39079796410829,
              6.212541396705874
            ],
            [
              -75.38657777435509,
              6.212780887751464
            ],
            [
              -75.37875872858473,
              6.219292447160007
            ],
            [
              -75.3809228499822,
              6.228262067740955
            ],
            [
              -75.37945731120868,
              6.232812501811871
            ],
            [
              -75.38622499667872,
              6.246370180632749
            ],
            [
              -75.3865670421738,
              6.254037030112858
            ],
            [
              -75.3912218497843,
              6.264709442807786
            ],
            [
              -75.39536912771939,
              6.26726565039308
            ],
            [
              -75.3875055910525,
              6.271437243047238
            ],
            [
              -75.38905575029497,
              6.274595674492374
            ],
            [
              -75.39360674491519,
              6.275807027567166
            ],
            [
              -75.39127184735787,
              6.282780962797349
            ],
            [
              -75.395494290986,
              6.285688080459996
            ],
            [
              -75.38707876428992,
              6.298534437637792
            ],
            [
              -75.38669165297608,
              6.3097613107308765
            ],
            [
              -75.39104385026553,
              6.321772404708718
            ],
            [
              -75.38584938740291,
              6.328290697893999
            ],
            [
              -75.39142567588806,
              6.335067364727216
            ],
            [
              -75.39979468508665,
              6.335969392568924
            ],
            [
              -75.40149797127447,
              6.3430874437366285
            ],
            [
              -75.40888026928036,
              6.348964600707892
            ]
          ]
        ]
      }
    },
    {
      "type": "Feature",
      "properties": {
        "id": "marinilla",
        "name": "Marinilla",
        "divipola": "05440",
        "source_name": "MARINILLA",
        "department": "ANTIOQUIA",
        "mgn_year": 2025,
        "simplify_degrees": 0.0015,
        "provenance": "institutional",
        "source_id": "dane-mgn-2025"
      },
      "geometry": {
        "type": "Polygon",
        "coordinates": [
          [
            [
              -75.35269008694866,
              6.158600020022693
            ],
            [
              -75.35141097659289,
              6.144317092965787
            ],
            [
              -75.34924946390504,
              6.145871813856822
            ],
            [
              -75.34482707399997,
              6.140464947769414
            ],
            [
              -75.34521133944878,
              6.127871320120093
            ],
            [
              -75.34776328901631,
              6.125415048393182
            ],
            [
              -75.34596528438948,
              6.12294450511994
            ],
            [
              -75.32906855870795,
              6.117221278188531
            ],
            [
              -75.3192349710356,
              6.110744358743297
            ],
            [
              -75.30728825936507,
              6.111601529175517
            ],
            [
              -75.30412720843032,
              6.113712393010525
            ],
            [
              -75.30929877681137,
              6.120389661178369
            ],
            [
              -75.30731241508227,
              6.133765626842123
            ],
            [
              -75.30795660377407,
              6.146752468065934
            ],
            [
              -75.31171327235279,
              6.150022518867291
            ],
            [
              -75.31006400370273,
              6.153690638641146
            ],
            [
              -75.29351126657377,
              6.151011155151177
            ],
            [
              -75.28831014179968,
              6.157993976523234
            ],
            [
              -75.28281566115606,
              6.155400730470958
            ],
            [
              -75.27664977104911,
              6.160784336462155
            ],
            [
              -75.2705425679265,
              6.161014922501182
            ],
            [
              -75.26775666093994,
              6.169059398874849
            ],
            [
              -75.25662166491202,
              6.168651191508034
            ],
            [
              -75.25285532326666,
              6.170767443442488
            ],
            [
              -75.25486525321429,
              6.174450319853258
            ],
            [
              -75.2511842749451,
              6.181246877199306
            ],
            [
              -75.25479457640637,
              6.191600730870945
            ],
            [
              -75.24491935717731,
              6.195160434683408
            ],
            [
              -75.24934452467545,
              6.203223499011702
            ],
            [
              -75.24887302375987,
              6.207821689357818
            ],
            [
              -75.28372377059708,
              6.258546475821323
            ],
            [
              -75.28978495029605,
              6.260783324882112
            ],
            [
              -75.29271191804753,
              6.258915638781537
            ],
            [
              -75.29914427832443,
              6.263062175605812
            ],
            [
              -75.30738595212836,
              6.241469698867855
            ],
            [
              -75.32857967717439,
              6.23220597950994
            ],
            [
              -75.32828959297171,
              6.228701457452745
            ],
            [
              -75.32177055598055,
              6.227901771159686
            ],
            [
              -75.32754412993069,
              6.224525959818955
            ],
            [
              -75.33071967070248,
              6.218974200750676
            ],
            [
              -75.32718941458671,
              6.2178778473952905
            ],
            [
              -75.3304784737548,
              6.213865197384286
            ],
            [
              -75.3294698292786,
              6.210334938573688
            ],
            [
              -75.32743061243269,
              6.211606711484327
            ],
            [
              -75.32663027486052,
              6.207933925857188
            ],
            [
              -75.32213522825907,
              6.206070126769903
            ],
            [
              -75.32727712166934,
              6.206212655383097
            ],
            [
              -75.32549006841288,
              6.200774743494748
            ],
            [
              -75.32849407394781,
              6.200796667795059
            ],
            [
              -75.32905321457235,
              6.198669742968252
            ],
            [
              -75.34507093175966,
              6.20070895891573
            ],
            [
              -75.34416095921125,
              6.197595320201306
            ],
            [
              -75.34764736223485,
              6.197408941190896
            ],
            [
              -75.34738423739361,
              6.192979672880361
            ],
            [
              -75.36006904232067,
              6.185897231857212
            ],
            [
              -75.36412554722062,
              6.174648649161402
            ],
            [
              -75.35806902618839,
              6.172627669028679
            ],
            [
              -75.3565792158148,
              6.1616242807867065
            ],
            [
              -75.35269008694866,
              6.158600020022693
            ]
          ]
        ]
      }
    },
    {
      "type": "Feature",
      "properties": {
        "id": "rionegro",
        "name": "Rionegro",
        "divipola": "05615",
        "source_name": "RIONEGRO",
        "department": "ANTIOQUIA",
        "mgn_year": 2025,
        "simplify_degrees": 0.0015,
        "provenance": "institutional",
        "source_id": "dane-mgn-2025"
      },
      "geometry": {
        "type": "Polygon",
        "coordinates": [
          [
            [
              -75.4856981603229,
              6.205274772156598
            ],
            [
              -75.48281284838271,
              6.197980115656552
            ],
            [
              -75.48555013581245,
              6.1920420878948
            ],
            [
              -75.48125947406731,
              6.18513536107448
            ],
            [
              -75.48539511162369,
              6.1816581954344265
            ],
            [
              -75.48433209836821,
              6.17655313118367
            ],
            [
              -75.47474413184983,
              6.170792806496396
            ],
            [
              -75.47329415190944,
              6.165743721705522
            ],
            [
              -75.47638393763918,
              6.148472626424801
            ],
            [
              -75.47337337529575,
              6.144933729407526
            ],
            [
              -75.4768162342479,
              6.142202776003994
            ],
            [
              -75.4746136918751,
              6.137864543935226
            ],
            [
              -75.47533620743388,
              6.123948382233101
            ],
            [
              -75.47364092524163,
              6.121019933158644
            ],
            [
              -75.47671828726112,
              6.114906486740055
            ],
            [
              -75.47338971925706,
              6.112221228874812
            ],
            [
              -75.47147468741167,
              6.1195382660197115
            ],
            [
              -75.45938886432197,
              6.111315059796375
            ],
            [
              -75.45871337111419,
              6.10902810446575
            ],
            [
              -75.46777688009053,
              6.102414066964528
            ],
            [
              -75.45572410514819,
              6.096855667544414
            ],
            [
              -75.44741592721414,
              6.08372184744996
            ],
            [
              -75.44611481709956,
              6.079114548179655
            ],
            [
              -75.45124529830338,
              6.072101773358919
            ],
            [
              -75.44536454537297,
              6.068911250472993
            ],
            [
              -75.44879780222539,
              6.064694838138664
            ],
            [
              -75.44797513880565,
              6.062208431503168
            ],
            [
              -75.4439845083163,
              6.0589208509633155
            ],
            [
              -75.43848436558687,
              6.065417782194133
            ],
            [
              -75.43341906619202,
              6.062713533030366
            ],
            [
              -75.42711144607483,
              6.067145216014313
            ],
            [
              -75.41726739391936,
              6.0685519375477055
            ],
            [
              -75.40671571130127,
              6.065013010886019
            ],
            [
              -75.405734971215,
              6.062614673354559
            ],
            [
              -75.40386363166317,
              6.065173368376884
            ],
            [
              -75.38670406051665,
              6.0576364701876555
            ],
            [
              -75.38794436541787,
              6.060488258771279
            ],
            [
              -75.3844379775582,
              6.065398162074375
            ],
            [
              -75.38540558516286,
              6.073412076839407
            ],
            [
              -75.38098906934619,
              6.078815367629126
            ],
            [
              -75.38051005491559,
              6.0873274597016
            ],
            [
              -75.3828524381401,
              6.092888819072966
            ],
            [
              -75.38700070422283,
              6.095087496890268
            ],
            [
              -75.39026279594458,
              6.106756296539506
            ],
            [
              -75.38162135894424,
              6.117421043005711
            ],
            [
              -75.37382924289096,
              6.120395110363174
            ],
            [
              -75.36571125192887,
              6.118477948610585
            ],
            [
              -75.35341544118597,
              6.123236676110734
            ],
            [
              -75.35458219287142,
              6.133719650130924
            ],
            [
              -75.3506032368968,
              6.146151458729295
            ],
            [
              -75.35224370205015,
              6.1573222454628675
            ],
            [
              -75.3565792158148,
              6.1616242807867065
            ],
            [
              -75.35817504274775,
              6.172800643367756
            ],
            [
              -75.36414747421583,
              6.174769248982683
            ],
            [
              -75.36006904232067,
              6.185897231857212
            ],
            [
              -75.34738423739361,
              6.192979672880361
            ],
            [
              -75.34764736223485,
              6.197408941190896
            ],
            [
              -75.34416095921125,
              6.197595320201306
            ],
            [
              -75.34507093175966,
              6.20070895891573
            ],
            [
              -75.32905321457235,
              6.198669742968252
            ],
            [
              -75.32873527269214,
              6.200654142775116
            ],
            [
              -75.32533657944617,
              6.2009720846553105
            ],
            [
              -75.32727712166934,
              6.206212655383097
            ],
            [
              -75.32219004529799,
              6.20621265538309
            ],
            [
              -75.32663027486052,
              6.207933925857188
            ],
            [
              -75.32743061243269,
              6.211606711484327
            ],
            [
              -75.32930537636508,
              6.210137595616469
            ],
            [
              -75.33051136379851,
              6.213569181600989
            ],
            [
              -75.32912996130148,
              6.217625686500806
            ],
            [
              -75.32720037763517,
              6.217559906413381
            ],
            [
              -75.33071967070248,
              6.218776859590115
            ],
            [
              -75.32757549193889,
              6.224489369611667
            ],
            [
              -75.33451534236525,
              6.227128694783147
            ],
            [
              -75.3442669856521,
              6.223656430355255
            ],
            [
              -75.3454703913253,
              6.227368086115715
            ],
            [
              -75.34309967072255,
              6.229627564654841
            ],
            [
              -75.34714728229409,
              6.233441411046841
            ],
            [
              -75.36798183904375,
              6.228157457046114
            ],
            [
              -75.37082369404908,
              6.2294397815765175
            ],
            [
              -75.37177891477444,
              6.233337823533935
            ],
            [
              -75.37761831193114,
              6.233876653233651
            ],
            [
              -75.38097757269799,
              6.230709874636234
            ],
            [
              -75.37869569644596,
              6.221661345079537
            ],
            [
              -75.3801467723319,
              6.217026148605801
            ],
            [
              -75.38934081470785,
              6.212379482433383
            ],
            [
              -75.39419055689035,
              6.215220390613597
            ],
            [
              -75.40545520596817,
              6.213214725870357
            ],
            [
              -75.40876451138223,
              6.2147356027061065
            ],
            [
              -75.41333531207368,
              6.209425782594543
            ],
            [
              -75.41457878713203,
              6.203841866508396
            ],
            [
              -75.41771801976773,
              6.2055711634359225
            ],
            [
              -75.42332117239289,
              6.199526182171224
            ],
            [
              -75.4311135480595,
              6.200820156961837
            ],
            [
              -75.43419491117845,
              6.2059871124900265
            ],
            [
              -75.4333577372604,
              6.2102547171582545
            ],
            [
              -75.4487568390158,
              6.2046423316414385
            ],
            [
              -75.44994964456015,
              6.201538067752779
            ],
            [
              -75.45553650442798,
              6.1991312114907045
            ],
            [
              -75.46409434414136,
              6.198420794451799
            ],
            [
              -75.46599045655353,
              6.1950216601327845
            ],
            [
              -75.4710707138081,
              6.197321703029189
            ],
            [
              -75.47503701071366,
              6.195617180758652
            ],
            [
              -75.47768327627466,
              6.20110833314137
            ],
            [
              -75.4856981603229,
              6.205274772156598
            ]
          ]
        ]
      }
    }
  ]
}
